station,valid,tmpf,dwpf,relh,drct,sknt,p01i,alti,mslp,vsby,gust,skyc1,skyc2,skyc3,skyc4,skyl1,skyl2,skyl3,skyl4,wxcodes,ice_accretion_1hr,ice_accretion_3hr,ice_accretion_6hr,peak_wind_gust,peak_wind_drct,peak_wind_time,feel
CYVR,2022-01-01 00:00,24.8,8.6,49.59,130.0,5.0,0.0,30.15,1021.2,30.0,,FEW,FEW,FEW,BKN,2500.0,12000.0,18000.0,21000.0,,,,,,,,17.84
LNS,2022-01-01 00:01,51.1,46.9,85.48,140.0,7.0,0.0,29.93,,10.0,,FEW,BKN,OVC,,700.0,2300.0,3100.0,,,,,,,,,51.1
QD3,2022-01-01 00:02,77.0,69.8,78.48,80.0,7.0,0.0,29.93,1012.0,2.49,,FEW,SCT,BKN,OVC,1400.0,2500.0,3600.0,4500.0,HZ,,,,,,,77.0
GCN,2022-01-01 00:03,35.1,32.0,88.33,250.0,9.0,0.0001,29.52,,10.0,16.0,BKN,BKN,OVC,,800.0,1400.0,2100.0,,UP,,,,,,,27.37
OLS,2022-01-01 00:04,44.1,44.1,100.0,240.0,4.0,0.02,29.71,,3.0,,SCT,BKN,OVC,,1900.0,2500.0,3100.0,,RA BR,,,,,,,41.55
CYVQ,2022-01-01 00:05,-47.2,-54.4,64.32,0.0,0.0,0.0,30.13,1022.3,2.5,,FEW,FEW,FEW,FEW,900.0,2000.0,12000.0,23000.0,BR,,,,,,,-47.2
PACZ,2022-01-01 00:06,-0.4,-4.0,84.3,20.0,41.0,0.0,29.87,1013.4,10.0,50.0,BKN,,,,1000.0,,,,-SN,,,,50.0,20.0,2021-12-31 23:57,-31.12
CYWA,2022-01-01 00:07,30.2,28.4,92.92,140.0,5.0,0.0,29.84,1011.3,5.0,,FEW,FEW,FEW,OVC,600.0,1800.0,3400.0,4200.0,,,,,,,,24.26
QD3,2022-01-01 00:08,77.0,69.8,78.48,90.0,8.0,0.0,29.93,1012.0,1.62,,FEW,SCT,BKN,OVC,1400.0,3500.0,4400.0,5000.0,HZ,,,,,,,77.0
MLF,2022-01-01 00:09,28.0,23.0,81.25,10.0,21.0,0.0001,29.56,,1.75,30.0,BKN,OVC,,,3300.0,4400.0,,,-SN,,,,30.0,20.0,2022-01-01 00:04,13.52
IND,2022-01-01 00:10,55.0,51.1,86.66,200.0,10.0,0.0,29.66,,9.0,34.0,FEW,BKN,OVC,,800.0,2100.0,11000.0,,,,,,34.0,330.0,2022-01-01 00:06,55.0
MLF,2022-01-01 00:11,27.0,23.0,84.66,10.0,19.0,0.0001,29.56,,1.25,30.0,BKN,OVC,,,3100.0,4400.0,,,-SN BR,,,,30.0,20.0,2022-01-01 00:04,12.82
MTJ,2022-01-01 00:12,28.0,27.0,95.97,320.0,15.0,0.0001,29.5,,0.75,24.0,SCT,BKN,OVC,,600.0,1100.0,3100.0,,-SN BR,,,,,,,15.59
FHU,2022-01-01 00:13,42.8,39.2,86.99,250.0,25.0,0.0,29.69,1003.1,1.25,33.0,BKN,BKN,OVC,,600.0,1500.0,3200.0,,RA BR,,,,,,,32.43
CHA,2022-01-01 00:14,62.6,62.6,100.0,0.0,0.0,0.0,29.89,,5.0,,SCT,SCT,BKN,OVC,700.0,2700.0,22000.0,25000.0,BR,,,,,,,62.6
HSD,2022-01-01 00:15,55.4,51.8,87.65,180.0,15.0,0.0,29.64,,6.0,20.0,SCT,BKN,OVC,,5000.0,6000.0,8500.0,,HZ,,,,,,,55.4
GTB,2022-01-01 00:16,39.2,32.0,75.16,150.0,4.0,0.0,29.87,1012.2,8.0,,SCT,BKN,BKN,OVC,900.0,2500.0,3100.0,4300.0,,,,,,,,35.83
PADU,2022-01-01 00:17,35.6,30.2,80.51,320.0,20.0,0.0,29.86,,3.0,36.0,BKN,OVC,,,1400.0,2000.0,,,-RASN BR,,,,42.0,300.0,2021-12-31 23:30,23.92
CYVQ,2022-01-01 00:18,-47.2,-54.4,64.32,20.0,2.0,0.0,30.13,1022.3,1.5,,FEW,FEW,FEW,FEW,900.0,2000.0,12000.0,23000.0,BR,,,,,,,-47.2
PAFR,2022-01-01 00:19,19.4,17.6,92.57,0.0,0.0,0.0,29.24,991.3,10.0,,SCT,SCT,OVC,,600.0,1200.0,3400.0,,,,,,,,,19.4
CYUL,2022-01-01 00:20,30.2,28.4,92.92,30.0,5.0,0.0,29.9,1013.0,8.0,,FEW,BKN,OVC,,800.0,1500.0,7500.0,,-SN,,,,,,,24.26
RJSC,2022-01-01 00:21,23.0,21.2,92.69,90.0,5.0,0.0,30.0,,1.86,,FEW,SCT,BKN,,400.0,800.0,1500.0,,-SHSN,,,,,,,15.71
PAOH,2022-01-01 00:22,32.0,28.4,86.39,100.0,10.0,0.0001,29.49,,3.0,,FEW,BKN,OVC,,1500.0,2600.0,4300.0,,-SN BR,,,,,,,22.97
WMC,2022-01-01 00:23,25.0,19.9,80.66,340.0,16.0,0.0001,29.75,,5.0,27.0,FEW,BKN,OVC,,2700.0,4000.0,6000.0,,-SN,,,,27.0,330.0,2022-01-01 00:18,11.29
CYTE,2022-01-01 00:24,10.4,3.2,72.12,140.0,20.0,0.0,29.52,1000.2,6.0,28.0,SCT,BKN,,,2100.0,2500.0,,,-SN,,,,,,,-9.55
YKRY,2022-01-01 00:25,68.0,66.2,93.97,160.0,8.0,0.0,29.91,,6.21,,BKN,BKN,BKN,,900.0,4400.0,6400.0,,-TSRA,,,,,,,68.0
GTB,2022-01-01 00:26,37.4,30.2,74.98,150.0,4.0,0.0,29.86,1011.8,7.0,,FEW,SCT,OVC,,900.0,2400.0,4300.0,,,,,,,,,33.73
PADU,2022-01-01 00:27,35.6,30.2,80.51,320.0,22.0,0.0,29.88,,2.0,27.0,BKN,OVC,,,1500.0,2000.0,,,-RA BR,,,,42.0,300.0,2021-12-31 23:30,23.4
CYTE,2022-01-01 00:28,10.4,5.0,78.35,130.0,19.0,0.0,29.51,1000.1,5.0,28.0,SCT,BKN,BKN,,2000.0,2600.0,3100.0,,-SN,,,,,,,-9.13
PVU,2022-01-01 00:29,26.6,24.8,92.8,330.0,14.0,0.0001,29.65,,2.5,22.0,SCT,BKN,OVC,,800.0,1400.0,2200.0,,-SN BR,,,,,,,14.2
PAFR,2022-01-01 00:30,19.4,17.6,92.57,0.0,0.0,0.0,29.23,991.0,10.0,,SCT,SCT,OVC,,500.0,1200.0,3400.0,,-SN,,,,,,,19.4
CYVQ,2022-01-01 00:31,-45.4,-54.4,57.76,0.0,0.0,0.0,30.13,1022.3,3.0,,FEW,FEW,FEW,FEW,900.0,2000.0,12000.0,23000.0,BR,,,,,,,-45.4
CYTE,2022-01-01 00:32,10.4,5.0,78.35,130.0,20.0,0.0,29.51,1000.0,3.0,27.0,SCT,BKN,BKN,,2200.0,2900.0,3300.0,,-SN,,,,,,,-9.55
PAWG,2022-01-01 00:33,32.0,26.6,80.22,100.0,13.0,0.0001,29.74,,2.5,22.0,FEW,SCT,OVC,,1900.0,2700.0,4900.0,,-SN,,,,,,,21.57
PADU,2022-01-01 00:34,33.8,30.2,86.49,300.0,24.0,0.0,29.89,,1.75,31.0,BKN,OVC,,,1300.0,2000.0,,,-RASN BR,,,,42.0,300.0,2021-12-31 23:30,20.49
JTC,2022-01-01 00:35,39.2,33.8,80.79,210.0,19.0,0.0,29.56,,7.0,31.0,FEW,SCT,BKN,,1700.0,2200.0,3000.0,,UP,,,,,,,28.96
PAVA,2022-01-01 00:36,3.2,-0.4,84.56,350.0,31.0,0.0001,29.97,,0.5,36.0,VV ,,,,700.0,,,,-SN FZFG,,,,36.0,350.0,2022-01-01 00:36,-23.24
EHWO,2022-01-01 00:37,53.6,51.8,93.6,220.0,5.0,0.0,30.21,,4.97,,FEW,SCT,BKN,,1300.0,1500.0,38000.0,,BR,,,,,,,53.6
HSV,2022-01-01 00:38,66.2,66.2,100.0,120.0,4.0,0.0,29.86,,8.0,,SCT,BKN,BKN,OVC,2800.0,3500.0,4200.0,25000.0,,,,,,,,66.2
PAHY,2022-01-01 00:39,35.6,33.8,93.08,110.0,17.0,0.0001,29.7,,0.75,34.0,BKN,OVC,,,900.0,1500.0,,,-RA BR,,,,34.0,120.0,2022-01-01 00:31,24.79
PAKP,2022-01-01 00:40,-25.6,-32.8,67.56,50.0,21.0,0.0001,29.89,,2.0,25.0,SCT,OVC,,,2900.0,3700.0,,,HZ,,,,26.0,60.0,2022-01-01 00:03,-57.97
CDC,2022-01-01 00:41,32.0,28.0,84.98,10.0,8.0,0.0,29.53,,10.0,,SCT,BKN,OVC,,1900.0,2500.0,4500.0,,,,,,,,,24.11
DMA,2022-01-01 00:42,48.2,46.4,93.45,190.0,3.0,0.0,29.68,1003.8,10.0,,SCT,BKN,BKN,OVC,4500.0,5000.0,7500.0,8500.0,,,,,,,,47.21
EHWO,2022-01-01 00:43,53.6,51.8,93.6,220.0,6.0,0.0,30.21,,4.97,,FEW,SCT,OVC,,1500.0,2900.0,38000.0,,BR,,,,,,,53.6
CYXY,2022-01-01 00:44,8.6,5.0,84.93,180.0,19.0,0.0,29.31,998.8,15.0,24.0,FEW,OVC,,,2500.0,12000.0,,,-SN DRSN,,,,,,,-11.51
MWA,2022-01-01 00:45,64.4,62.6,93.88,200.0,10.0,0.0,29.7,,10.0,,SCT,SCT,OVC,,1800.0,6000.0,10000.0,,-RA,,,,,,,64.4
CYUL,2022-01-01 00:46,30.2,28.4,92.92,20.0,3.0,0.0,29.91,1013.1,8.0,,SCT,BKN,OVC,,700.0,1400.0,3500.0,,,,,,,,,26.63
PAHY,2022-01-01 00:47,35.6,33.8,93.08,100.0,17.0,0.0001,29.69,,4.0,30.0,BKN,OVC,,,1100.0,1800.0,,,-SN BR,,,,34.0,120.0,2022-01-01 00:31,24.79
DMA,2022-01-01 00:48,48.2,46.4,93.45,180.0,3.0,0.0,29.68,1003.8,10.0,,FEW,BKN,BKN,OVC,4300.0,5000.0,7000.0,8500.0,-DZ,,,,,,,47.21
YAMB,2022-01-01 00:49,71.6,68.0,88.43,180.0,9.0,0.0,29.85,,5.59,,SCT,SCT,BKN,,600.0,1300.0,2100.0,,-SHRA,,,,,,,71.6
EGPF,2022-01-01 00:50,51.8,50.0,93.55,110.0,7.0,0.0,29.77,,4.97,,SCT,BKN,BKN,///,2100.0,2900.0,4100.0,,-RA,,,,,,,51.8
CYNM,2022-01-01 00:51,23.0,19.4,85.85,320.0,16.0,0.0,29.65,1006.1,9.0,,SCT,BKN,BKN,OVC,1100.0,2600.0,3100.0,4300.0,-SN,,,,,,,8.69
ABQ,2022-01-01 00:52,45.0,37.9,76.01,190.0,18.0,0.0001,29.56,999.1,10.0,,FEW,BKN,BKN,,3500.0,6000.0,12000.0,,,,,,27.0,200.0,2022-01-01 00:03,36.86
CGI,2022-01-01 00:53,66.0,61.0,83.91,200.0,15.0,0.0,29.7,1005.6,7.0,29.0,FEW,OVC,,,8000.0,11000.0,,,,,,,29.0,190.0,2022-01-01 00:51,66.0
CYNM,2022-01-01 00:54,23.0,19.4,85.85,320.0,14.0,0.0,29.65,1006.3,9.0,19.0,SCT,BKN,BKN,OVC,900.0,2200.0,2600.0,3200.0,-SN,,,,,,,9.56
MCJ,2022-01-01 00:55,73.4,69.8,88.51,160.0,14.0,0.0,29.73,,4.0,19.0,BKN,BKN,OVC,,1400.0,2000.0,3700.0,,BR,,,,,,,73.4
PAGS,2022-01-01 00:56,33.1,28.0,81.3,140.0,15.0,0.0001,29.47,997.8,4.0,22.0,BKN,BKN,OVC,,2000.0,2900.0,4200.0,,-SN,,,,29.0,150.0,2022-01-01 00:06,22.21
CYVQ,2022-01-01 00:57,-47.2,-56.2,57.44,,2.0,0.0,30.13,1022.3,1.5,,FEW,FEW,FEW,SCT,900.0,2000.0,12000.0,23000.0,BR,,,,,,,-47.2
PAVC,2022-01-01 00:58,37.4,33.8,86.69,310.0,26.0,0.0,29.48,,1.25,38.0,FEW,SCT,OVC,,500.0,1100.0,1700.0,,BR,,,,35.0,320.0,2022-01-01 00:58,24.91
YAMB,2022-01-01 00:59,71.6,68.0,88.43,170.0,10.0,0.0,29.85,,6.21,,SCT,SCT,BKN,,600.0,1600.0,3500.0,,-SHRA,,,,,,,71.6
CYVQ,2022-01-01 01:00,-47.2,-56.2,57.44,0.0,0.0,0.0,30.13,1022.3,1.5,,FEW,FEW,FEW,SCT,900.0,2000.0,12000.0,23000.0,BR,,,,,,,-47.2
RJSN,2022-01-01 01:01,32.0,24.8,74.44,280.0,28.0,0.0,30.15,,3.73,38.0,FEW,SCT,BKN,,800.0,1000.0,2000.0,,-SHSN,,,,,,,17.12
PIL,2022-01-01 01:02,77.0,72.0,84.58,160.0,18.0,0.0001,29.69,,9.0,28.0,SCT,,,,1400.0,,,,-RA,,,,28.0,160.0,2022-01-01 00:58,77.0
PADU,2022-01-01 01:03,33.8,30.2,86.49,320.0,20.0,0.0,29.92,,1.5,26.0,SCT,OVC,,,900.0,1700.0,,,-RASN BR,,,,26.0,320.0,2022-01-01 01:02,21.53
PAVC,2022-01-01 01:04,37.4,33.8,86.69,290.0,27.0,0.0,29.48,,2.0,38.0,SCT,BKN,OVC,,500.0,1300.0,2000.0,,BR,,,,36.0,290.0,2022-01-01 01:04,24.7
ESC,2022-01-01 01:05,26.6,24.8,92.8,350.0,4.0,0.0001,29.81,,3.0,,FEW,BKN,OVC,,1800.0,2400.0,3600.0,,-SN BR,,,,,,,21.11
SAD,2022-01-01 01:06,50.0,50.0,100.0,310.0,20.0,0.03,29.55,,3.0,30.0,FEW,BKN,OVC,,1300.0,3900.0,5000.0,,+RA BR,,,,30.0,300.0,2022-01-01 01:06,50.0
GUP,2022-01-01 01:07,39.9,36.0,85.81,230.0,9.0,0.0001,29.52,,10.0,,FEW,BKN,OVC,,2100.0,3200.0,4100.0,,-RA,,,,,,,33.34
DRA,2022-01-01 01:08,43.0,34.0,70.3,20.0,19.0,0.0,29.59,,10.0,27.0,SCT,BKN,OVC,,2500.0,2900.0,6500.0,,,,,,27.0,20.0,2022-01-01 01:05,33.98
RJSK,2022-01-01 01:09,23.0,15.8,73.51,300.0,21.0,0.0,29.97,,0.25,35.0,FEW,BKN,,,200.0,400.0,,,SHSN BLSN,,,,,,,6.85
SAD,2022-01-01 01:10,48.9,48.9,100.0,300.0,24.0,0.06,29.55,,2.5,31.0,FEW,BKN,OVC,,1100.0,4000.0,5000.0,,+RA BR,,,,31.0,310.0,2022-01-01 01:09,40.86
CRP,2022-01-01 01:11,75.9,72.0,87.73,160.0,20.0,0.0,29.68,,7.0,26.0,SCT,BKN,BKN,,1100.0,1500.0,2200.0,,,,,,28.0,170.0,2022-01-01 00:52,75.9
BKF,2022-01-01 01:12,17.6,15.8,92.5,60.0,11.0,0.0,29.59,1004.5,3.0,,SCT,BKN,OVC,,800.0,1200.0,2000.0,,-SN BR,,,,,,,4.27
DRA,2022-01-01 01:13,42.1,33.1,70.2,20.0,17.0,0.0,29.58,,10.0,27.0,SCT,BKN,OVC,,2500.0,3100.0,7000.0,,,,,,27.0,20.0,2022-01-01 01:05,33.31
PAVC,2022-01-01 01:14,39.2,33.8,80.79,300.0,22.0,0.0,29.51,,1.5,35.0,FEW,BKN,OVC,,500.0,1300.0,2000.0,,HZ,,,,36.0,290.0,2022-01-01 01:04,28.22
AZC,2022-01-01 01:15,37.4,33.8,86.69,320.0,12.0,0.0,29.55,,7.0,15.0,SCT,BKN,OVC,,900.0,1500.0,2400.0,,RA,,,,,,,28.87
RJSK,2022-01-01 01:16,23.0,19.4,85.85,300.0,22.0,0.0,29.97,,1.55,,FEW,SCT,BKN,,300.0,800.0,1500.0,,-SHSN,,,,,,,6.53
CEW,2022-01-01 01:17,75.0,72.0,90.4,210.0,9.0,0.0,29.99,,10.0,18.0,FEW,BKN,OVC,,800.0,1200.0,1600.0,,,,,,,,,75.0
PAGY,2022-01-01 01:18,32.0,28.9,88.17,220.0,16.0,0.0001,29.44,,2.5,22.0,BKN,BKN,OVC,,1000.0,1600.0,3000.0,,-SN BR,,,,,,,20.42
CYPX,2022-01-01 01:19,-2.2,-5.8,84.17,130.0,15.0,0.0,29.6,1003.0,6.0,20.0,BKN,BKN,BKN,,1900.0,3300.0,13000.0,,-SN,,,,,,,-23.56
SAD,2022-01-01 01:20,48.0,48.0,100.0,310.0,17.0,0.09,29.55,,6.0,26.0,FEW,SCT,OVC,,2600.0,3600.0,5000.0,,-RA BR,,,,31.0,310.0,2022-01-01 01:09,41.04
PASY,2022-01-01 01:21,39.2,39.2,100.0,150.0,29.0,0.0,30.11,1020.0,7.0,35.0,BKN,BKN,OVC,,1100.0,1600.0,4400.0,,-RA,,,,,,,26.78
PAHY,2022-01-01 01:22,35.6,33.8,93.08,110.0,24.0,0.0001,29.68,,3.0,32.0,BKN,OVC,,,900.0,1800.0,,,-SN BR,,,,33.0,120.0,2022-01-01 01:04,22.92
CYTE,2022-01-01 01:23,10.4,3.2,72.12,140.0,18.0,0.0,29.52,1000.4,4.0,28.0,FEW,OVC,,,1800.0,2500.0,,,-SN,,,,,,,-8.69
COD,2022-01-01 01:24,-4.0,-9.4,76.96,40.0,12.0,0.0001,29.74,,2.5,,SCT,BKN,OVC,,2400.0,2900.0,4700.0,,-SN,,,,,,,-23.82
PAII,2022-01-01 01:25,28.4,26.6,92.86,350.0,7.0,0.0001,29.44,,8.0,14.0,SCT,BKN,OVC,,200.0,800.0,1500.0,,UP,,,,,,,20.39
PAVC,2022-01-01 01:26,39.2,33.8,80.79,280.0,25.0,0.0,29.53,,1.5,34.0,FEW,SCT,OVC,,500.0,1200.0,1800.0,,HZ,,,,36.0,290.0,2022-01-01 01:04,27.56
PAJZ,2022-01-01 01:27,8.6,3.2,78.18,20.0,14.0,0.0001,29.53,,6.0,21.0,SCT,BKN,OVC,,2500.0,3100.0,4500.0,,HZ,,,,,,,-9.0
CHA,2022-01-01 01:28,62.6,62.6,100.0,0.0,0.0,0.0,29.9,,2.5,,FEW,SCT,BKN,OVC,100.0,2700.0,18000.0,25000.0,BR BCFG,,,,,,,62.6
RJSN,2022-01-01 01:29,30.2,28.4,92.92,280.0,26.0,0.0,30.15,,1.86,,FEW,SCT,BKN,,500.0,800.0,1500.0,,-SHSN,,,,,,,15.13
CYPX,2022-01-01 01:30,-2.2,-7.6,77.14,130.0,14.0,0.0,29.6,1002.9,9.0,,FEW,BKN,BKN,BKN,1900.0,3600.0,5500.0,13000.0,,,,,,,,-22.92
PADU,2022-01-01 01:31,33.8,30.2,86.49,320.0,17.0,0.0,29.96,,1.25,23.0,BKN,OVC,,,800.0,1300.0,,,-SN BR,,,,26.0,310.0,2022-01-01 01:21,22.43
PASY,2022-01-01 01:32,39.2,39.2,100.0,150.0,29.0,0.0,30.12,1020.4,7.0,34.0,BKN,BKN,BKN,,1100.0,2900.0,4400.0,,,,,,,,,26.78
PHBK,2022-01-01 01:33,73.9,69.1,84.97,160.0,13.0,0.03,29.72,,1.75,23.0,SCT,BKN,BKN,,1800.0,3500.0,7500.0,,RA,,,,,,,73.9
PAVC,2022-01-01 01:34,37.4,33.8,86.69,280.0,16.0,0.0,29.55,,1.0,32.0,BKN,OVC,,,1400.0,2100.0,,,BR,,,,36.0,290.0,2022-01-01 01:04,27.46
PHBK,2022-01-01 01:35,73.9,70.0,87.63,160.0,14.0,0.04,29.72,,1.5,22.0,FEW,SCT,BKN,,1800.0,3500.0,7500.0,,RA BR,,,,,,,73.9
CYPX,2022-01-01 01:36,-4.0,-7.6,84.04,130.0,14.0,0.0,29.6,1002.9,9.0,,FEW,SCT,BKN,,1900.0,3600.0,5000.0,,-SN,,,,,,,-25.24
ESC,2022-01-01 01:37,26.6,24.8,92.8,20.0,4.0,0.0001,29.8,,2.5,,FEW,BKN,OVC,,800.0,2100.0,2700.0,,-SN BR,,,,,,,21.11
QD3,2022-01-01 01:38,77.0,69.8,78.48,80.0,8.0,0.0,29.94,1012.3,2.73,,FEW,SCT,BKN,BKN,1600.0,2100.0,3700.0,5500.0,HZ,,,,,,,77.0
DRA,2022-01-01 01:39,39.9,34.0,79.25,30.0,13.0,0.0001,29.62,,10.0,,FEW,SCT,OVC,,1600.0,2800.0,3400.0,,-RA,,,,27.0,20.0,2022-01-01 01:05,31.69
RJSK,2022-01-01 01:40,24.8,17.6,73.7,310.0,18.0,0.0,29.97,,0.5,29.0,FEW,BKN,BKN,,200.0,400.0,800.0,,SHSN,,,,,,,10.27
PADU,2022-01-01 01:41,33.8,30.2,86.49,320.0,17.0,0.0,29.97,,2.0,29.0,SCT,OVC,,,800.0,1600.0,,,-SN BR,,,,29.0,360.0,2022-01-01 01:33,22.43
OFK,2022-01-01 01:42,8.1,-2.0,62.7,350.0,19.0,0.0,29.95,,10.0,25.0,BKN,OVC,,,1800.0,3700.0,,,,,,,27.0,360.0,2022-01-01 01:07,-12.17
RJSH,2022-01-01 01:43,23.0,15.8,73.51,290.0,8.0,0.0,29.88,,1.18,,SCT,BKN,OVC,,500.0,1000.0,2000.0,,-SHSN,,,,,,,13.03
PAVA,2022-01-01 01:44,3.2,-0.4,84.56,360.0,17.0,0.0001,30.05,,0.75,21.0,SCT,OVC,,,1200.0,1900.0,,,-SN BR,,,,27.0,360.0,2022-01-01 01:14,-17.65
ALK,2022-01-01 01:45,41.0,41.0,100.0,250.0,12.0,0.02,29.73,,10.0,,SCT,BKN,OVC,,2300.0,3000.0,3800.0,,,,,,28.0,260.0,2022-01-01 01:03,33.46
ESC,2022-01-01 01:46,26.6,24.8,92.8,10.0,4.0,0.0001,29.8,,3.0,,SCT,BKN,OVC,,1100.0,2800.0,7000.0,,-SN BR,,,,,,,21.11
LUF,2022-01-01 01:47,57.2,53.6,87.74,200.0,12.0,0.0,29.59,1001.8,10.0,,FEW,BKN,BKN,OVC,300.0,1700.0,2300.0,2900.0,,,,,,,,57.2
CYDL,2022-01-01 01:48,-0.4,-4.0,84.3,,2.0,0.0,29.49,1004.7,2.5,,SCT,BKN,BKN,OVC,4300.0,7100.0,10000.0,12000.0,-SN,,,,,,,-0.4
RJSH,2022-01-01 01:49,23.0,15.8,73.51,300.0,6.0,0.0,29.85,,0.93,,SCT,BKN,OVC,,500.0,1000.0,2000.0,,-SHSN,,,,,,,14.69
FLD,2022-01-01 01:50,26.6,24.8,92.8,360.0,8.0,0.0001,29.78,,1.5,,FEW,BKN,OVC,,700.0,1400.0,2300.0,,-SN BR,0.0001,,,,,,17.46
CRP,2022-01-01 01:51,75.9,73.0,90.74,160.0,20.0,0.0,29.69,1005.2,7.0,29.0,FEW,SCT,OVC,,1100.0,1500.0,2000.0,,,,,,29.0,160.0,2022-01-01 01:49,75.9
ABQ,2022-01-01 01:52,44.1,37.9,78.66,180.0,22.0,0.0,29.53,998.3,10.0,30.0,FEW,SCT,BKN,,3500.0,6000.0,15000.0,,,,,,34.0,190.0,2022-01-01 01:34,34.78
HBR,2022-01-01 01:53,55.0,51.1,86.66,170.0,19.0,0.03,29.61,1002.1,10.0,27.0,FEW,SCT,SCT,,6500.0,9000.0,12000.0,,,,,,27.0,170.0,2022-01-01 01:45,55.0
PAKN,2022-01-01 01:54,19.9,18.0,92.19,360.0,13.0,0.0001,29.4,995.7,4.0,21.0,FEW,BKN,OVC,,800.0,1500.0,2000.0,,-SN BR,,,,,,,6.07
CYDL,2022-01-01 01:55,-0.4,-4.0,84.3,60.0,2.0,0.0,29.49,1004.6,3.0,,BKN,BKN,BKN,OVC,4300.0,7100.0,10000.0,12000.0,-SN,,,,,,,-0.4
ALK,2022-01-01 01:56,41.0,41.0,100.0,260.0,15.0,0.02,29.73,1001.9,10.0,21.0,SCT,BKN,OVC,,2000.0,2800.0,3700.0,,,,,,28.0,260.0,2022-01-01 01:03,32.45
PHNG,2022-01-01 01:57,72.0,70.0,93.43,120.0,3.0,0.02,29.75,1006.8,10.0,,SCT,BKN,OVC,,2700.0,3400.0,9500.0,,-RA,,,,,,,72.0
PASY,2022-01-01 01:58,40.1,38.3,93.22,150.0,28.0,0.0,30.11,1020.0,7.0,35.0,BKN,OVC,,,1300.0,2800.0,,,,,,,35.0,150.0,2022-01-01 01:50,28.2
CYDL,2022-01-01 01:59,-0.4,-4.0,84.3,60.0,2.0,0.0,29.48,1004.5,6.0,,BKN,BKN,BKN,OVC,4300.0,7100.0,10000.0,12000.0,-SN,,,,,,,-0.4
CYDL,2022-01-01 02:00,-0.4,-4.0,84.3,,2.0,0.0,29.48,1005.6,8.0,,BKN,BKN,BKN,OVC,4300.0,7100.0,10000.0,12000.0,-SN,,,,,,,-0.4
DVT,2022-01-01 02:01,54.0,52.0,92.92,250.0,11.0,0.0001,29.6,,4.0,,FEW,BKN,OVC,,1600.0,2100.0,4100.0,,-RA BR,,,,,,,54.0
CEU,2022-01-01 02:02,60.1,60.1,100.0,250.0,6.0,0.01,29.97,,1.75,,SCT,BKN,OVC,,200.0,700.0,1700.0,,VCTS -RA BR,,,,,,,60.1
QRH,2022-01-01 02:03,78.8,71.6,78.62,70.0,10.0,0.0,29.9,1012.8,6.21,17.0,FEW,SCT,BKN,BKN,1600.0,2000.0,3500.0,5500.0,,,,,,,,78.8
EHGR,2022-01-01 02:04,53.6,51.8,93.6,210.0,6.0,0.0,30.21,,5.59,,FEW,SCT,BKN,,900.0,1400.0,1700.0,,BR,,,,,,,53.6
RJSN,2022-01-01 02:05,30.2,26.6,86.28,290.0,29.0,0.0,30.15,,2.49,39.0,FEW,SCT,BKN,,500.0,800.0,1500.0,,-SHSN,,,,,,,14.44
PAGY,2022-01-01 02:06,32.0,30.0,92.22,200.0,12.0,0.0001,29.4,,2.5,,FEW,BKN,OVC,,1000.0,2900.0,5000.0,,-SN BR,,,,,,,22.0
PAMD,2022-01-01 02:07,37.4,35.6,93.14,140.0,3.0,0.0001,28.94,,2.5,,SCT,BKN,OVC,,1600.0,2100.0,8000.0,,-RA BR,,,,,,,34.86
PHSF,2022-01-01 02:08,57.2,53.6,87.74,310.0,3.0,0.0,30.13,1010.0,3.0,,FEW,SCT,BKN,OVC,900.0,1300.0,2400.0,3200.0,-RA BR,,,,,,,57.2
LUF,2022-01-01 02:09,55.4,55.4,100.0,210.0,13.0,0.0,29.59,1001.8,10.0,,FEW,SCT,BKN,BKN,300.0,1200.0,1800.0,2600.0,,,,,,,,55.4
RJSR,2022-01-01 02:10,23.0,19.4,85.85,270.0,16.0,0.0,29.94,,0.37,30.0,FEW,SCT,BKN,,100.0,300.0,600.0,,SHSN,,,,,,,8.69
CEF,2022-01-01 02:11,46.4,46.4,100.0,190.0,4.0,0.0,29.92,1013.9,7.0,,SCT,BKN,OVC,,600.0,1300.0,3100.0,,,,,,,,,44.24
PAKP,2022-01-01 02:12,-23.8,-29.2,74.83,60.0,20.0,0.0001,29.89,,1.75,25.0,OVC,,,,3900.0,,,,-SN,,,,26.0,50.0,2022-01-01 02:02,-54.97
INS,2022-01-01 02:13,41.0,33.8,75.33,350.0,5.0,0.0,29.64,1003.0,10.0,,FEW,SCT,SCT,BKN,2000.0,2600.0,3500.0,5000.0,-RA,,,,,,,37.08
RJSY,2022-01-01 02:14,30.2,19.4,63.75,290.0,22.0,0.0,30.06,,2.49,36.0,FEW,SCT,BKN,,500.0,2000.0,3000.0,,-SHSN,,,,,,,16.17
M30,2022-01-01 02:15,64.8,62.2,91.28,240.0,5.0,0.01,29.76,,5.0,14.0,SCT,BKN,OVC,,2100.0,4000.0,9500.0,,-RA,,,,,,,64.8
RJSK,2022-01-01 02:16,23.0,21.2,92.69,310.0,16.0,0.0,29.97,,1.55,28.0,FEW,SCT,BKN,,200.0,800.0,1500.0,,-SHSN,,,,,,,8.69
RJSA,2022-01-01 02:17,21.2,15.8,79.31,300.0,13.0,0.0,29.88,,0.31,26.0,FEW,BKN,BKN,,500.0,700.0,1500.0,,SHSN,,,,,,,7.73
PASY,2022-01-01 02:18,41.0,37.4,86.89,150.0,30.0,0.0,30.1,1019.7,6.0,38.0,FEW,SCT,BKN,OVC,1300.0,2500.0,3000.0,6000.0,BR,,,,,,,29.07
LUF,2022-01-01 02:19,55.4,55.4,100.0,210.0,14.0,0.0,29.6,1002.1,10.0,,FEW,BKN,BKN,OVC,1200.0,3000.0,3700.0,4600.0,,,,,,,,55.4
ENAN,2022-01-01 02:20,28.4,24.8,86.18,360.0,23.0,0.0,29.91,,1.24,33.0,FEW,SCT,BKN,,1000.0,3300.0,4700.0,,FZRA,,,,,,,13.47
PHJR,2022-01-01 02:21,75.9,71.1,85.09,130.0,11.0,0.0001,29.79,,4.0,20.0,SCT,BKN,OVC,,1000.0,2000.0,2800.0,,-RA,,,,,,,75.9
CYTE,2022-01-01 02:22,8.6,3.2,78.18,130.0,21.0,0.0,29.52,1000.5,5.0,26.0,SCT,SCT,BKN,,2200.0,2700.0,3300.0,,-SN,,,,,,,-12.36
PAKP,2022-01-01 02:23,-23.8,-29.2,74.83,60.0,18.0,0.0001,29.89,,2.0,26.0,OVC,,,,3900.0,,,,-SN,,,,26.0,60.0,2022-01-01 02:19,-53.71
CGZ,2022-01-01 02:24,53.6,51.8,93.6,200.0,8.0,0.0001,29.65,,10.0,,BKN,BKN,OVC,,1400.0,4400.0,7000.0,,,,,,,,,53.6
RJSA,2022-01-01 02:25,21.2,17.6,85.74,290.0,13.0,0.0,29.88,,1.24,26.0,FEW,SCT,BKN,,500.0,700.0,1500.0,,-SHSN,,,,,,,7.73
INS,2022-01-01 02:26,41.0,32.0,70.08,270.0,5.0,0.0,29.65,1003.3,10.0,,FEW,SCT,SCT,BKN,1600.0,3400.0,5000.0,6500.0,,,,,,,,37.08
INS,2022-01-01 02:27,41.0,32.0,70.08,270.0,6.0,0.0,29.65,1003.3,10.0,,FEW,SCT,SCT,BKN,1200.0,3400.0,5000.0,6500.0,,,,,,,,36.37
CYVQ,2022-01-01 02:28,-47.2,-56.2,57.44,290.0,2.0,0.0,30.12,1021.8,2.5,,FEW,FEW,FEW,FEW,500.0,2000.0,12000.0,23000.0,BR,,,,,,,-47.2
RJSN,2022-01-01 02:29,32.0,26.6,80.22,280.0,27.0,0.0,30.15,,2.49,,FEW,SCT,BKN,,500.0,800.0,2000.0,,-SHSN,,,,,,,17.34
VOTP,2022-01-01 02:30,77.0,73.4,88.67,40.0,13.0,0.0,30.03,,1.24,23.0,SCT,FEW,BKN,,1500.0,2000.0,8000.0,,BR,,,,,,,77.0
CYTE,2022-01-01 02:31,8.6,3.2,78.18,130.0,20.0,0.0,29.52,1000.5,7.0,26.0,SCT,BKN,BKN,,2400.0,3500.0,5000.0,,-SN,,,,,,,-11.94
QD3,2022-01-01 02:32,77.0,69.8,78.48,90.0,9.0,0.0,29.95,1012.7,3.11,,FEW,BKN,OVC,,1600.0,4300.0,5000.0,,-SHRA BR,,,,,,,77.0
CYTE,2022-01-01 02:33,8.6,3.2,78.18,130.0,21.0,0.0,29.52,1000.4,7.0,26.0,SCT,BKN,BKN,BKN,2400.0,3500.0,4200.0,5000.0,,,,,,,,-12.36
GMU,2022-01-01 02:34,62.1,60.1,93.16,0.0,0.0,0.04,29.97,,3.0,,SCT,BKN,OVC,,2100.0,8000.0,9000.0,,-RA BR,,,,,,,62.1
JZI,2022-01-01 02:35,66.2,66.2,100.0,220.0,7.0,0.0,30.03,,5.0,12.0,SCT,BKN,OVC,,600.0,3500.0,5000.0,,BR,,,,,,,66.2
PAEH,2022-01-01 02:36,5.0,3.2,92.06,360.0,27.0,0.0,29.73,1008.2,5.0,33.0,OVC,,,,600.0,,,,-SHSN,,,,37.0,320.0,2022-01-01 02:14,-19.46
RJSK,2022-01-01 02:37,24.8,21.2,85.96,300.0,19.0,0.0,29.97,,1.55,32.0,FEW,SCT,BKN,,200.0,800.0,1500.0,,-SHSN,,,,,,,9.92
RJSC,2022-01-01 02:38,24.8,23.0,92.74,40.0,5.0,0.0,30.0,,1.24,,FEW,SCT,BKN,,300.0,600.0,1500.0,,-SHSN,,,,,,,17.84
UZA,2022-01-01 02:39,64.0,62.1,93.54,210.0,7.0,0.04,29.95,,2.5,,SCT,BKN,OVC,,900.0,3000.0,11000.0,,+RA BR,,,,,,,64.0
GOK,2022-01-01 02:40,55.9,53.1,90.29,180.0,14.0,0.03,29.61,,10.0,26.0,FEW,BKN,BKN,,6000.0,8000.0,11000.0,,-RA,,,,26.0,160.0,2022-01-01 02:31,55.9
DVT,2022-01-01 02:41,53.1,52.0,96.03,230.0,9.0,0.01,29.6,,6.0,,BKN,BKN,OVC,,1200.0,3900.0,5500.0,,-RA BR,,,,,,,53.1
FTK,2022-01-01 02:42,64.4,62.6,93.88,200.0,5.0,0.0,29.77,1008.2,9.0,,FEW,SCT,SCT,BKN,1600.0,2300.0,2900.0,3400.0,-RA,,,,,,,64.4
INS,2022-01-01 02:43,41.0,33.8,75.33,270.0,6.0,0.0,29.67,1004.0,10.0,,FEW,SCT,SCT,BKN,1700.0,2200.0,2900.0,3800.0,-RA,,,,,,,36.37
LUF,2022-01-01 02:44,55.4,55.4,100.0,210.0,11.0,0.0,29.6,1002.1,10.0,,FEW,SCT,BKN,BKN,300.0,2000.0,3000.0,3600.0,-DZ,,,,,,,55.4
RJSN,2022-01-01 02:45,32.0,26.6,80.22,280.0,26.0,0.0,30.15,,3.11,37.0,FEW,SCT,BKN,,500.0,800.0,2000.0,,-SHSN,,,,,,,17.58
PHSF,2022-01-01 02:46,55.4,53.6,93.65,290.0,4.0,0.0,30.14,1010.4,5.0,,FEW,SCT,BKN,OVC,300.0,800.0,1400.0,1900.0,BR,,,,,,,55.4
PAKP,2022-01-01 02:47,-23.8,-29.2,74.83,50.0,20.0,0.0001,29.89,,1.5,25.0,BKN,OVC,,,2600.0,3900.0,,,-SN,,,,26.0,60.0,2022-01-01 02:19,-54.97
CEZ,2022-01-01 02:48,34.0,32.0,92.29,290.0,11.0,0.0001,29.49,997.4,5.0,20.0,BKN,BKN,OVC,,2700.0,3800.0,5000.0,,-SN BR,,,,,,,24.99
CHA,2022-01-01 02:49,62.6,60.8,93.83,260.0,3.0,0.0,29.9,,0.75,,SCT,SCT,SCT,BKN,100.0,4000.0,9500.0,20000.0,BR BCFG,,,,,,,62.6
NSTU,2022-01-01 02:50,86.9,77.9,74.69,40.0,7.0,0.0,29.73,1006.9,12.0,,FEW,SCT,BKN,,2100.0,10000.0,20000.0,,,,,,,,,99.7
VCT,2022-01-01 02:51,75.9,70.0,81.96,170.0,19.0,0.0,29.71,1006.0,9.0,23.0,SCT,OVC,,,1800.0,2400.0,,,,,,,26.0,180.0,2022-01-01 02:09,75.9
ABQ,2022-01-01 02:52,44.1,37.9,78.66,180.0,23.0,0.0,29.53,997.9,10.0,38.0,FEW,BKN,BKN,,3500.0,7000.0,15000.0,,,,,,38.0,170.0,2022-01-01 02:52,34.58
BCE,2022-01-01 02:53,19.0,15.1,84.49,30.0,19.0,0.0001,29.5,997.8,8.0,26.0,SCT,BKN,OVC,,1300.0,2100.0,3000.0,,-SN,,,,26.0,30.0,2022-01-01 02:53,2.25
OLS,2022-01-01 02:54,44.1,41.0,88.77,220.0,15.0,0.0001,29.75,1004.9,10.0,24.0,SCT,SCT,OVC,,3000.0,3800.0,7000.0,,-RA,,,,26.0,240.0,2022-01-01 02:44,36.47
CYTE,2022-01-01 02:55,8.6,5.0,84.93,130.0,21.0,0.0,29.52,1000.4,2.25,27.0,SCT,BKN,OVC,,2200.0,2800.0,4000.0,,-SN,,,,,,,-12.36
FTK,2022-01-01 02:56,63.0,62.6,98.6,180.0,5.0,0.02,29.77,1008.2,9.0,,FEW,SCT,SCT,BKN,1400.0,2700.0,3700.0,5000.0,-RA,,,,,,,63.0
AFF,2022-01-01 02:57,24.8,19.4,79.62,360.0,9.0,0.0,29.52,1002.0,5.0,,BKN,BKN,OVC,,200.0,2200.0,3100.0,,-SN,,,,,,,14.56
PASY,2022-01-01 02:58,40.3,37.9,91.06,160.0,31.0,0.0,30.1,1019.7,4.0,40.0,FEW,BKN,BKN,,1300.0,2200.0,6000.0,,BR,,,,40.0,150.0,2022-01-01 02:49,27.94
CZSJ,2022-01-01 02:59,-16.6,-23.8,68.79,250.0,5.0,0.0,29.85,1015.1,5.0,,BKN,BKN,OVC,,1100.0,3700.0,6000.0,,HZ,,,,,,,-31.32
CYPQ,2022-01-01 03:00,32.0,32.0,100.0,0.0,0.0,0.0,29.78,1009.4,0.5,,FEW,BKN,BKN,OVC,900.0,4000.0,7100.0,17000.0,FG,,,,,,,32.0
RJSK,2022-01-01 03:01,24.8,21.2,85.96,300.0,15.0,0.0,29.97,,3.73,28.0,FEW,SCT,BKN,,200.0,1000.0,1500.0,,-SHSN,,,,,,,11.45
PAH,2022-01-01 03:02,66.0,61.0,83.91,170.0,8.0,0.0001,29.72,,6.0,,SCT,BKN,OVC,,2200.0,8000.0,10000.0,,-RA,,,,,,,66.0
RJSN,2022-01-01 03:03,32.0,28.4,86.39,280.0,27.0,0.0,30.15,,1.86,,FEW,SCT,BKN,,500.0,800.0,2000.0,,-SHSN,,,,,,,17.34
LUF,2022-01-01 03:04,55.4,55.4,100.0,200.0,11.0,0.0,29.61,1002.4,10.0,,FEW,BKN,BKN,OVC,300.0,900.0,1500.0,2100.0,,,,,,,,55.4
CYPQ,2022-01-01 03:05,32.0,32.0,100.0,0.0,0.0,0.0,29.77,1009.3,0.38,,FEW,SCT,BKN,BKN,900.0,4000.0,7100.0,10000.0,FZFG,,,,,,,32.0
TOL,2022-01-01 03:06,48.0,44.1,86.28,350.0,5.0,0.0,29.65,,6.0,,FEW,BKN,OVC,,900.0,2400.0,3200.0,,BR,,,,,,,45.4
UZA,2022-01-01 03:07,64.0,63.0,96.55,210.0,6.0,0.08,29.96,,1.75,,FEW,BKN,OVC,,1700.0,3300.0,7000.0,,+RA BR,,,,,,,64.0
INS,2022-01-01 03:08,41.0,30.2,65.16,250.0,13.0,0.0,29.67,1004.0,10.0,,FEW,SCT,BKN,,1700.0,4400.0,5500.0,,,,,,,,,33.1
YAMB,2022-01-01 03:09,69.8,68.0,94.01,70.0,5.0,0.0,29.85,,6.21,,SCT,SCT,BKN,,800.0,1900.0,4000.0,,-RA,,,,,,,69.8
FTK,2022-01-01 03:10,62.6,62.6,100.0,150.0,6.0,0.0,29.75,1007.5,7.0,,FEW,FEW,BKN,BKN,1400.0,2800.0,4600.0,7000.0,-RA,,,,,,,62.6
DVT,2022-01-01 03:11,53.1,53.1,100.0,230.0,10.0,0.0001,29.62,,5.0,,BKN,BKN,OVC,,800.0,1200.0,5500.0,,-RA BR,,,,,,,53.1
PAVC,2022-01-01 03:12,32.0,28.4,86.39,300.0,17.0,0.0,29.69,,1.0,38.0,BKN,OVC,,,800.0,1200.0,,,BR,,,,38.0,310.0,2022-01-01 03:04,20.08
RJSA,2022-01-01 03:13,21.2,17.6,85.74,300.0,6.0,0.0,29.88,,0.5,,FEW,BKN,BKN,,300.0,500.0,1000.0,,SHSN,,,,,,,12.52
LUF,2022-01-01 03:14,55.4,55.4,100.0,200.0,12.0,0.0,29.61,1002.4,10.0,,FEW,SCT,BKN,OVC,300.0,900.0,1400.0,4800.0,,,,,,,,55.4
WBF,2022-01-01 03:15,78.8,73.4,83.55,170.0,13.0,0.0,29.95,,3.0,19.0,FEW,FEW,FEW,,2300.0,2800.0,3600.0,,HZ,,,,,,,78.8
CYTE,2022-01-01 03:16,10.4,6.8,85.05,130.0,20.0,0.0,29.52,1000.5,1.25,27.0,SCT,BKN,OVC,,1900.0,2600.0,3700.0,,-SN,,,,,,,-9.55
CYPQ,2022-01-01 03:17,30.2,30.2,100.0,0.0,0.0,0.0,29.78,1009.4,0.12,,BKN,BKN,BKN,OVC,400.0,3900.0,12000.0,17000.0,FZFG,,,,,,,30.2
INS,2022-01-01 03:18,41.0,30.2,65.16,220.0,13.0,0.0,29.67,1004.0,10.0,25.0,SCT,SCT,SCT,,3800.0,4600.0,5500.0,,,,,,,,,33.1
RUE,2022-01-01 03:19,61.0,60.1,96.85,80.0,3.0,0.15,29.69,,0.75,,FEW,BKN,OVC,,2900.0,3700.0,7000.0,,+RA BR,,,,,,,61.0
PAVC,2022-01-01 03:20,32.0,28.4,86.39,310.0,20.0,0.0,29.7,,1.25,30.0,OVC,,,,800.0,,,,BR,,,,38.0,310.0,2022-01-01 03:04,19.14
CYTE,2022-01-01 03:21,10.4,5.0,78.35,130.0,21.0,0.0,29.52,1000.4,1.5,27.0,BKN,BKN,OVC,,2100.0,2800.0,3500.0,,-SN,,,,,,,-9.96
RJCW,2022-01-01 03:22,15.8,12.2,85.4,90.0,7.0,0.0,29.77,,3.11,,FEW,SCT,BKN,,300.0,2000.0,2500.0,,-SHSN,,,,,,,5.03
CYTE,2022-01-01 03:23,10.4,6.8,85.05,130.0,20.0,0.0,29.52,1000.5,1.5,27.0,SCT,BKN,OVC,,2100.0,2800.0,3500.0,,-SN,,,,,,,-9.55
PHSF,2022-01-01 03:24,55.4,53.6,93.65,280.0,6.0,0.0,30.14,1010.4,5.0,,FEW,BKN,BKN,OVC,200.0,1200.0,1900.0,2600.0,-RA BR,,,,,,,55.4
PAMD,2022-01-01 03:25,37.4,35.6,93.14,320.0,22.0,0.0,28.89,,4.0,29.0,SCT,BKN,OVC,,800.0,1700.0,5000.0,,-RA BR,,,,29.0,320.0,2022-01-01 03:23,25.81
FTK,2022-01-01 03:26,62.6,62.6,100.0,260.0,5.0,0.0,29.76,1007.8,5.0,,FEW,FEW,BKN,BKN,2700.0,3600.0,5000.0,7500.0,+TSRA BR,,,,,,,62.6
CQC,2022-01-01 03:27,36.0,35.1,96.49,220.0,22.0,0.0,29.58,,10.0,34.0,BKN,OVC,,,500.0,800.0,,,,,,,35.0,210.0,2022-01-01 03:14,23.93
RJSK,2022-01-01 03:28,24.8,21.2,85.96,300.0,17.0,0.0,29.97,,2.49,28.0,FEW,SCT,BKN,,200.0,800.0,1500.0,,-SHSN,,,,,,,10.64
OLS,2022-01-01 03:29,44.1,39.9,85.06,210.0,10.0,0.0001,29.77,,10.0,,FEW,BKN,OVC,,2000.0,3700.0,5500.0,,-RA,,,,26.0,220.0,2022-01-01 02:57,38.14
PAMD,2022-01-01 03:30,35.6,35.6,100.0,320.0,30.0,0.0,28.88,,3.0,40.0,FEW,BKN,OVC,,600.0,1000.0,1700.0,,-RA BR,,,,40.0,330.0,2022-01-01 03:30,21.65
RJSN,2022-01-01 03:31,32.0,28.4,86.39,280.0,27.0,0.0,30.15,,1.24,,FEW,SCT,BKN,,500.0,800.0,1500.0,,-SHSN,,,,,,,17.34
PAKP,2022-01-01 03:32,-23.8,-29.2,74.83,50.0,19.0,0.0001,29.9,,1.75,27.0,SCT,OVC,,,2800.0,4000.0,,,HZ,,,,27.0,50.0,2022-01-01 03:27,-54.35
CWPX,2022-01-01 03:33,-20.2,-27.4,68.31,330.0,15.0,0.0,29.91,,6.21,,SCT,BKN,OVC,,2000.0,2700.0,3500.0,,,,,,,,,-46.89
PAPM,2022-01-01 03:34,1.4,-2.2,84.43,350.0,35.0,0.0001,29.78,,0.5,41.0,BKN,BKN,,,700.0,1400.0,,,SN FZFG,,,,44.0,350.0,2022-01-01 03:09,-26.95
MWA,2022-01-01 03:35,62.6,62.4,99.3,200.0,10.0,0.01,29.71,,5.0,18.0,SCT,SCT,OVC,,1500.0,7500.0,9000.0,,-RA,,,,,,,62.6
FTK,2022-01-01 03:36,62.6,62.6,100.0,200.0,11.0,0.0,29.76,1007.8,0.88,15.0,FEW,SCT,BKN,OVC,600.0,2800.0,3200.0,8000.0,+TSRA BR,,,,,,,62.6
PIH,2022-01-01 03:37,17.1,10.9,76.2,250.0,18.0,0.0001,29.74,,3.0,,SCT,BKN,OVC,,2700.0,3200.0,4300.0,,-SN,,,,26.0,240.0,2022-01-01 03:05,0.13
DMN,2022-01-01 03:38,42.1,37.9,84.93,270.0,18.0,0.02,29.7,,7.0,30.0,FEW,SCT,BKN,,2200.0,3500.0,4400.0,,-RA,,,,37.0,280.0,2022-01-01 03:23,33.04
PAKP,2022-01-01 03:39,-25.6,-31.0,74.62,50.0,19.0,0.0001,29.9,,2.0,,SCT,OVC,,,2800.0,4000.0,,,HZ,,,,27.0,50.0,2022-01-01 03:27,-56.73
QD3,2022-01-01 03:40,77.0,69.8,78.48,,4.0,0.0,29.98,1013.7,1.86,,FEW,SCT,BKN,,1900.0,3900.0,4500.0,,HZ,,,,,,,77.0
QDG,2022-01-01 03:41,23.0,14.0,67.96,360.0,17.0,0.0,31.42,1064.2,3.73,27.0,FEW,BKN,OVC,,4300.0,5500.0,7500.0,,-SN,,,,,,,8.28
PAMD,2022-01-01 03:42,33.8,33.8,100.0,330.0,32.0,0.0,28.88,,4.0,38.0,BKN,BKN,OVC,,600.0,900.0,1600.0,,-RA BR,,,,40.0,330.0,2022-01-01 03:30,18.78
RJSK,2022-01-01 03:43,24.8,21.2,85.96,300.0,20.0,0.0,29.97,,0.5,30.0,FEW,SCT,BKN,,200.0,400.0,800.0,,SHSN,,,,,,,9.58
GRI,2022-01-01 03:44,7.0,1.9,79.13,10.0,20.0,0.0001,29.95,,10.0,28.0,BKN,OVC,,,1400.0,3000.0,,,,,,,28.0,10.0,2022-01-01 03:41,-14.07
RJCC,2022-01-01 03:45,15.8,14.0,92.44,240.0,5.0,0.0,29.83,,0.93,,FEW,SCT,BKN,,500.0,1200.0,2500.0,,-SHSN,,,,,,,7.16
GLD,2022-01-01 03:46,10.9,8.1,88.21,30.0,16.0,0.0001,29.72,,3.0,24.0,BKN,OVC,,,900.0,1300.0,,,-SN BR,,,,26.0,30.0,2022-01-01 02:54,-7.08
QDG,2022-01-01 03:47,23.0,14.0,67.96,350.0,19.0,0.0,31.41,1063.8,4.97,25.0,FEW,BKN,BKN,,3300.0,5000.0,7000.0,,BLSN,,,,,,,7.54
QDG,2022-01-01 03:48,23.0,14.0,67.96,350.0,20.0,0.0,31.4,1063.5,4.97,25.0,FEW,BKN,OVC,,3300.0,5000.0,7500.0,,-SN,,,,,,,7.19
QDG,2022-01-01 03:49,23.0,14.0,67.96,350.0,20.0,0.0,31.4,1063.5,4.97,25.0,FEW,BKN,BKN,,3300.0,5000.0,7000.0,,BLSN,,,,,,,7.19
FHU,2022-01-01 03:50,42.8,35.6,75.5,210.0,3.0,0.0,29.75,1004.8,7.0,17.0,FEW,BKN,OVC,,2100.0,2800.0,3200.0,,,,,,,,,41.03
IGM,2022-01-01 03:51,46.0,39.9,79.13,240.0,13.0,0.0001,29.6,999.2,10.0,,FEW,BKN,OVC,,4200.0,5000.0,6000.0,,-RA,,,,27.0,240.0,2022-01-01 02:55,39.5
FTK,2022-01-01 03:52,62.6,62.6,100.0,200.0,9.0,0.0,29.76,1007.8,9.0,20.0,FEW,FEW,BKN,BKN,600.0,2100.0,3000.0,8500.0,-RA,,,,,,,62.6
PHNL,2022-01-01 03:53,72.0,68.0,87.24,150.0,15.0,0.21,29.78,1008.5,4.0,27.0,SCT,BKN,OVC,,800.0,1900.0,5500.0,,RA BR,,,,27.0,160.0,2022-01-01 03:50,72.0
OLS,2022-01-01 03:54,44.1,41.0,88.77,200.0,11.0,0.0001,29.79,1006.0,10.0,,BKN,BKN,OVC,,2200.0,3000.0,3500.0,,-RA,,,,26.0,220.0,2022-01-01 02:57,37.76
DNA,2022-01-01 03:55,46.4,44.6,93.4,260.0,12.0,0.12,29.73,,3.0,19.0,FEW,BKN,OVC,,400.0,2900.0,3400.0,,+RA,,,,,,,40.33
ALK,2022-01-01 03:56,39.9,39.0,96.55,240.0,15.0,0.0001,29.76,1002.9,10.0,22.0,FEW,BKN,OVC,,2400.0,5000.0,7000.0,,-RA,,,,37.0,240.0,2022-01-01 03:24,31.02
EEEI,2022-01-01 03:57,32.0,30.2,92.97,350.0,4.0,0.0,29.65,,2.67,,BKN,BKN,OVC,,400.0,5200.0,8300.0,,-SN,,,,,,,27.42
FHU,2022-01-01 03:58,42.1,34.3,73.66,250.0,10.0,0.0001,29.75,1004.8,7.0,14.0,FEW,BKN,BKN,OVC,2100.0,2800.0,3600.0,6000.0,,,,,,,,35.63
TCS,2022-01-01 03:59,45.0,43.0,92.65,230.0,13.0,0.03,29.6,,2.5,25.0,FEW,BKN,OVC,,700.0,1300.0,2000.0,,+RA BR,,,,,,,38.22
VTSS,2022-01-01 04:00,77.0,75.2,94.19,60.0,4.0,0.0,29.94,,6.21,,FEW,FEW,SCT,OVC,700.0,1800.0,2000.0,9000.0,-RA,,,,,,,77.0
LOU,2022-01-01 04:01,64.9,62.1,90.64,190.0,12.0,0.05,29.76,,2.0,21.0,FEW,BKN,OVC,,2300.0,4900.0,9000.0,,RA BR,,,,,,,64.9
GRI,2022-01-01 04:02,7.0,1.9,79.13,10.0,21.0,0.0,29.93,,10.0,29.0,SCT,OVC,,,1700.0,3000.0,,,,,,,29.0,10.0,2022-01-01 04:00,-14.49
FHU,2022-01-01 04:03,42.8,33.8,70.28,230.0,3.0,0.0,29.75,1004.8,7.0,14.0,FEW,SCT,BKN,OVC,2100.0,2800.0,3500.0,6000.0,,,,,,,,41.03
PAPM,2022-01-01 04:04,1.4,-2.2,84.43,360.0,26.0,0.0001,29.83,,1.0,35.0,SCT,OVC,,,900.0,1400.0,,,-SN BR,,,,35.0,360.0,2022-01-01 03:58,-23.99
CYTE,2022-01-01 04:05,10.4,5.0,78.35,130.0,17.0,0.0,29.52,1000.5,2.5,26.0,BKN,OVC,,,2100.0,3000.0,,,-SN,,,,,,,-8.22
POB,2022-01-01 04:06,66.2,60.8,82.74,220.0,7.0,0.0,29.95,1014.4,10.0,,SCT,BKN,BKN,BKN,2900.0,3900.0,4600.0,5500.0,,,,,,,,66.2
CHA,2022-01-01 04:07,61.0,61.0,100.0,0.0,0.0,0.0,29.89,,0.75,,SCT,SCT,SCT,BKN,100.0,3200.0,15000.0,22000.0,BR BCFG,,,,,,,61.0
LUF,2022-01-01 04:08,55.4,53.6,93.65,200.0,13.0,0.0,29.63,1003.1,10.0,,FEW,SCT,BKN,BKN,800.0,1700.0,2900.0,3500.0,,,,,,,,55.4
RJSH,2022-01-01 04:09,23.0,19.4,85.85,300.0,13.0,0.0,29.91,,0.56,23.0,SCT,BKN,OVC,,300.0,500.0,1000.0,,SHSN,,,,,,,10.04
PAKP,2022-01-01 04:10,-25.6,-31.0,74.62,50.0,21.0,0.0,29.9,,3.0,26.0,FEW,OVC,,,2800.0,4000.0,,,HZ,,,,26.0,60.0,2022-01-01 04:09,-57.97
CYVQ,2022-01-01 04:11,-47.2,-56.2,57.44,260.0,2.0,0.0,30.11,1021.5,2.0,,FEW,SCT,BKN,,500.0,2000.0,24000.0,,IC BR,,,,,,,-47.2
TCS,2022-01-01 04:12,45.0,42.1,89.49,210.0,17.0,0.08,29.59,,7.0,26.0,FEW,BKN,OVC,,700.0,1300.0,4600.0,,-RA,,,,28.0,210.0,2022-01-01 04:01,37.11
RJSA,2022-01-01 04:13,19.4,17.6,92.57,330.0,6.0,0.0,29.91,,0.75,,FEW,SCT,BKN,,300.0,800.0,1000.0,,-SHSN,,,,,,,10.36
2V6,2022-01-01 04:14,8.6,5.0,84.93,30.0,10.0,0.0,29.76,,3.0,14.0,SCT,SCT,OVC,,900.0,1600.0,2100.0,,-SN,,,,,,,-6.38
DNA,2022-01-01 04:15,46.4,44.6,93.4,240.0,14.0,0.0,29.73,,5.0,20.0,FEW,SCT,BKN,,700.0,2800.0,3200.0,,-RA,,,,,,,39.72
RJSY,2022-01-01 04:16,30.2,26.6,86.28,300.0,19.0,0.0,30.06,,0.31,30.0,FEW,SCT,BKN,,200.0,500.0,1000.0,,BLSN SHSN,,,,,,,17.06
HMN,2022-01-01 04:17,46.4,44.6,93.4,190.0,17.0,0.0,29.69,1002.7,10.0,28.0,FEW,FEW,SCT,SCT,600.0,1000.0,1500.0,2600.0,-RA,,,,,,,38.94
TCS,2022-01-01 04:18,45.0,41.0,85.77,200.0,20.0,0.08,29.59,,10.0,29.0,FEW,SCT,OVC,,1000.0,1600.0,4300.0,,-RA,,,,29.0,200.0,2022-01-01 04:18,36.41
RJSK,2022-01-01 04:19,24.8,23.0,92.74,310.0,18.0,0.0,29.97,,1.12,29.0,FEW,BKN,BKN,,200.0,800.0,1500.0,,-SHSN,,,,,,,10.27
HMN,2022-01-01 04:20,46.4,44.6,93.4,180.0,18.0,0.0,29.68,1002.4,10.0,,FEW,SCT,SCT,BKN,400.0,800.0,1500.0,2600.0,-RA,,,,,,,38.7
AND,2022-01-01 04:21,62.1,61.0,96.18,0.0,0.0,0.0,29.95,,2.5,,BKN,BKN,OVC,,900.0,3500.0,4300.0,,BR,,,,,,,62.1
HMN,2022-01-01 04:22,46.4,44.6,93.4,170.0,17.0,0.0,29.66,1001.7,10.0,,FEW,SCT,SCT,SCT,400.0,800.0,1500.0,2400.0,-RA,,,,,,,38.94
LOU,2022-01-01 04:23,64.9,60.1,84.44,260.0,14.0,0.17,29.76,,2.5,19.0,FEW,BKN,OVC,,2000.0,4600.0,7000.0,,+RA,,,,,,,64.9
RJSH,2022-01-01 04:24,23.0,19.4,85.85,300.0,10.0,0.0,29.91,,0.62,,FEW,BKN,OVC,,300.0,500.0,1000.0,,-SHSN,,,,,,,11.68
PAHY,2022-01-01 04:25,35.6,33.8,93.08,110.0,22.0,0.0001,29.54,,3.0,34.0,BKN,OVC,,,1100.0,1500.0,,,-SN BR,,,,39.0,110.0,2022-01-01 04:01,23.4
LUF,2022-01-01 04:26,55.4,53.6,93.65,210.0,12.0,0.0,29.64,1003.4,10.0,,SCT,BKN,BKN,OVC,800.0,1900.0,2500.0,3500.0,-RA,,,,,,,55.4
EQY,2022-01-01 04:27,66.0,64.9,96.24,0.0,0.0,0.14,29.95,,2.5,,SCT,BKN,OVC,,2100.0,3400.0,5000.0,,+RA BR,,,,,,,66.0
CYTE,2022-01-01 04:28,10.4,5.0,78.35,140.0,16.0,0.0,29.52,1000.5,4.0,24.0,FEW,BKN,OVC,,2000.0,2500.0,3100.0,,-SN,,,,,,,-7.74
CYTE,2022-01-01 04:29,10.4,5.0,78.35,140.0,16.0,0.0,29.52,1000.5,5.0,22.0,BKN,OVC,,,2300.0,2900.0,,,-SN,,,,,,,-7.74
VOTR,2022-01-01 04:30,77.0,73.4,88.67,50.0,4.0,0.0,30.03,,1.24,,FEW,SCT,FEW,OVC,1000.0,1500.0,2500.0,8000.0,DZ,,,,,,,77.0
FFT,2022-01-01 04:31,62.1,57.0,83.36,240.0,16.0,0.21,29.79,,1.75,27.0,SCT,BKN,OVC,,3600.0,5500.0,8000.0,,+RA,,,,27.0,240.0,2022-01-01 04:31,62.1
CYTE,2022-01-01 04:32,10.4,5.0,78.35,140.0,17.0,0.0,29.53,1000.6,6.0,22.0,BKN,OVC,,,2300.0,3000.0,,,-SN,,,,,,,-8.22
CYTE,2022-01-01 04:33,10.4,5.0,78.35,140.0,17.0,0.0,29.53,1000.6,6.0,22.0,FEW,BKN,OVC,,2000.0,2600.0,3300.0,,-SN,,,,,,,-8.22
PAVA,2022-01-01 04:34,3.2,-0.4,84.56,340.0,26.0,0.0001,30.14,,3.0,35.0,FEW,BKN,,,900.0,1500.0,,,-SN BR,,,,36.0,350.0,2022-01-01 04:04,-21.55
LUF,2022-01-01 04:35,55.4,53.6,93.65,200.0,14.0,0.0,29.63,1003.1,10.0,,FEW,BKN,BKN,BKN,200.0,800.0,1300.0,2300.0,-RA,,,,,,,55.4
ALK,2022-01-01 04:36,41.0,39.0,92.52,240.0,18.0,0.01,29.78,,10.0,26.0,SCT,BKN,OVC,,2200.0,2600.0,3400.0,,-RA,,,,27.0,220.0,2022-01-01 04:16,31.6
LUF,2022-01-01 04:37,55.4,53.6,93.65,200.0,13.0,0.0,29.63,1003.1,10.0,,FEW,BKN,BKN,OVC,200.0,800.0,1300.0,2200.0,,,,,,,,55.4
LUF,2022-01-01 04:38,55.4,53.6,93.65,210.0,12.0,0.0,29.63,1003.1,10.0,,FEW,BKN,BKN,OVC,200.0,800.0,1300.0,2200.0,-RA,,,,,,,55.4
FLG,2022-01-01 04:39,30.9,30.0,96.41,230.0,17.0,0.04,29.55,,5.0,29.0,SCT,BKN,OVC,,700.0,1300.0,1800.0,,-SN BR,,,,29.0,230.0,2022-01-01 04:33,18.63
CHA,2022-01-01 04:40,60.8,60.8,100.0,200.0,3.0,0.0,29.89,,2.5,,FEW,SCT,BKN,BKN,300.0,3200.0,4200.0,22000.0,BR BCFG,,,,,,,60.8
FFT,2022-01-01 04:41,61.0,57.9,89.52,240.0,15.0,0.32,29.8,,2.0,25.0,SCT,BKN,OVC,,3500.0,4900.0,6500.0,,+RA BR,,,,27.0,240.0,2022-01-01 04:31,61.0
MLF,2022-01-01 04:42,24.1,19.9,83.75,20.0,19.0,0.0001,29.66,,1.25,30.0,FEW,OVC,,,900.0,1600.0,,,-SN BR,,,,32.0,360.0,2022-01-01 04:28,8.99
FTK,2022-01-01 04:43,62.6,62.6,100.0,230.0,9.0,0.0,29.77,1008.0,2.75,,FEW,FEW,OVC,,1600.0,2900.0,5500.0,,+RA BR,,,,,,,62.6
CYTE,2022-01-01 04:44,10.4,6.8,85.05,140.0,16.0,0.0,29.53,1000.6,4.0,23.0,BKN,BKN,OVC,,2300.0,3000.0,3700.0,,-SN,,,,,,,-7.74
CYTE,2022-01-01 04:45,10.4,6.8,85.05,140.0,17.0,0.0,29.53,1000.6,3.0,23.0,BKN,OVC,,,2500.0,3500.0,,,-SN,,,,,,,-8.22
POB,2022-01-01 04:46,66.2,62.6,88.18,240.0,6.0,0.0,29.94,1014.0,10.0,,FEW,FEW,SCT,OVC,1200.0,1800.0,2400.0,8000.0,-RA,,,,,,,66.2
CYTE,2022-01-01 04:47,10.4,6.8,85.05,140.0,16.0,0.0,29.53,1000.7,2.5,23.0,FEW,BKN,OVC,,1600.0,2500.0,3500.0,,-SN,,,,,,,-7.74
ALK,2022-01-01 04:48,41.0,39.0,92.52,230.0,21.0,0.01,29.78,,10.0,30.0,SCT,BKN,OVC,,2200.0,3900.0,5500.0,,-RA,,,,30.0,230.0,2022-01-01 04:41,30.86
MLF,2022-01-01 04:49,24.8,19.4,79.62,20.0,19.0,0.0001,29.68,,1.5,30.0,FEW,OVC,,,900.0,1400.0,,,-SN BR,,,,32.0,360.0,2022-01-01 04:28,9.92
OOKB,2022-01-01 04:50,66.2,60.8,82.74,170.0,9.0,0.0,30.15,,4.97,,FEW,OVC,SCT,,1000.0,3000.0,3500.0,,-TSRA,,,,,,,66.2
ELP,2022-01-01 04:51,46.9,43.0,86.21,230.0,12.0,0.05,29.7,1002.9,10.0,27.0,FEW,BKN,OVC,,800.0,4000.0,7000.0,,-RA,,,,27.0,240.0,2022-01-01 04:42,40.97
ABQ,2022-01-01 04:52,43.0,39.0,85.66,180.0,23.0,0.0001,29.51,997.2,10.0,32.0,SCT,BKN,OVC,,5000.0,7000.0,14000.0,,-RA,,,,38.0,170.0,2022-01-01 04:25,33.1
HBR,2022-01-01 04:53,55.9,51.1,83.88,180.0,21.0,0.0001,29.6,1001.7,10.0,29.0,FEW,SCT,OVC,,5500.0,7000.0,9500.0,,-RA,,,,32.0,190.0,2022-01-01 04:04,55.9
IND,2022-01-01 04:54,59.0,57.9,96.13,240.0,8.0,0.14,29.66,1004.1,3.0,,FEW,BKN,OVC,,1100.0,2300.0,7000.0,,-RA BR,,,,31.0,230.0,2022-01-01 04:34,59.0
TYL,2022-01-01 04:55,39.2,39.2,100.0,230.0,12.0,0.0,29.58,,8.0,17.0,BKN,BKN,OVC,,2600.0,3500.0,4500.0,,-RA,,,,,,,31.17
ALK,2022-01-01 04:56,41.0,39.0,92.52,240.0,20.0,0.01,29.79,1003.6,10.0,29.0,FEW,SCT,OVC,,1800.0,2300.0,3600.0,,-RA,,,,30.0,230.0,2022-01-01 04:41,31.09
FLG,2022-01-01 04:57,30.9,28.9,92.18,240.0,13.0,0.04,29.56,998.9,7.0,34.0,FEW,BKN,OVC,,700.0,1400.0,2200.0,,,,,,34.0,230.0,2022-01-01 04:54,20.16
BIF,2022-01-01 04:58,48.6,45.3,88.3,210.0,18.0,0.03,29.69,1002.5,7.0,27.0,FEW,SCT,SCT,BKN,1100.0,1900.0,2700.0,6000.0,-RA,,,,27.0,240.0,2022-01-01 04:51,41.6
BIF,2022-01-01 04:59,50.0,44.6,81.61,200.0,16.0,0.0,29.69,1002.5,7.0,27.0,FEW,SCT,SCT,BKN,1100.0,1900.0,2700.0,6000.0,,,,,,,,50.0
CYTE,2022-01-01 05:00,10.4,6.8,85.05,140.0,15.0,0.0,29.53,1000.8,1.5,22.0,BKN,BKN,BKN,OVC,2000.0,2700.0,3100.0,3900.0,-SN,,,,,,,-7.22
SRC,2022-01-01 05:01,62.6,62.6,100.0,140.0,6.0,0.0001,29.7,,0.5,,SCT,BKN,OVC,,1800.0,2900.0,8000.0,,-RA FG,,,,,,,62.6
PAVC,2022-01-01 05:02,26.6,24.8,92.8,300.0,34.0,0.0,29.77,,3.0,52.0,BKN,OVC,,,1000.0,1800.0,,,UP BR,,,,52.0,320.0,2022-01-01 04:59,8.4
GUR,2022-01-01 05:03,3.2,-0.4,84.56,80.0,8.0,0.0,29.81,1016.3,9.0,,FEW,SCT,BKN,OVC,1000.0,1700.0,2700.0,3200.0,-SN,,,,,,,-11.36
GUR,2022-01-01 05:04,3.2,-0.4,84.56,80.0,8.0,0.0,29.81,1016.3,9.0,,SCT,BKN,BKN,OVC,1000.0,1700.0,2700.0,3200.0,,,,,,,,-11.36
CYGW,2022-01-01 05:05,1.4,-2.2,84.43,280.0,12.0,0.0,29.63,1003.5,1.5,18.0,FEW,BKN,OVC,,1700.0,2200.0,2800.0,,-SN,,,,,,,-16.94
PAVC,2022-01-01 05:06,26.6,24.8,92.8,300.0,35.0,0.0,29.77,,4.0,52.0,BKN,OVC,,,900.0,1500.0,,,UP BR,,,,52.0,320.0,2022-01-01 04:59,8.19
HFF,2022-01-01 05:07,64.4,64.4,100.0,130.0,3.0,0.0,29.9,1012.6,7.0,,BKN,BKN,OVC,,6000.0,8000.0,9000.0,,VCTS -RA,,,,,,,64.4
LUF,2022-01-01 05:08,53.6,53.6,100.0,210.0,18.0,0.0,29.64,1003.5,10.0,24.0,FEW,FEW,BKN,BKN,300.0,1800.0,2700.0,3400.0,,,,,,,,53.6
CYTE,2022-01-01 05:09,10.4,6.8,85.05,140.0,13.0,0.0,29.53,1000.8,3.0,19.0,BKN,BKN,BKN,OVC,2100.0,2700.0,3900.0,4600.0,-SN,,,,,,,-6.1
DUB,2022-01-01 05:10,-0.4,-5.8,77.32,230.0,3.0,0.0,29.56,,5.0,,BKN,BKN,OVC,,700.0,2200.0,4100.0,,-SN,,,,,,,-8.35
LTS,2022-01-01 05:11,55.4,53.6,93.65,170.0,11.0,0.0,29.62,1002.6,10.0,21.0,FEW,BKN,BKN,,4600.0,7000.0,9500.0,,-DZ,,,,,,,55.4
CYTE,2022-01-01 05:12,10.4,6.8,85.05,140.0,13.0,0.0,29.53,1000.8,6.0,19.0,SCT,BKN,OVC,,1800.0,2500.0,4300.0,,-SN,,,,,,,-6.1
CYTE,2022-01-01 05:13,10.4,6.8,85.05,140.0,13.0,0.0,29.53,1000.8,6.0,19.0,BKN,BKN,OVC,,2100.0,2700.0,4300.0,,-SN,,,,,,,-6.1
2V6,2022-01-01 05:14,6.8,3.2,84.8,40.0,9.0,0.0,29.78,,3.0,,SCT,BKN,OVC,,1000.0,1700.0,3100.0,,-SN,,,,,,,-7.82
TAD,2022-01-01 05:15,19.9,12.0,70.95,360.0,15.0,0.0001,29.58,,2.5,26.0,SCT,BKN,OVC,,1500.0,2700.0,5000.0,,-SN,,,,31.0,20.0,2022-01-01 05:00,5.09
CYNA,2022-01-01 05:16,24.8,23.0,92.74,60.0,4.0,0.0,30.01,1016.6,3.0,,FEW,SCT,BKN,OVC,900.0,1400.0,2200.0,3400.0,-SN,,,,,,,19.01
FFT,2022-01-01 05:17,61.0,57.9,89.52,240.0,9.0,0.15,29.78,,4.0,28.0,FEW,BKN,OVC,,2100.0,4200.0,9000.0,,RA BR,,,,28.0,270.0,2022-01-01 05:09,61.0
CYNA,2022-01-01 05:18,24.8,23.0,92.74,60.0,3.0,0.0,30.01,1016.6,4.0,,FEW,SCT,SCT,OVC,900.0,1400.0,2200.0,3400.0,-SN,,,,,,,20.46
PFWS,2022-01-01 05:19,8.6,3.2,78.18,10.0,21.0,0.0001,29.58,,9.0,26.0,SCT,BKN,BKN,,1000.0,1400.0,4600.0,,-SN,,,,32.0,10.0,2022-01-01 04:59,-12.36
CKV,2022-01-01 05:20,64.0,61.0,89.97,340.0,3.0,0.14,29.74,,2.0,,SCT,BKN,OVC,,2000.0,3700.0,4600.0,,-RA BR,,,,,,,64.0
CYTE,2022-01-01 05:21,12.2,5.0,72.33,140.0,13.0,0.0,29.53,1000.8,9.0,19.0,FEW,BKN,OVC,,1800.0,2700.0,4300.0,,-SN,,,,,,,-3.8
CYTE,2022-01-01 05:22,12.2,5.0,72.33,140.0,12.0,0.0,29.54,1000.9,9.0,19.0,FEW,BKN,BKN,OVC,1800.0,2400.0,3000.0,4300.0,,,,,,,,-3.2
RJSN,2022-01-01 05:23,32.0,30.2,92.97,300.0,27.0,0.0,30.18,,0.31,37.0,FEW,SCT,BKN,,300.0,500.0,800.0,,SHSN,,,,,,,17.34
CYTE,2022-01-01 05:24,12.2,5.0,72.33,140.0,13.0,0.0,29.53,1000.8,9.0,19.0,FEW,BKN,BKN,OVC,1800.0,2600.0,3300.0,4300.0,,,,,,,,-3.8
TAD,2022-01-01 05:25,18.0,12.0,76.97,350.0,14.0,0.0001,29.6,,3.0,22.0,BKN,BKN,OVC,,1400.0,2700.0,5000.0,,-SN,,,,31.0,20.0,2022-01-01 05:00,3.12
IGM,2022-01-01 05:26,39.9,37.0,89.27,280.0,8.0,0.15,29.63,,4.0,,SCT,BKN,OVC,,1700.0,2400.0,3800.0,,VCTS RA BR,,,,,,,33.84
CLL,2022-01-01 05:27,75.9,68.0,76.53,170.0,15.0,0.0,29.69,,10.0,22.0,FEW,BKN,OVC,,2000.0,2800.0,3300.0,,,,,,26.0,170.0,2022-01-01 05:12,75.9
GCK,2022-01-01 05:28,18.0,15.1,88.2,30.0,23.0,0.0001,29.71,,1.5,31.0,BKN,OVC,,,800.0,1300.0,,,-SN BR,,,,31.0,40.0,2022-01-01 05:24,-0.5
HMN,2022-01-01 05:29,48.2,41.0,76.01,190.0,18.0,0.0,29.7,1002.8,10.0,29.0,FEW,SCT,SCT,BKN,1700.0,3400.0,4800.0,13000.0,-RA,,,,,,,41.07
VOTR,2022-01-01 05:30,75.2,71.6,88.59,60.0,8.0,0.0,30.03,,1.24,,FEW,SCT,FEW,OVC,1000.0,1500.0,2500.0,8000.0,-DZ,,,,,,,75.2
RAC,2022-01-01 05:31,32.0,30.0,92.22,360.0,15.0,0.0,29.77,,2.0,26.0,OVC,,,,500.0,,,,BR,0.03,,,27.0,350.0,2022-01-01 04:56,20.78
CYNA,2022-01-01 05:32,24.8,23.0,92.74,70.0,3.0,0.0,30.01,1016.5,9.0,,FEW,SCT,BKN,OVC,900.0,1400.0,2200.0,3400.0,-SN,,,,,,,20.46
FFZ,2022-01-01 05:33,53.1,51.1,92.89,190.0,14.0,0.01,29.67,,6.0,22.0,SCT,BKN,OVC,,100.0,3700.0,6000.0,,BR,,,,,,,53.1
PAHY,2022-01-01 05:34,35.6,33.8,93.08,120.0,24.0,0.0001,29.49,,5.0,34.0,SCT,BKN,OVC,,1300.0,1900.0,2500.0,,UP BR,,,,39.0,120.0,2022-01-01 04:59,22.92
DNV,2022-01-01 05:35,49.6,49.5,99.63,310.0,10.0,0.0,29.66,,0.5,15.0,BKN,BKN,OVC,,300.0,700.0,2800.0,,FG,,,,,,,45.04
CYNA,2022-01-01 05:36,24.8,23.0,92.74,70.0,3.0,0.0,30.01,1016.6,5.0,,FEW,SCT,BKN,OVC,900.0,1600.0,2200.0,3400.0,-SN,,,,,,,20.46
HOP,2022-01-01 05:37,62.6,62.6,100.0,0.0,0.0,0.0,29.73,1006.7,4.0,,FEW,SCT,SCT,BKN,200.0,2000.0,3900.0,9500.0,-DZ BR,,,,,,,62.6
GSP,2022-01-01 05:38,61.0,57.9,89.52,210.0,5.0,0.0001,29.94,,1.75,,SCT,BKN,OVC,,1600.0,2800.0,7000.0,,BR,,,,,,,61.0
HFF,2022-01-01 05:39,66.2,64.4,93.92,280.0,6.0,0.0,29.91,1012.9,8.0,,FEW,SCT,BKN,BKN,600.0,1000.0,1400.0,3900.0,-RA,,,,,,,66.2
DDC,2022-01-01 05:40,19.9,16.0,84.55,30.0,20.0,0.0001,29.72,,2.0,27.0,OVC,,,,900.0,,,,UP BR,0.0001,,,28.0,30.0,2022-01-01 04:53,3.07
CYNA,2022-01-01 05:41,24.8,23.0,92.74,0.0,0.0,0.0,30.01,1016.6,2.0,,BKN,BKN,OVC,,1400.0,2200.0,3400.0,,-SN,,,,,,,24.8
DOV,2022-01-01 05:42,50.0,50.0,100.0,120.0,5.0,0.0,29.87,1011.9,6.0,,FEW,BKN,OVC,,700.0,1800.0,4700.0,,-RA BR,,,,,,,50.0
ABQ,2022-01-01 05:43,42.1,39.9,91.84,230.0,14.0,0.05,29.52,,5.0,24.0,FEW,BKN,OVC,,900.0,1400.0,2300.0,,RA BR,,,,31.0,180.0,2022-01-01 04:54,34.18
CKV,2022-01-01 05:44,64.0,61.0,89.97,0.0,0.0,0.15,29.73,,3.0,,FEW,BKN,BKN,,2900.0,4100.0,6500.0,,-RA BR,,,,,,,64.0
TAD,2022-01-01 05:45,17.1,10.9,76.2,350.0,15.0,0.0001,29.62,,2.5,23.0,SCT,OVC,,,1300.0,1800.0,,,-SN,,,,31.0,20.0,2022-01-01 05:00,1.46
CYNA,2022-01-01 05:46,24.8,24.8,100.0,70.0,3.0,0.0,30.01,1016.6,1.0,,SCT,BKN,BKN,OVC,900.0,1500.0,2500.0,3400.0,-SN,,,,,,,20.46
RJSN,2022-01-01 05:47,33.8,30.2,86.49,290.0,23.0,0.0,30.18,,3.11,33.0,FEW,SCT,BKN,,700.0,1500.0,2000.0,,-SHSN,,,,,,,20.73
FFO,2022-01-01 05:48,59.0,55.4,87.83,230.0,8.0,0.0,29.69,1005.6,9.0,,FEW,BKN,BKN,BKN,400.0,2100.0,2700.0,7000.0,-RA,,,,,,,59.0
SGR,2022-01-01 05:49,77.0,69.8,78.48,180.0,16.0,0.0,29.74,,10.0,22.0,BKN,BKN,OVC,,2200.0,2700.0,3100.0,,,,,,,,,77.0
ABQ,2022-01-01 05:50,39.2,37.4,93.19,250.0,15.0,0.07,29.54,,3.0,32.0,FEW,BKN,OVC,,700.0,1300.0,3500.0,,+RA BR,,,,32.0,240.0,2022-01-01 05:47,30.11
LTS,2022-01-01 05:51,57.2,53.6,87.74,180.0,21.0,0.0,29.6,1001.7,10.0,,FEW,SCT,BKN,OVC,6000.0,7500.0,10000.0,13000.0,-DZ,,,,,,,57.2
ABQ,2022-01-01 05:52,39.9,37.9,92.48,250.0,16.0,0.09,29.54,998.7,3.0,32.0,FEW,BKN,OVC,,700.0,1300.0,3500.0,,+RA BR,,,,32.0,240.0,2022-01-01 05:47,30.72
PHJR,2022-01-01 05:53,75.9,70.0,81.96,210.0,9.0,0.05,29.83,1010.7,3.0,26.0,FEW,BKN,OVC,,1400.0,2700.0,4900.0,,-RA,,,,26.0,160.0,2022-01-01 05:45,75.9
DSM,2022-01-01 05:54,12.0,8.1,84.01,340.0,19.0,0.0001,29.93,1014.8,7.0,27.0,SCT,OVC,,,1300.0,1800.0,,,-SN,,,0.02,29.0,360.0,2022-01-01 05:34,-7.01
CYTE,2022-01-01 05:55,10.4,6.8,85.05,150.0,15.0,0.0,29.54,1001.1,4.0,20.0,SCT,BKN,OVC,,2200.0,2600.0,3300.0,,-SN,,,,,,,-7.22
PAMD,2022-01-01 05:56,35.6,33.8,93.08,320.0,24.0,0.0001,28.9,,8.0,35.0,BKN,BKN,OVC,,1000.0,1400.0,3700.0,,UP,,,,35.0,320.0,2022-01-01 05:54,22.92
CYNA,2022-01-01 05:57,24.8,24.8,100.0,90.0,4.0,0.0,30.01,1016.6,3.0,,FEW,SCT,BKN,OVC,900.0,1500.0,2100.0,2900.0,-SN,,,,,,,19.01
HMN,2022-01-01 05:58,46.4,40.3,79.16,200.0,12.0,0.0001,29.71,1003.4,10.0,,FEW,SCT,BKN,OVC,2500.0,3300.0,6000.0,8000.0,,,,,36.0,220.0,2022-01-01 05:35,40.33
PAPM,2022-01-01 05:59,3.2,-0.4,84.56,350.0,29.0,0.0001,29.91,,0.5,35.0,FEW,BKN,OVC,,600.0,1000.0,2400.0,,-SN FZFG,,,,35.0,350.0,2022-01-01 05:58,-22.59
CYNA,2022-01-01 06:00,24.8,24.8,100.0,90.0,4.0,0.0,30.01,1016.7,9.0,,FEW,SCT,BKN,OVC,900.0,1500.0,2600.0,3100.0,-SN,,,,,,,19.01
ILN,2022-01-01 06:01,61.0,57.9,89.52,220.0,13.0,0.0001,29.72,,6.0,19.0,SCT,BKN,OVC,,2500.0,3200.0,7000.0,,-RA BR,,,,,,,61.0
DDC,2022-01-01 06:02,19.0,16.0,87.87,20.0,23.0,0.0001,29.71,,1.75,29.0,OVC,,,,900.0,,,,-SN BR,,,,29.0,30.0,2022-01-01 06:01,0.84
ABQ,2022-01-01 06:03,39.0,37.0,92.45,260.0,17.0,0.04,29.55,,6.0,30.0,FEW,SCT,OVC,,700.0,1200.0,1800.0,,RA BR,,,,30.0,260.0,2022-01-01 05:59,29.25
CYNA,2022-01-01 06:04,24.8,24.8,100.0,100.0,4.0,0.0,30.01,1016.7,9.0,,FEW,SCT,BKN,OVC,700.0,1500.0,2300.0,3600.0,-SN,,,,,,,19.01
LTS,2022-01-01 06:05,57.2,50.0,76.82,220.0,17.0,0.0,29.61,1002.1,10.0,28.0,FEW,FEW,BKN,OVC,4800.0,6000.0,8000.0,9500.0,-RA,,,,,,,57.2
FFO,2022-01-01 06:06,59.0,55.4,87.83,240.0,8.0,0.0,29.69,1005.6,6.0,21.0,FEW,BKN,BKN,,400.0,1900.0,2400.0,,-RA BR,,,,,,,59.0
PAPM,2022-01-01 06:07,3.2,-0.4,84.56,350.0,28.0,0.0001,29.92,,0.5,35.0,BKN,BKN,OVC,,800.0,1500.0,2300.0,,SN FZFG,,,,35.0,350.0,2022-01-01 05:58,-22.26
ANJ,2022-01-01 06:08,25.0,18.0,74.36,330.0,9.0,0.01,29.81,,2.5,19.0,SCT,BKN,OVC,,1400.0,2100.0,3100.0,,-SN,,,,,,,14.81
CYTE,2022-01-01 06:09,12.2,6.8,78.51,160.0,14.0,0.0,29.55,1001.3,5.0,22.0,SCT,BKN,BKN,OVC,2000.0,2600.0,3500.0,4200.0,-SN,,,,,,,-4.36
PHHI,2022-01-01 06:10,71.6,69.8,94.06,130.0,6.0,0.0,29.84,1009.7,7.0,,BKN,BKN,OVC,,900.0,1600.0,2300.0,,-RA,,,,,,,71.6
CYTE,2022-01-01 06:11,12.2,5.0,72.33,160.0,13.0,0.0,29.55,1001.3,6.0,22.0,FEW,SCT,BKN,OVC,2000.0,2400.0,3000.0,3800.0,-SN,,,,,,,-3.8
CYNA,2022-01-01 06:12,24.8,24.8,100.0,110.0,4.0,0.0,30.01,1016.6,9.0,,FEW,BKN,BKN,OVC,1300.0,2300.0,2900.0,3800.0,,,,,,,,19.01
CYNA,2022-01-01 06:13,24.8,24.8,100.0,110.0,4.0,0.0,30.01,1016.6,9.0,,FEW,BKN,BKN,OVC,1300.0,2500.0,3100.0,3800.0,,,,,,,,19.01
HFF,2022-01-01 06:14,64.4,64.4,100.0,210.0,7.0,0.0,29.89,1012.2,8.0,,SCT,BKN,BKN,OVC,800.0,4500.0,5500.0,9000.0,,,,,,,,64.4
CYNA,2022-01-01 06:15,24.8,24.8,100.0,120.0,3.0,0.0,30.01,1016.5,9.0,,FEW,BKN,BKN,OVC,1300.0,2700.0,3100.0,3800.0,-SN,,,,,,,20.46
POB,2022-01-01 06:16,68.0,66.2,93.97,0.0,0.0,0.0,29.91,1013.0,9.0,,SCT,BKN,BKN,OVC,700.0,3200.0,4600.0,7000.0,-RA,,,,,,,68.0
IGM,2022-01-01 06:17,34.0,32.0,92.29,350.0,23.0,0.11,29.69,,1.75,33.0,FEW,OVC,,,800.0,1800.0,,,-SN BR,,,,33.0,10.0,2022-01-01 06:08,21.0
HFF,2022-01-01 06:18,64.4,64.4,100.0,340.0,7.0,0.0,29.91,1012.9,7.0,,SCT,BKN,BKN,OVC,800.0,4300.0,5500.0,8500.0,-RA,,,,,,,64.4
CYVO,2022-01-01 06:19,28.4,26.6,92.86,270.0,3.0,0.0,29.69,1007.7,3.0,,FEW,BKN,OVC,,800.0,1600.0,2600.0,,-SN,,,,,,,24.57
HFF,2022-01-01 06:20,64.4,64.4,100.0,350.0,8.0,0.0,29.9,1012.6,7.0,,FEW,SCT,BKN,OVC,400.0,800.0,4300.0,5500.0,-RA,,,,,,,64.4
IGM,2022-01-01 06:21,35.1,33.1,92.32,350.0,19.0,0.14,29.69,,2.5,30.0,FEW,BKN,OVC,,1000.0,1800.0,2400.0,,-SN BR,,,,33.0,10.0,2022-01-01 06:08,23.54
BWG,2022-01-01 06:22,64.9,63.0,93.56,0.0,0.0,0.05,29.73,,3.0,,SCT,BKN,OVC,,2200.0,4500.0,9500.0,,-RA BR,,,,,,,64.9
PASD,2022-01-01 06:23,28.4,21.2,74.08,310.0,23.0,0.0,29.77,,10.0,27.0,FEW,BKN,BKN,,1400.0,2200.0,3100.0,,,,,,28.0,330.0,2022-01-01 05:58,13.47
CYTE,2022-01-01 06:24,12.2,5.0,72.33,150.0,13.0,0.0,29.55,1001.4,8.0,19.0,FEW,SCT,BKN,OVC,2000.0,2700.0,3600.0,4300.0,-SN,,,,,,,-3.8
PHHI,2022-01-01 06:25,68.0,66.2,93.97,200.0,9.0,0.0,29.85,1010.2,1.88,18.0,SCT,BKN,BKN,OVC,500.0,1000.0,1700.0,2300.0,+RA BR,,,,,,,68.0
POB,2022-01-01 06:26,66.2,66.2,100.0,250.0,7.0,0.0,29.92,1013.3,8.0,,BKN,BKN,BKN,BKN,600.0,1100.0,3100.0,4600.0,RA,,,,,,,66.2
CYTZ,2022-01-01 06:27,39.2,39.2,100.0,50.0,15.0,0.0,29.7,1006.2,3.0,,SCT,BKN,BKN,OVC,3800.0,8100.0,9300.0,12000.0,BR,,,,,,,30.11
CYTE,2022-01-01 06:28,12.2,6.8,78.51,150.0,13.0,0.0,29.55,1001.4,5.0,19.0,SCT,BKN,OVC,,2000.0,2900.0,3600.0,,-SN,,,,,,,-3.8
PAGS,2022-01-01 06:29,33.8,32.0,93.03,130.0,17.0,0.0001,29.16,,1.75,23.0,BKN,OVC,,,700.0,1200.0,,,-SN BR,,,,27.0,110.0,2022-01-01 06:13,22.43
PHHI,2022-01-01 06:30,68.0,66.2,93.97,200.0,8.0,0.0,29.85,1010.2,3.0,16.0,SCT,SCT,BKN,OVC,500.0,1000.0,1700.0,2300.0,+RA BR,,,,,,,68.0
GCN,2022-01-01 06:31,26.1,23.0,87.87,330.0,6.0,0.01,29.57,,4.0,17.0,FEW,BKN,OVC,,3200.0,5000.0,7000.0,,-SN BR,,,,,,,18.42
DDC,2022-01-01 06:32,18.0,16.0,91.72,30.0,22.0,0.0001,29.71,,2.0,30.0,BKN,OVC,,,900.0,1600.0,,,-SN BR,,,,33.0,20.0,2022-01-01 06:11,-0.17
RJSY,2022-01-01 06:33,33.8,28.4,80.36,300.0,18.0,0.0,30.12,,1.24,28.0,FEW,SCT,BKN,,300.0,1000.0,2000.0,,-SHSN,,,,,,,22.12
CYTE,2022-01-01 06:34,12.2,6.8,78.51,160.0,12.0,0.0,29.55,1001.4,3.0,17.0,BKN,BKN,OVC,,2200.0,2900.0,3600.0,,-SN,,,,,,,-3.2
CYTZ,2022-01-01 06:35,41.0,39.2,93.24,50.0,14.0,0.0,29.7,1006.1,6.0,19.0,FEW,SCT,BKN,OVC,3600.0,6600.0,8700.0,12000.0,BR,,,,,,,32.76
CYOY,2022-01-01 06:36,28.4,26.6,92.86,0.0,0.0,0.0,29.88,1012.8,0.75,,OVC,OVC,OVC,OVC,300.0,3300.0,4300.0,7700.0,,,,,,,,28.4
HFF,2022-01-01 06:37,66.2,66.2,100.0,230.0,6.0,0.0,29.9,1012.5,5.0,,SCT,BKN,OVC,,500.0,900.0,4300.0,,-RA BR,,,,,,,66.2
CYOY,2022-01-01 06:38,28.4,26.6,92.86,0.0,0.0,0.0,29.88,1012.8,0.75,,OVC,OVC,OVC,OVC,200.0,3300.0,4300.0,7700.0,,,,,,,,28.4
PAVC,2022-01-01 06:39,24.8,17.6,73.7,300.0,48.0,0.0,29.77,,5.0,66.0,BKN,BKN,,,800.0,1400.0,,,UP,,,,67.0,290.0,2022-01-01 06:27,3.33
PHHI,2022-01-01 06:40,68.0,66.2,93.97,190.0,6.0,0.0,29.85,1010.2,1.62,,FEW,SCT,OVC,,500.0,2100.0,2700.0,,+RA BR,,,,,,,68.0
PFKT,2022-01-01 06:41,-11.2,-16.6,76.21,250.0,10.0,0.0001,30.38,,4.0,16.0,FEW,BKN,BKN,,600.0,1200.0,2400.0,,HZ,,,,27.0,350.0,2022-01-01 06:05,-31.21
RJSN,2022-01-01 06:42,33.8,28.4,80.36,290.0,20.0,0.0,30.21,,4.35,33.0,FEW,SCT,BKN,,800.0,1500.0,2000.0,,-SHSN,,,,,,,21.53
GUR,2022-01-01 06:43,3.2,-2.2,77.67,70.0,6.0,0.0,29.83,1017.0,10.0,,BKN,BKN,OVC,,1000.0,1800.0,2600.0,,-SN,,,,,,,-9.16
IGM,2022-01-01 06:44,35.1,33.1,92.32,10.0,14.0,0.15,29.71,,10.0,25.0,FEW,SCT,OVC,,1300.0,2500.0,3300.0,,VCTS,,,,33.0,10.0,2022-01-01 06:08,25.16
PHHI,2022-01-01 06:45,68.0,66.2,93.97,210.0,5.0,0.0,29.85,1010.2,4.0,,FEW,SCT,SCT,OVC,500.0,1400.0,2000.0,2700.0,+RA BR,,,,,,,68.0
CYAH,2022-01-01 06:46,10.4,3.2,72.12,260.0,13.0,0.0,29.56,1003.9,1.75,22.0,SCT,BKN,OVC,,1900.0,2500.0,4500.0,,-SN,,,,,,,-6.1
CYAH,2022-01-01 06:47,10.4,5.0,78.35,260.0,15.0,0.0,29.56,1004.0,1.5,20.0,FEW,BKN,OVC,,1600.0,2300.0,4500.0,,-SN,,,,,,,-7.22
CYOY,2022-01-01 06:48,28.4,26.6,92.86,0.0,0.0,0.0,29.88,1012.8,0.62,,OVC,OVC,OVC,OVC,200.0,4300.0,7700.0,8800.0,,,,,,,,28.4
LTS,2022-01-01 06:49,57.2,51.8,82.12,180.0,13.0,0.0,29.56,1000.4,10.0,,FEW,BKN,OVC,,4500.0,6500.0,8500.0,,,,,,,,,57.2
PHHI,2022-01-01 06:50,69.8,66.2,88.34,190.0,6.0,0.0,29.85,1010.0,7.0,,FEW,SCT,BKN,BKN,500.0,900.0,1400.0,2100.0,+RA,,,,,,,69.8
FBG,2022-01-01 06:51,66.2,66.2,100.0,200.0,3.0,0.0,29.92,1013.3,1.88,,SCT,BKN,BKN,OVC,200.0,700.0,3800.0,4800.0,RA BR,,,,,,,66.2
OMA,2022-01-01 06:52,9.0,1.9,72.3,360.0,21.0,0.0,29.98,1016.7,10.0,27.0,FEW,SCT,BKN,BKN,1400.0,5000.0,13000.0,22000.0,,,,,31.0,340.0,2022-01-01 06:04,-11.82
LBB,2022-01-01 06:53,52.0,46.0,79.92,200.0,16.0,0.01,29.58,999.1,10.0,25.0,BKN,BKN,OVC,,7000.0,10000.0,16000.0,,-RA,,,,39.0,170.0,2022-01-01 06:03,52.0
PAVC,2022-01-01 06:54,24.8,19.4,79.62,300.0,50.0,0.0,29.78,,5.0,62.0,BKN,BKN,,,1000.0,1300.0,,,UP,,,,67.0,290.0,2022-01-01 06:27,3.01
CAO,2022-01-01 06:55,19.9,14.0,77.48,30.0,19.0,0.0,29.55,1000.6,10.0,26.0,FEW,SCT,OVC,,1300.0,2100.0,3000.0,,,,,,29.0,30.0,2022-01-01 06:39,3.44
CYTE,2022-01-01 06:56,12.2,6.8,78.51,170.0,8.0,0.0,29.56,1001.7,3.0,15.0,FEW,BKN,BKN,OVC,1100.0,2200.0,2900.0,4700.0,-SN,,,,,,,-0.28
CEZ,2022-01-01 06:57,30.9,30.9,100.0,0.0,0.0,0.0001,29.5,,3.0,,FEW,SCT,OVC,,1000.0,1600.0,4900.0,,-SN BR,,,,,,,30.9
CYTE,2022-01-01 06:58,12.2,5.0,72.33,160.0,10.0,0.0,29.56,1001.7,9.0,15.0,FEW,SCT,BKN,OVC,1100.0,2200.0,2700.0,4700.0,-SN,,,,,,,-1.86
CYTE,2022-01-01 06:59,12.2,5.0,72.33,160.0,10.0,0.0,29.56,1001.7,9.0,15.0,FEW,BKN,BKN,OVC,1100.0,2400.0,4300.0,5000.0,-SN,,,,,,,-1.86
FIMP,2022-01-01 07:00,80.6,71.6,74.11,80.0,11.0,0.0,29.97,,3.73,,FEW,FEW,BKN,BKN,700.0,1400.0,1500.0,25000.0,-SHRA,,,,,,,84.57
PHHI,2022-01-01 07:01,69.8,68.0,94.01,180.0,6.0,0.0,29.85,1010.0,10.0,,SCT,BKN,BKN,OVC,800.0,1400.0,2100.0,3300.0,-DZ,,,,,,,69.8
JKL,2022-01-01 07:02,61.0,57.9,89.52,260.0,4.0,0.04,29.81,,2.0,,FEW,BKN,OVC,,1600.0,4100.0,8500.0,,TSRA BR,,,,,,,61.0
CAO,2022-01-01 07:03,19.9,12.9,73.83,20.0,21.0,0.0,29.54,,10.0,28.0,FEW,BKN,OVC,,1300.0,2100.0,3500.0,,,,,,28.0,30.0,2022-01-01 07:02,2.71
CYTE,2022-01-01 07:04,12.2,5.0,72.33,160.0,12.0,0.0,29.56,1001.7,9.0,,FEW,BKN,BKN,OVC,1700.0,2600.0,4200.0,4900.0,,,,,,,,-3.2
HLG,2022-01-01 07:05,57.9,54.0,86.82,220.0,10.0,0.0,29.74,,10.0,18.0,FEW,SCT,SCT,,2300.0,2800.0,3800.0,,,,,,,,,57.9
PAFR,2022-01-01 07:06,19.4,17.6,92.57,0.0,0.0,0.0,29.09,986.2,9.0,,SCT,BKN,BKN,BKN,500.0,900.0,1400.0,3000.0,-SN,,,,,,,19.4
PATC,2022-01-01 07:07,-13.0,-18.4,76.02,20.0,38.0,0.0,30.29,1027.3,0.5,,SCT,,,,400.0,,,,-SN,,,,41.0,10.0,2022-01-01 06:58,-48.01
HFF,2022-01-01 07:08,66.2,64.4,93.92,240.0,5.0,0.0,29.9,1012.5,6.0,,SCT,BKN,BKN,BKN,700.0,2900.0,4000.0,4900.0,-RA BR,,,,,,,66.2
HSI,2022-01-01 07:09,5.0,-2.9,69.16,20.0,16.0,0.0,29.94,,10.0,30.0,BKN,OVC,,,2300.0,3000.0,,,,,,,30.0,20.0,2022-01-01 07:02,-14.77
PAKI,2022-01-01 07:10,1.4,-0.4,91.92,350.0,32.0,0.0001,30.1,,0.5,37.0,VV ,,,,700.0,,,,-SN FZFG,,,,37.0,350.0,2022-01-01 07:09,-26.04
LTAC,2022-01-01 07:11,33.8,32.0,93.03,0.0,0.0,0.0,30.06,,1.8,,FEW,SCT,BKN,,2000.0,3500.0,8000.0,,-RA,,,,,,,33.8
WSSL,2022-01-01 07:12,77.0,75.2,94.19,20.0,15.0,0.0,29.8,,1.55,,FEW,SCT,BKN,,1200.0,1500.0,14000.0,,+SHRA,,,,,,,77.0
HUT,2022-01-01 07:13,21.0,19.0,91.83,20.0,17.0,0.0,29.74,,2.0,26.0,OVC,,,,400.0,,,,BR,,,,26.0,10.0,2022-01-01 07:13,5.66
HFF,2022-01-01 07:14,66.2,64.4,93.92,240.0,5.0,0.0,29.91,1012.9,8.0,,SCT,SCT,BKN,BKN,700.0,2400.0,3300.0,4000.0,-RA,,,,,,,66.2
UYF,2022-01-01 07:15,55.4,53.6,93.65,260.0,20.0,0.03,29.71,,4.0,25.0,BKN,BKN,OVC,,1500.0,3700.0,4900.0,,+RA,,,,,,,55.4
FTK,2022-01-01 07:16,59.0,59.0,100.0,0.0,0.0,0.0,29.72,1006.3,2.5,,FEW,SCT,BKN,BKN,2100.0,5000.0,6000.0,10000.0,BR,,,,,,,59.0
PAKI,2022-01-01 07:17,1.4,-0.4,91.92,350.0,28.0,0.0001,30.12,,0.75,38.0,FEW,SCT,,,600.0,1000.0,,,-SN BR,,,,38.0,350.0,2022-01-01 07:11,-24.72
FTK,2022-01-01 07:18,59.0,59.0,100.0,0.0,0.0,0.0,29.72,1006.3,2.25,,FEW,SCT,SCT,BKN,2100.0,5000.0,6000.0,10000.0,-RA BR,,,,,,,59.0
PHHI,2022-01-01 07:19,69.8,68.0,94.01,180.0,6.0,0.0,29.85,1010.0,6.0,,FEW,SCT,BKN,BKN,500.0,900.0,2100.0,3100.0,BR,,,,,,,69.8
PHHI,2022-01-01 07:20,69.8,68.0,94.01,180.0,5.0,0.0,29.85,1010.0,6.0,,FEW,SCT,BKN,BKN,500.0,900.0,1800.0,2300.0,-RA BR,,,,,,,69.8
FAY,2022-01-01 07:21,66.9,64.9,93.29,210.0,4.0,0.02,29.93,,5.0,,SCT,BKN,OVC,,800.0,1200.0,8500.0,,-RA BR,,,,,,,66.9
PAKI,2022-01-01 07:22,1.4,-0.4,91.92,350.0,25.0,0.0001,30.13,,1.25,33.0,FEW,SCT,,,600.0,1000.0,,,-SN BR,,,,38.0,350.0,2022-01-01 07:11,-23.62
PAMD,2022-01-01 07:23,35.6,33.8,93.08,300.0,20.0,0.01,28.89,,10.0,,SCT,OVC,,,1000.0,1600.0,,,-RA,,,,29.0,310.0,2022-01-01 06:54,23.92
POB,2022-01-01 07:24,66.2,66.2,100.0,220.0,5.0,0.0,29.93,1013.7,10.0,,FEW,SCT,BKN,OVC,500.0,1200.0,2300.0,9500.0,-DZ,,,,,,,66.2
PAMD,2022-01-01 07:25,35.6,33.8,93.08,290.0,20.0,0.01,28.89,,10.0,,BKN,OVC,,,1200.0,1600.0,,,-RA,,,,29.0,310.0,2022-01-01 06:54,23.92
PFKT,2022-01-01 07:26,-11.2,-16.6,76.21,340.0,17.0,0.0,30.39,,3.0,22.0,FEW,SCT,OVC,,400.0,1000.0,1600.0,,HZ,,,,28.0,320.0,2022-01-01 07:11,-36.52
PAMD,2022-01-01 07:27,35.6,33.8,93.08,300.0,19.0,0.01,28.89,,10.0,,FEW,BKN,OVC,,900.0,1600.0,2400.0,,-RA,,,,29.0,310.0,2022-01-01 06:54,24.2
FTK,2022-01-01 07:28,59.0,59.0,100.0,0.0,0.0,0.0,29.72,1006.3,1.25,,SCT,BKN,BKN,BKN,1500.0,2000.0,5000.0,6000.0,-RA BR,,,,,,,59.0
EHVL,2022-01-01 07:29,51.8,50.0,93.55,220.0,19.0,0.0,30.09,,4.97,,SCT,BKN,OVC,,700.0,4600.0,8300.0,,BR,,,,,,,51.8
PAHY,2022-01-01 07:30,39.2,37.4,93.19,110.0,27.0,0.0001,29.4,,2.5,37.0,BKN,BKN,OVC,,900.0,2800.0,3600.0,,-RA BR,,,,37.0,110.0,2022-01-01 07:29,27.16
PAKI,2022-01-01 07:31,1.4,-0.4,91.92,340.0,22.0,0.0001,30.14,,2.5,30.0,FEW,,,,600.0,,,,-SN BR,,,,38.0,350.0,2022-01-01 07:11,-22.4
JKL,2022-01-01 07:32,61.0,57.9,89.52,320.0,3.0,0.13,29.81,,2.0,,SCT,BKN,OVC,,1100.0,4200.0,9000.0,,RA BR,,,,,,,61.0
POB,2022-01-01 07:33,66.2,66.2,100.0,220.0,6.0,0.0,29.93,1013.7,10.0,,FEW,FEW,BKN,BKN,600.0,1200.0,2100.0,7500.0,,,,,,,,66.2
PFKT,2022-01-01 07:34,-11.2,-16.6,76.21,320.0,15.0,0.0,30.4,,3.0,23.0,BKN,,,,1400.0,,,,HZ,,,,28.0,320.0,2022-01-01 07:11,-35.22
PHHI,2022-01-01 07:35,69.8,68.0,94.01,170.0,5.0,0.0,29.85,1010.0,10.0,,FEW,SCT,BKN,BKN,1500.0,2300.0,3200.0,4700.0,,,,,,,,69.8
RJSN,2022-01-01 07:36,35.6,28.4,74.8,270.0,20.0,0.0,30.24,,5.59,30.0,FEW,SCT,BKN,,1000.0,1500.0,2500.0,,-SHSN,,,,,,,23.92
HLC,2022-01-01 07:37,9.0,5.0,83.41,10.0,14.0,0.0001,29.89,,2.0,22.0,OVC,,,,1200.0,,,,-SN BR,,,,26.0,10.0,2022-01-01 07:10,-8.48
RDU,2022-01-01 07:38,64.0,63.0,96.55,220.0,8.0,0.0,29.91,,9.0,,FEW,FEW,BKN,BKN,800.0,1000.0,3000.0,21000.0,,,,,,,,64.0
TBN,2022-01-01 07:39,55.4,55.4,100.0,0.0,0.0,0.0,29.66,1004.1,10.0,,FEW,BKN,BKN,,500.0,1600.0,2300.0,,-DZ,,,,,,,55.4
SKX,2022-01-01 07:40,32.0,30.2,92.97,220.0,16.0,0.02,29.46,,5.0,,BKN,BKN,OVC,,400.0,2600.0,5000.0,,-SN BR,,,,,,,20.42
LUF,2022-01-01 07:41,53.6,53.6,100.0,190.0,9.0,0.0,29.7,1005.4,10.0,,FEW,BKN,OVC,,300.0,1400.0,2000.0,,-RA,,,,,,,53.6
AFF,2022-01-01 07:42,15.8,10.4,78.84,350.0,8.0,0.0,29.56,1002.8,10.0,,FEW,BKN,BKN,OVC,1700.0,3000.0,4700.0,5500.0,-SN,,,,,,,4.16
AFF,2022-01-01 07:43,15.8,10.4,78.84,350.0,8.0,0.0,29.56,1002.8,10.0,,FEW,BKN,BKN,OVC,1700.0,3000.0,4700.0,5500.0,,,,,,,,4.16
SAF,2022-01-01 07:44,32.0,32.0,100.0,230.0,10.0,0.03,29.5,,6.0,18.0,BKN,BKN,OVC,,300.0,800.0,1300.0,,-SN BR,,,,,,,22.97
PHHI,2022-01-01 07:45,69.8,68.0,94.01,150.0,4.0,0.0,29.85,1010.0,10.0,,FEW,SCT,BKN,BKN,1500.0,2300.0,2700.0,3800.0,,,,,,,,69.8
PAFR,2022-01-01 07:46,19.4,17.6,92.57,160.0,3.0,0.0,29.08,985.8,2.0,,BKN,BKN,OVC,,600.0,1100.0,2500.0,,-SN BR,,,,,,,14.28
BMG,2022-01-01 07:47,60.8,57.2,87.92,210.0,7.0,0.07,29.69,,4.0,,FEW,BKN,OVC,,900.0,1300.0,5500.0,,-RA BR,,,,,,,60.8
PHHI,2022-01-01 07:48,69.8,68.0,94.01,170.0,4.0,0.0,29.86,1010.4,10.0,,SCT,SCT,BKN,BKN,1400.0,2200.0,2700.0,3800.0,-RA,,,,,,,69.8
POB,2022-01-01 07:49,66.2,66.2,100.0,190.0,4.0,0.0,29.91,1013.0,10.0,,SCT,BKN,BKN,BKN,1700.0,2400.0,4400.0,6000.0,,,,,,,,66.2
CYAH,2022-01-01 07:50,3.2,-2.2,77.67,260.0,9.0,0.0,29.61,1006.2,2.25,17.0,BKN,BKN,OVC,,1900.0,2700.0,7100.0,,-SN,,,,,,,-12.3
PAMD,2022-01-01 07:51,36.0,34.0,92.35,290.0,20.0,0.01,28.89,977.0,10.0,,SCT,BKN,OVC,,1500.0,2300.0,3400.0,,UP,,,,29.0,310.0,2022-01-01 06:54,24.45
OKC,2022-01-01 07:52,55.9,53.1,90.29,190.0,12.0,0.02,29.61,1001.9,10.0,,FEW,SCT,OVC,,5500.0,7500.0,9000.0,,-RA,,,,28.0,190.0,2022-01-01 07:12,55.9
FLG,2022-01-01 07:53,30.0,28.9,95.61,250.0,11.0,0.02,29.54,998.4,2.5,24.0,SCT,BKN,OVC,,900.0,1400.0,1900.0,,-SN BR,,,,31.0,240.0,2022-01-01 07:39,19.94
RSP,2022-01-01 07:54,50.0,48.9,95.98,200.0,7.0,0.0,29.81,1010.2,6.0,15.0,BKN,BKN,OVC,,200.0,4700.0,7000.0,,BR,,,,,,,50.0
OXD,2022-01-01 07:55,59.9,51.1,72.64,230.0,12.0,0.01,29.7,,10.0,17.0,SCT,SCT,OVC,,1700.0,4800.0,9000.0,,-DZ,,,,,,,59.9
PAPM,2022-01-01 07:56,1.9,-2.0,83.28,350.0,34.0,0.0001,29.98,1015.2,0.75,39.0,FEW,SCT,BKN,,1000.0,1400.0,1800.0,,-SN BR,,,,39.0,350.0,2022-01-01 07:55,-25.96
TBN,2022-01-01 07:57,55.4,55.4,100.0,320.0,7.0,0.0,29.65,1003.8,10.0,,SCT,BKN,BKN,OVC,500.0,1600.0,2300.0,3200.0,,,,,,,,55.4
CVS,2022-01-01 07:58,45.3,45.1,99.24,210.0,18.0,0.05,29.55,998.1,10.0,25.0,FEW,FEW,OVC,,3700.0,8000.0,10000.0,,,,,,31.0,230.0,2022-01-01 07:06,37.26
CSG,2022-01-01 07:59,69.1,66.9,92.71,220.0,5.0,0.0,29.96,,10.0,,FEW,FEW,OVC,,900.0,2300.0,6000.0,,,,,,,,,69.1
CYJT,2022-01-01 08:00,28.4,28.4,100.0,70.0,3.0,0.0,30.07,1018.5,7.0,,FEW,BKN,BKN,OVC,400.0,1600.0,2600.0,3600.0,-SN,,,,,,,24.57
RJSN,2022-01-01 08:01,35.6,28.4,74.8,280.0,17.0,0.0,30.24,,4.97,27.0,FEW,SCT,BKN,,1000.0,1500.0,2500.0,,-SHSN,,,,,,,24.79
TBN,2022-01-01 08:02,53.6,53.6,100.0,320.0,10.0,0.0,29.65,1003.8,10.0,15.0,BKN,BKN,BKN,OVC,500.0,1700.0,2400.0,3200.0,,,,,,,,53.6
PHJR,2022-01-01 08:03,73.9,68.0,81.82,220.0,8.0,0.2,29.86,,1.75,19.0,SCT,BKN,OVC,,1500.0,4100.0,6000.0,,+RA,,,,,,,73.9
EHWO,2022-01-01 08:04,51.8,50.0,93.55,220.0,6.0,0.0,30.21,,4.97,,SCT,BKN,BKN,,600.0,800.0,3500.0,,BR,,,,,,,51.8
MIE,2022-01-01 08:05,57.9,53.1,84.0,280.0,5.0,0.05,29.67,,3.0,,FEW,BKN,OVC,,500.0,2800.0,3500.0,,-RA,,,,,,,57.9
FLG,2022-01-01 08:06,30.0,28.0,92.15,260.0,16.0,0.0001,29.54,,3.0,26.0,SCT,BKN,OVC,,1200.0,2000.0,2700.0,,-SN BR,,,,26.0,260.0,2022-01-01 08:06,17.81
CYVO,2022-01-01 08:07,26.6,26.6,100.0,,2.0,0.0,29.7,1008.2,0.75,,SCT,BKN,OVC,,700.0,1000.0,1800.0,,-SN,,,,,,,26.6
PAFR,2022-01-01 08:08,19.4,17.6,92.57,0.0,0.0,0.0,29.08,985.8,6.0,,SCT,SCT,BKN,OVC,600.0,1100.0,1800.0,2600.0,-SN BR,,,,,,,19.4
DVT,2022-01-01 08:09,52.0,50.0,92.86,240.0,17.0,0.0,29.7,,10.0,26.0,BKN,BKN,OVC,,1300.0,2100.0,9000.0,,,,,,26.0,240.0,2022-01-01 08:07,52.0
P08,2022-01-01 08:10,51.8,50.0,93.55,210.0,10.0,0.0,29.75,,4.0,,SCT,BKN,OVC,,2600.0,3500.0,4400.0,,BR,,,,,,,51.8
PHHI,2022-01-01 08:11,68.0,66.2,93.97,140.0,3.0,0.0,29.85,1010.0,10.0,,BKN,BKN,BKN,BKN,800.0,1500.0,2300.0,2800.0,-RA,,,,,,,68.0
PAHY,2022-01-01 08:12,39.2,37.4,93.19,100.0,24.0,0.0001,29.35,,2.5,35.0,FEW,SCT,OVC,,700.0,1900.0,3100.0,,-RA BR,,,,35.0,100.0,2022-01-01 08:06,27.77
HUT,2022-01-01 08:13,19.9,18.0,92.19,360.0,15.0,0.0001,29.72,,2.0,26.0,OVC,,,,300.0,,,,-FZRA BR,0.01,,,26.0,10.0,2022-01-01 08:12,5.09
CYAH,2022-01-01 08:14,1.4,-4.0,77.49,260.0,14.0,0.0,29.64,1007.0,2.5,23.0,SCT,BKN,OVC,,2100.0,3000.0,7600.0,,-SN,,,,,,,-18.28
OXD,2022-01-01 08:15,59.9,51.1,72.64,230.0,13.0,0.01,29.69,,10.0,18.0,SCT,SCT,OVC,,1700.0,6500.0,9000.0,,-RA,,,,,,,59.9
CYAY,2022-01-01 08:16,19.4,17.6,92.57,160.0,4.0,0.0,30.02,1017.0,9.0,,FEW,SCT,OVC,,300.0,2200.0,2800.0,,,,,,,,,12.71
CYAH,2022-01-01 08:17,1.4,-4.0,77.49,270.0,11.0,0.0,29.64,1007.1,3.0,23.0,SCT,BKN,OVC,,2100.0,3000.0,7600.0,,-SN,,,,,,,-16.2
PAFR,2022-01-01 08:18,19.4,17.6,92.57,230.0,4.0,0.0,29.08,985.8,10.0,,FEW,BKN,BKN,OVC,600.0,1100.0,1800.0,2600.0,-SN,,,,,,,12.71
DVT,2022-01-01 08:19,52.0,50.0,92.86,240.0,16.0,0.0,29.71,,10.0,24.0,SCT,BKN,BKN,,1300.0,2200.0,9000.0,,,,,,26.0,240.0,2022-01-01 08:07,52.0
PAHY,2022-01-01 08:20,41.0,37.4,86.89,100.0,26.0,0.0001,29.35,,2.5,34.0,FEW,BKN,OVC,,700.0,1900.0,3100.0,,-RA BR,,,,35.0,100.0,2022-01-01 08:06,29.8
CYTE,2022-01-01 08:21,12.2,6.8,78.51,140.0,13.0,0.0,29.57,1002.0,4.0,,FEW,BKN,OVC,,2000.0,2600.0,3400.0,,-SN,,,,,,,-3.8
FLG,2022-01-01 08:22,28.9,27.0,92.49,260.0,15.0,0.0001,29.56,,1.75,23.0,SCT,OVC,,,1200.0,2000.0,,,-SN BR,,,,26.0,260.0,2022-01-01 08:06,16.76
FAY,2022-01-01 08:23,66.9,64.9,93.29,160.0,8.0,0.16,29.92,,4.0,,FEW,BKN,OVC,,1300.0,4400.0,9500.0,,-RA BR,,,,,,,66.9
SLN,2022-01-01 08:24,18.0,14.0,84.05,10.0,18.0,0.0001,29.83,,1.5,30.0,BKN,BKN,OVC,,900.0,1300.0,2000.0,,-SN BR,,,,30.0,20.0,2022-01-01 08:20,1.32
CYTE,2022-01-01 08:25,12.2,6.8,78.51,130.0,13.0,0.0,29.57,1002.1,5.0,,FEW,BKN,BKN,OVC,2000.0,2500.0,3000.0,3600.0,-SN,,,,,,,-3.8
FLG,2022-01-01 08:26,27.0,26.1,96.35,270.0,7.0,0.0001,29.57,,1.0,23.0,SCT,BKN,OVC,,800.0,1300.0,2000.0,,-SN BR,,,,26.0,260.0,2022-01-01 08:06,18.68
PAHY,2022-01-01 08:27,39.2,37.4,93.19,110.0,28.0,0.0001,29.34,,3.0,34.0,FEW,SCT,OVC,,700.0,1900.0,3100.0,,-RA BR,,,,35.0,100.0,2022-01-01 08:06,26.97
FLG,2022-01-01 08:28,27.0,26.1,96.35,280.0,8.0,0.01,29.57,,0.75,23.0,BKN,OVC,,,800.0,2000.0,,,-SN BR,,,,26.0,260.0,2022-01-01 08:06,17.95
PAPM,2022-01-01 08:29,3.2,-0.4,84.56,350.0,30.0,0.0001,30.01,,0.5,38.0,FEW,OVC,,,1000.0,2000.0,,,SN FZFG,,,,38.0,350.0,2022-01-01 08:24,-22.92
VOTR,2022-01-01 08:30,75.2,73.4,94.14,110.0,10.0,0.0,29.97,,1.24,,FEW,SCT,FEW,OVC,1000.0,1500.0,2500.0,8000.0,RA,,,,,,,75.2
FBG,2022-01-01 08:31,66.2,66.2,100.0,200.0,4.0,0.0,29.9,1012.6,10.0,,FEW,SCT,BKN,BKN,1000.0,4000.0,5500.0,11000.0,,,,,,,,66.2
PAKT,2022-01-01 08:32,35.1,34.0,95.71,140.0,22.0,0.05,29.44,,2.0,32.0,OVC,,,,900.0,,,,RA BR,,,,32.0,130.0,2022-01-01 08:31,22.73
CQC,2022-01-01 08:33,30.9,30.9,100.0,230.0,24.0,0.01,29.51,,1.75,31.0,SCT,OVC,,,300.0,1700.0,,,BR,,,,35.0,260.0,2022-01-01 08:01,16.58
SLN,2022-01-01 08:34,18.0,14.0,84.05,10.0,22.0,0.0001,29.83,,2.5,27.0,FEW,OVC,,,900.0,1300.0,,,-SN BR,,,,30.0,20.0,2022-01-01 08:20,-0.17
PFKT,2022-01-01 08:35,-9.4,-14.8,76.4,330.0,15.0,0.0,30.43,,2.5,24.0,FEW,OVC,,,500.0,1100.0,,,HZ,,,,28.0,320.0,2022-01-01 08:18,-32.89
CQC,2022-01-01 08:36,30.9,30.9,100.0,230.0,24.0,0.01,29.52,,3.0,32.0,SCT,OVC,,,300.0,1900.0,,,BR,,,,35.0,260.0,2022-01-01 08:01,16.58
CYMT,2022-01-01 08:37,23.0,19.4,85.85,300.0,10.0,0.0,29.67,1007.5,1.25,18.0,FEW,BKN,OVC,,700.0,1100.0,2800.0,,-SN,,,,,,,11.68
LUF,2022-01-01 08:38,53.6,51.8,93.6,190.0,13.0,0.0,29.71,1005.7,10.0,,FEW,SCT,SCT,BKN,900.0,1600.0,2700.0,3500.0,,,,,,,,53.6
DDC,2022-01-01 08:39,10.9,8.1,88.21,10.0,23.0,0.0001,29.73,,2.0,31.0,OVC,,,,1000.0,,,,-SN BR,,,,35.0,20.0,2022-01-01 08:20,-10.05
CYAH,2022-01-01 08:40,1.4,-4.0,77.49,270.0,14.0,0.0,29.65,1007.6,2.25,24.0,BKN,BKN,OVC,,1900.0,2300.0,7600.0,,-SN,,,,,,,-18.28
PHHI,2022-01-01 08:41,68.0,64.4,88.26,190.0,8.0,0.0,29.86,1010.4,5.0,17.0,SCT,SCT,OVC,,400.0,900.0,3900.0,,RA BR,,,,,,,68.0
BMG,2022-01-01 08:42,60.1,57.0,89.48,250.0,9.0,0.05,29.68,,5.0,16.0,SCT,BKN,OVC,,900.0,1500.0,6500.0,,-RA BR,,,,,,,60.1
LOR,2022-01-01 08:43,71.6,69.8,94.06,180.0,6.0,0.0,29.96,1012.6,10.0,,SCT,BKN,BKN,,900.0,1500.0,2000.0,,,,,,,,,71.6
CYTE,2022-01-01 08:44,10.4,6.8,85.05,130.0,14.0,0.0,29.57,1002.2,3.0,19.0,FEW,BKN,OVC,,1700.0,2500.0,3800.0,,-SN,,,,,,,-6.68
CQC,2022-01-01 08:45,32.0,30.9,95.65,240.0,26.0,0.01,29.52,,2.5,35.0,SCT,OVC,,,300.0,3500.0,,,-SN BR,,,,35.0,230.0,2022-01-01 08:43,17.58
SADF,2022-01-01 08:46,69.8,68.0,94.01,260.0,13.0,0.0,29.68,,1.99,32.0,FEW,SCT,OVC,,1200.0,3400.0,10000.0,,+TSRA,,,,,,,69.8
PAHY,2022-01-01 08:47,41.0,39.2,93.24,100.0,20.0,0.0001,29.32,,2.5,35.0,FEW,OVC,,,700.0,3000.0,,,-RA BR,,,,35.0,110.0,2022-01-01 08:39,31.09
HOP,2022-01-01 08:48,64.4,64.4,100.0,360.0,3.0,0.0,29.69,1005.2,9.0,,SCT,BKN,BKN,,900.0,1600.0,2100.0,,VCTS,,,,,,,64.4
PFKT,2022-01-01 08:49,-11.2,-16.6,76.21,330.0,17.0,0.0,30.43,,2.5,,BKN,OVC,,,1000.0,1300.0,,,HZ,,,,28.0,320.0,2022-01-01 08:18,-36.52
VES,2022-01-01 08:50,55.4,55.4,100.0,250.0,8.0,0.15,29.66,,10.0,15.0,SCT,BKN,OVC,,600.0,1300.0,2000.0,,-RA,,,,,,,55.4
VCT,2022-01-01 08:51,75.0,68.0,78.86,170.0,22.0,0.0,29.66,1004.2,9.0,30.0,BKN,OVC,,,2000.0,2700.0,,,,,,,36.0,180.0,2022-01-01 08:09,75.0
HUT,2022-01-01 08:52,19.9,17.1,88.68,10.0,15.0,0.0001,29.76,1007.8,2.0,23.0,OVC,,,,400.0,,,,-FZRA BR,0.05,0.06,,28.0,10.0,2022-01-01 08:24,5.09
PWA,2022-01-01 08:53,44.1,39.0,82.12,330.0,10.0,0.02,29.61,1002.2,8.0,20.0,FEW,SCT,OVC,,1900.0,8000.0,9500.0,,-RA,,,,27.0,290.0,2022-01-01 08:41,38.14
AAO,2022-01-01 08:54,26.1,24.1,92.01,10.0,17.0,0.0,29.73,1007.1,6.0,26.0,OVC,,,,300.0,,,,BR,0.0001,0.0001,,27.0,30.0,2022-01-01 08:13,12.35
CAO,2022-01-01 08:55,15.1,10.9,83.11,10.0,23.0,0.02,29.56,1001.6,1.5,31.0,FEW,OVC,,,1400.0,2100.0,,,-SN BR,,,,32.0,10.0,2022-01-01 07:59,-4.4
PAHY,2022-01-01 08:56,41.0,39.0,92.52,100.0,29.0,0.0001,29.31,992.2,2.5,35.0,FEW,SCT,OVC,,700.0,1800.0,3000.0,,RA BR,,,,35.0,110.0,2022-01-01 08:55,29.25
CYVO,2022-01-01 08:57,21.2,19.4,92.63,340.0,18.0,0.0,29.71,1008.8,1.5,,SCT,BKN,OVC,,900.0,1200.0,3900.0,,-SN,,,,,,,5.53
AFF,2022-01-01 08:58,15.3,10.8,82.02,340.0,9.0,0.0001,29.57,1003.1,6.0,,FEW,SCT,SCT,OVC,600.0,1400.0,2600.0,3600.0,-SN,,,,,,,2.75
HUF,2022-01-01 08:59,60.1,57.0,89.48,300.0,6.0,0.0,29.66,,10.0,17.0,FEW,BKN,OVC,,800.0,1600.0,5500.0,,,,,,,,,60.1
VOTR,2022-01-01 09:00,75.2,71.6,88.59,140.0,6.0,0.0,29.94,,1.24,,SCT,SCT,FEW,OVC,1000.0,1500.0,2500.0,8000.0,RA,,,,,,,75.2
CYAY,2022-01-01 09:01,21.2,19.4,92.63,180.0,3.0,0.0,30.02,1017.0,9.0,,FEW,SCT,BKN,OVC,1500.0,2400.0,3200.0,5000.0,,,,,,,,16.34
RSP,2022-01-01 09:02,50.0,48.9,95.98,230.0,10.0,0.0001,29.8,,3.0,22.0,FEW,BKN,OVC,,900.0,6000.0,8000.0,,BR,,,,,,,50.0
CYAY,2022-01-01 09:03,21.2,19.4,92.63,180.0,3.0,0.0,30.02,1017.0,7.0,,FEW,SCT,BKN,OVC,1500.0,2400.0,3200.0,5000.0,-SN,,,,,,,16.34
CYAY,2022-01-01 09:04,21.2,19.4,92.63,170.0,3.0,0.0,30.02,1017.0,6.0,,FEW,BKN,BKN,OVC,1500.0,2400.0,3400.0,4400.0,-SN,,,,,,,16.34
CAO,2022-01-01 09:05,15.1,10.9,83.11,10.0,20.0,0.0001,29.56,,1.25,30.0,BKN,OVC,,,1300.0,2100.0,,,-SN BR,,,,30.0,10.0,2022-01-01 09:03,-3.31
PAHY,2022-01-01 09:06,41.0,39.2,93.24,110.0,26.0,0.0001,29.3,,3.0,40.0,FEW,SCT,OVC,,700.0,1800.0,2800.0,,RA BR,,,,40.0,110.0,2022-01-01 08:59,29.8
CYAY,2022-01-01 09:07,21.2,19.4,92.63,170.0,3.0,0.0,30.02,1016.9,5.0,,FEW,SCT,BKN,OVC,1500.0,2400.0,3400.0,4400.0,-SN,,,,,,,16.34
CYTE,2022-01-01 09:08,10.4,5.0,78.35,130.0,13.0,0.0,29.58,1002.3,9.0,,FEW,SCT,BKN,,1700.0,2300.0,4000.0,,,,,,,,,-6.1
PRC,2022-01-01 09:09,30.9,30.0,96.41,330.0,14.0,0.0001,29.7,,1.75,25.0,FEW,BKN,OVC,,800.0,1900.0,8000.0,,-SN BR,,,,,,,19.74
BWG,2022-01-01 09:10,64.9,63.0,93.56,0.0,0.0,0.11,29.72,,1.5,,SCT,BKN,OVC,,800.0,1200.0,2500.0,,VCTS +RA BR,,,,,,,64.9
PHLI,2022-01-01 09:11,72.0,72.0,100.0,270.0,13.0,0.0001,29.83,,2.0,20.0,SCT,BKN,OVC,,1100.0,2600.0,5000.0,,BR,,,,,,,72.0
BVX,2022-01-01 09:12,59.0,57.2,93.74,100.0,4.0,0.17,29.68,,4.0,,SCT,BKN,OVC,,1300.0,2000.0,4800.0,,-TSRA BR,,,,,,,59.0
AFF,2022-01-01 09:13,15.8,10.4,78.84,340.0,10.0,0.0,29.57,1003.1,8.0,,SCT,BKN,BKN,BKN,500.0,1000.0,1400.0,2600.0,-SN,,,,,,,2.65
RJSN,2022-01-01 09:14,37.4,28.4,69.67,270.0,15.0,0.0,30.27,,6.21,26.0,FEW,SCT,BKN,,1000.0,2000.0,3000.0,,-SHSN,,,,,,,27.78
CAO,2022-01-01 09:15,15.1,10.9,83.11,10.0,21.0,0.01,29.56,,0.75,32.0,BKN,OVC,,,1100.0,2100.0,,,-SN BR,,,,32.0,10.0,2022-01-01 09:11,-3.69
PHHI,2022-01-01 09:16,68.0,66.2,93.97,180.0,10.0,0.0,29.87,1010.7,2.0,20.0,FEW,SCT,BKN,,500.0,1000.0,4500.0,,+RA BR,,,,,,,68.0
CQC,2022-01-01 09:17,32.0,30.9,95.65,240.0,24.0,0.01,29.54,,2.5,34.0,SCT,BKN,OVC,,1800.0,2900.0,5000.0,,-SN BR,,,,34.0,250.0,2022-01-01 09:16,18.06
CYAY,2022-01-01 09:18,21.2,19.4,92.63,150.0,4.0,0.0,30.01,1016.8,2.25,,FEW,BKN,OVC,,1500.0,3400.0,4300.0,,-SN,,,,,,,14.81
AMA,2022-01-01 09:19,32.0,28.0,84.98,30.0,17.0,0.02,29.56,,7.0,25.0,FEW,BKN,OVC,,1000.0,5000.0,6500.0,,-RA,,,,33.0,240.0,2022-01-01 09:02,20.08
PRC,2022-01-01 09:20,30.0,30.0,100.0,310.0,15.0,0.01,29.71,,0.75,24.0,BKN,BKN,BKN,,400.0,1400.0,2100.0,,-SN BR,,,,,,,18.19
CQC,2022-01-01 09:21,30.9,30.9,100.0,240.0,23.0,0.01,29.54,,1.25,34.0,FEW,BKN,OVC,,700.0,2200.0,5000.0,,-SN BR,,,,34.0,250.0,2022-01-01 09:16,16.84
LEX,2022-01-01 09:22,59.0,59.0,100.0,130.0,4.0,0.16,29.73,,2.5,,SCT,BKN,OVC,,600.0,1800.0,4200.0,,+RA BR,,,,,,,59.0
CYTE,2022-01-01 09:23,10.4,8.6,92.25,130.0,18.0,0.0,29.57,1002.2,2.5,23.0,FEW,BKN,,,1000.0,2100.0,,,-SN,,,,,,,-8.69
JKL,2022-01-01 09:24,60.1,57.9,92.43,0.0,0.0,0.1,29.77,,1.5,,FEW,BKN,OVC,,900.0,4300.0,6500.0,,RA BR,,,,,,,60.1
PFKT,2022-01-01 09:25,-11.2,-14.8,83.51,270.0,7.0,0.0,30.45,,3.0,20.0,FEW,BKN,OVC,,400.0,1300.0,2600.0,,BR,,,,29.0,320.0,2022-01-01 09:06,-27.88
PHHI,2022-01-01 09:26,69.8,66.2,88.34,190.0,6.0,0.0,29.86,1010.3,2.75,,SCT,SCT,OVC,,400.0,1100.0,3600.0,,+RA BR,,,,,,,69.8
CYTR,2022-01-01 09:27,35.6,33.8,93.08,40.0,4.0,0.0,29.71,1006.5,3.0,,FEW,BKN,BKN,,400.0,4200.0,6200.0,,,,,,,,,31.62
CKV,2022-01-01 09:28,64.9,62.1,90.64,320.0,7.0,0.0,29.69,,8.0,20.0,FEW,BKN,OVC,,600.0,1700.0,2300.0,,TS,,,,,,,64.9
AMA,2022-01-01 09:29,28.9,26.1,89.12,30.0,25.0,0.02,29.55,,8.0,34.0,SCT,BKN,OVC,,1000.0,5000.0,7000.0,,UP,0.0001,,,34.0,40.0,2022-01-01 09:27,13.62
VOTR,2022-01-01 09:30,73.4,71.6,94.1,90.0,8.0,0.0,29.94,,1.55,,FEW,SCT,FEW,OVC,1000.0,1500.0,2500.0,8000.0,-RA,,,,,,,73.4
FTK,2022-01-01 09:31,59.0,59.0,100.0,0.0,0.0,0.0,29.7,1005.7,4.0,,FEW,FEW,SCT,OVC,700.0,1400.0,2700.0,3900.0,RA BR,,,,,,,59.0
PFKT,2022-01-01 09:32,-9.4,-14.8,76.4,280.0,9.0,0.0,30.45,,4.0,19.0,FEW,BKN,OVC,,900.0,1800.0,2600.0,,HZ,,,,29.0,320.0,2022-01-01 09:06,-27.96
OSU,2022-01-01 09:33,55.0,53.1,93.29,0.0,0.0,0.03,29.68,,5.0,,BKN,BKN,OVC,,2100.0,2900.0,5500.0,,-RA BR,,,,,,,55.0
LHQ,2022-01-01 09:34,59.0,57.9,96.13,230.0,4.0,0.0001,29.7,,7.0,,SCT,BKN,OVC,,1200.0,2200.0,3900.0,,-RA,,,,,,,59.0
INW,2022-01-01 09:35,33.1,30.0,88.23,320.0,20.0,0.04,29.61,,0.75,27.0,FEW,OVC,,,1000.0,1500.0,,,-SN BR,,,,27.0,310.0,2022-01-01 09:28,20.6
AMA,2022-01-01 09:36,27.0,24.1,88.65,40.0,18.0,0.02,29.53,,10.0,34.0,SCT,BKN,OVC,,1200.0,2100.0,9000.0,,,0.0001,,,34.0,40.0,2022-01-01 09:27,13.17
FTK,2022-01-01 09:37,59.0,59.0,100.0,260.0,3.0,0.0,29.72,1006.4,4.0,,FEW,FEW,BKN,OVC,800.0,2800.0,4100.0,6000.0,RA BR,,,,,,,59.0
GUY,2022-01-01 09:38,16.0,12.0,83.91,20.0,21.0,0.0001,29.68,,1.75,28.0,BKN,OVC,,,700.0,1000.0,,,-SN BR,,,,28.0,10.0,2022-01-01 09:36,-2.49
LBB,2022-01-01 09:39,48.9,45.0,86.33,260.0,19.0,0.0001,29.63,,10.0,32.0,BKN,BKN,BKN,,1300.0,6500.0,11000.0,,,,,,32.0,260.0,2022-01-01 09:30,41.79
DHT,2022-01-01 09:40,19.0,14.0,80.52,30.0,18.0,0.0001,29.62,,4.0,33.0,OVC,,,,1200.0,,,,UP,,,,33.0,20.0,2022-01-01 09:31,2.64
PHHI,2022-01-01 09:41,68.0,66.2,93.97,130.0,9.0,0.0,29.86,1010.4,6.0,,BKN,BKN,OVC,,400.0,800.0,2100.0,,-RA BR,,,,,,,68.0
CYTE,2022-01-01 09:42,10.4,8.6,92.25,130.0,17.0,0.0,29.58,1002.3,0.75,23.0,SCT,BKN,OVC,,900.0,1700.0,2400.0,,-SN,,,,,,,-8.22
CYTE,2022-01-01 09:43,10.4,8.6,92.25,130.0,15.0,0.0,29.58,1002.3,0.75,23.0,BKN,BKN,OVC,,900.0,1700.0,2400.0,,-SN,,,,,,,-7.22
ROYN,2022-01-01 09:44,66.2,62.6,88.18,170.0,8.0,0.0,30.18,,2.98,,FEW,SCT,BKN,///,1700.0,2600.0,3200.0,,-RA BR,,,,,,,66.2
ZZV,2022-01-01 09:45,55.9,54.0,93.32,200.0,4.0,0.07,29.71,,3.0,,FEW,BKN,OVC,,2000.0,4700.0,6000.0,,RA BR,,,,,,,55.9
JLN,2022-01-01 09:46,41.0,39.0,92.52,20.0,11.0,0.01,29.66,,6.0,,FEW,BKN,OVC,,1000.0,1500.0,8000.0,,-RA BR,,,,,,,33.84
FTK,2022-01-01 09:47,59.0,59.0,100.0,230.0,6.0,0.0,29.73,1006.7,5.0,,SCT,BKN,OVC,,1600.0,2900.0,4200.0,,RA BR,,,,,,,59.0
AMA,2022-01-01 09:48,26.6,24.8,92.8,20.0,15.0,0.02,29.55,,9.0,28.0,FEW,BKN,OVC,,1100.0,7000.0,10000.0,,,0.0001,,,34.0,40.0,2022-01-01 09:27,13.78
BGD,2022-01-01 09:49,24.8,19.4,79.62,50.0,14.0,0.07,29.6,,4.0,24.0,BKN,OVC,,,1300.0,3600.0,,,UP BR,0.01,,,,,,11.88
CYEV,2022-01-01 09:50,-36.4,-43.6,65.99,0.0,0.0,0.0,30.15,1022.7,15.0,,FEW,SCT,BKN,,8300.0,9300.0,16000.0,,IC,,,,,,,-36.4
FTK,2022-01-01 09:51,59.0,59.0,100.0,0.0,0.0,0.0,29.71,1006.0,5.0,,FEW,SCT,BKN,OVC,500.0,1600.0,2900.0,4400.0,RA BR,,,,,,,59.0
HUT,2022-01-01 09:52,18.0,14.0,84.05,10.0,14.0,0.0001,29.76,1007.8,2.5,28.0,BKN,OVC,,,900.0,1400.0,,,-FZRA BR,0.04,,,30.0,360.0,2022-01-01 09:16,3.12
AMA,2022-01-01 09:53,26.1,23.0,87.87,10.0,17.0,0.02,29.56,1000.0,9.0,26.0,FEW,BKN,OVC,,1100.0,7000.0,10000.0,,,0.0001,,,34.0,40.0,2022-01-01 09:27,12.35
FFZ,2022-01-01 09:54,52.0,48.9,89.13,220.0,9.0,0.11,29.74,1005.8,4.0,20.0,FEW,BKN,OVC,,1100.0,2700.0,4000.0,,RA BR,,,,32.0,220.0,2022-01-01 09:25,52.0
DYS,2022-01-01 09:55,55.4,50.0,81.99,170.0,3.0,0.0,29.62,1000.5,10.0,,FEW,BKN,BKN,OVC,3800.0,5000.0,7000.0,8000.0,-RA,,,,,,,55.4
ALK,2022-01-01 09:56,41.0,39.0,92.52,220.0,17.0,0.0001,29.84,1005.1,9.0,26.0,BKN,BKN,OVC,,1700.0,2900.0,5000.0,,-RA,,,,26.0,240.0,2022-01-01 09:16,31.87
CQC,2022-01-01 09:57,30.9,30.9,100.0,250.0,20.0,0.0001,29.55,,1.0,27.0,BKN,OVC,,,400.0,800.0,,,-SN BR,,,,26.0,250.0,2022-01-01 09:56,17.68
FHU,2022-01-01 09:58,43.0,36.7,78.26,210.0,17.0,0.0,29.83,1006.9,10.0,,BKN,BKN,OVC,,2200.0,3000.0,3800.0,,,,,,26.0,230.0,2022-01-01 09:20,34.49
EHLW,2022-01-01 09:59,50.0,50.0,100.0,190.0,11.0,0.0,30.12,,3.73,,FEW,SCT,OVC,,400.0,8300.0,17000.0,,BR,,,,,,,50.0
FHU,2022-01-01 10:00,42.8,37.4,81.07,200.0,24.0,0.0,29.82,1006.5,10.0,27.0,BKN,BKN,BKN,OVC,2200.0,2900.0,3500.0,4400.0,-RA,,,,,,,32.63
QBL,2022-01-01 10:01,71.6,71.6,100.0,,4.0,0.0,29.98,1015.7,2.75,,SCT,BKN,BKN,OVC,200.0,500.0,700.0,1900.0,BR,,,,,,,71.6
CYTE,2022-01-01 10:02,10.4,6.8,85.05,130.0,16.0,0.0,29.58,1002.3,2.25,21.0,SCT,SCT,OVC,,1200.0,2400.0,3000.0,,-SN,,,,,,,-7.74
RJSN,2022-01-01 10:03,33.8,28.4,80.36,280.0,26.0,0.0,30.27,,1.24,36.0,FEW,SCT,BKN,,500.0,800.0,1500.0,,-SHSN,,,,,,,20.02
CQC,2022-01-01 10:04,30.9,30.9,100.0,240.0,18.0,0.01,29.55,,3.0,26.0,BKN,OVC,,,400.0,700.0,,,-SN BR,,,,26.0,250.0,2022-01-01 10:02,18.3
CYTE,2022-01-01 10:05,10.4,6.8,85.05,130.0,17.0,0.0,29.58,1002.3,3.0,,SCT,SCT,OVC,,1200.0,2400.0,3000.0,,-SN,,,,,,,-8.22
PAKI,2022-01-01 10:06,1.4,-0.4,91.92,350.0,24.0,0.0001,30.24,,1.75,31.0,FEW,SCT,,,1100.0,1800.0,,,-SN BR,,,,31.0,350.0,2022-01-01 10:05,-23.22
ICT,2022-01-01 10:07,24.1,21.0,87.76,10.0,13.0,0.0001,29.72,,1.75,21.0,OVC,,,,600.0,,,,BR,0.01,,,26.0,360.0,2022-01-01 09:49,11.45
LUF,2022-01-01 10:08,53.6,53.6,100.0,230.0,15.0,0.0,29.75,1007.1,10.0,,FEW,SCT,BKN,BKN,2100.0,3000.0,3900.0,4700.0,,,,,,,,53.6
BPK,2022-01-01 10:09,55.9,55.9,100.0,80.0,3.0,0.03,29.63,,1.5,,SCT,BKN,OVC,,300.0,2900.0,8500.0,,RA BR,,,,,,,55.9
DHT,2022-01-01 10:10,18.0,14.0,84.05,20.0,21.0,0.0001,29.64,,0.5,28.0,BKN,BKN,OVC,,800.0,1300.0,1900.0,,SN FZFG,,,,29.0,20.0,2022-01-01 09:58,0.18
CYTE,2022-01-01 10:11,10.4,5.0,78.35,130.0,16.0,0.0,29.58,1002.4,7.0,22.0,FEW,SCT,BKN,OVC,1200.0,2400.0,3200.0,3900.0,-SN,,,,,,,-7.74
RTN,2022-01-01 10:12,18.0,10.0,70.41,350.0,21.0,0.0,29.5,,2.5,27.0,BKN,OVC,,,2300.0,2900.0,,,HZ,,,,27.0,350.0,2022-01-01 10:11,0.18
CYTE,2022-01-01 10:13,10.4,5.0,78.35,130.0,17.0,0.0,29.58,1002.4,5.0,22.0,FEW,BKN,OVC,,1500.0,3200.0,3900.0,,-SN,,,,,,,-8.22
ICT,2022-01-01 10:14,23.0,21.0,91.9,10.0,16.0,0.0001,29.74,,2.0,24.0,OVC,,,,600.0,,,,-FZRA BR,0.01,,,26.0,360.0,2022-01-01 09:49,8.69
LUF,2022-01-01 10:15,53.6,53.6,100.0,220.0,19.0,0.0,29.75,1007.1,10.0,,SCT,BKN,BKN,OVC,2300.0,3600.0,4800.0,7000.0,,,,,,,,53.6
QBL,2022-01-01 10:16,71.6,71.6,100.0,,3.0,0.0,29.98,1015.7,3.0,,FEW,BKN,BKN,,200.0,700.0,900.0,,BR,,,,,,,71.6
FTK,2022-01-01 10:17,59.0,59.0,100.0,290.0,5.0,0.0,29.71,1006.0,9.0,,FEW,SCT,OVC,,1500.0,2300.0,5500.0,,RA,,,,,,,59.0
DWU,2022-01-01 10:18,55.4,55.4,100.0,0.0,0.0,0.06,29.76,,0.75,,FEW,BKN,OVC,,1100.0,4700.0,5500.0,,RA BR,,,,,,,55.4
RTN,2022-01-01 10:19,18.0,10.0,70.41,360.0,17.0,0.0,29.51,,3.0,31.0,SCT,OVC,,,2300.0,2900.0,,,HZ,,,,31.0,360.0,2022-01-01 10:15,1.73
FLG,2022-01-01 10:20,24.1,21.0,87.76,290.0,10.0,0.01,29.62,,8.0,17.0,BKN,BKN,OVC,,2300.0,4500.0,7000.0,,-SN,,,,,,,13.06
DVT,2022-01-01 10:21,51.1,48.9,92.14,260.0,18.0,0.02,29.74,,10.0,26.0,SCT,BKN,OVC,,1200.0,2500.0,4800.0,,-RA,,,,26.0,260.0,2022-01-01 10:19,51.1
DHT,2022-01-01 10:22,18.0,14.0,84.05,10.0,26.0,0.0001,29.65,,0.75,37.0,BKN,OVC,,,1000.0,1900.0,,,-SN BR,,,,37.0,10.0,2022-01-01 10:22,-1.44
MHK,2022-01-01 10:23,16.0,9.0,73.41,20.0,13.0,0.01,29.87,,2.0,23.0,OVC,,,,1700.0,,,,-SN,,,,26.0,20.0,2022-01-01 09:53,1.07
SDL,2022-01-01 10:24,52.0,48.0,86.17,240.0,13.0,0.0,29.75,,10.0,24.0,BKN,BKN,OVC,,1600.0,2100.0,5500.0,,,,,,26.0,240.0,2022-01-01 10:08,52.0
LUF,2022-01-01 10:25,53.6,53.6,100.0,240.0,14.0,0.0,29.76,1007.4,10.0,,FEW,SCT,OVC,,2200.0,2900.0,4200.0,,,,,,,,,53.6
PHHI,2022-01-01 10:26,68.0,66.2,93.97,0.0,0.0,0.0,29.86,1010.4,5.0,,SCT,SCT,OVC,,500.0,1100.0,1700.0,,RA BR,,,,,,,68.0
PAVC,2022-01-01 10:27,23.0,19.4,85.85,300.0,48.0,0.0,30.0,,0.75,59.0,BKN,OVC,,,1100.0,1600.0,,,-SN BR,,,,59.0,280.0,2022-01-01 10:20,0.74
BKW,2022-01-01 10:28,55.4,55.4,100.0,0.0,0.0,0.0,29.82,,1.0,,SCT,BKN,OVC,,1200.0,2600.0,7000.0,,RA BR,,,,,,,55.4
AAO,2022-01-01 10:29,23.0,21.0,91.9,10.0,20.0,0.0001,29.74,,2.5,26.0,OVC,,,,600.0,,,,-FZRA BR,0.03,,,29.0,10.0,2022-01-01 10:08,7.19
VOTR,2022-01-01 10:30,73.4,71.6,94.1,90.0,8.0,0.0,29.94,,1.24,,FEW,SCT,FEW,OVC,1000.0,1500.0,2500.0,8000.0,RA,,,,,,,73.4
FOE,2022-01-01 10:31,19.9,16.0,84.55,360.0,16.0,0.02,29.78,,1.25,26.0,FEW,BKN,OVC,,1200.0,1900.0,2800.0,,UP BR,0.0001,,,26.0,10.0,2022-01-01 10:26,4.65
LBL,2022-01-01 10:32,12.2,6.8,78.51,10.0,20.0,0.0001,29.71,,6.0,24.0,SCT,OVC,,,1300.0,1900.0,,,-SN,,,,26.0,360.0,2022-01-01 10:09,-7.16
TOP,2022-01-01 10:33,19.9,15.1,81.3,360.0,15.0,0.02,29.82,,2.5,27.0,OVC,,,,1600.0,,,,-SN,0.01,,,27.0,20.0,2022-01-01 10:25,5.09
HOP,2022-01-01 10:34,60.8,60.8,100.0,330.0,8.0,0.0,29.7,1005.7,8.0,,FEW,BKN,BKN,OVC,400.0,1300.0,1800.0,3400.0,RA,,,,,,,60.8
SDL,2022-01-01 10:35,52.0,48.0,86.17,250.0,13.0,0.0,29.75,,10.0,26.0,BKN,BKN,OVC,,1400.0,2200.0,5000.0,,,,,,26.0,240.0,2022-01-01 10:26,52.0
DWU,2022-01-01 10:36,55.4,55.4,100.0,0.0,0.0,0.11,29.75,,0.75,,FEW,BKN,OVC,,700.0,4700.0,6000.0,,RA BR,,,,,,,55.4
EMP,2022-01-01 10:37,23.0,19.9,87.7,20.0,16.0,0.0001,29.74,,2.5,26.0,BKN,OVC,,,700.0,1100.0,,,-FZRA BR,0.01,,,28.0,10.0,2022-01-01 10:10,8.69
ITR,2022-01-01 10:38,3.0,-2.9,75.82,360.0,18.0,0.0001,29.76,,1.5,27.0,SCT,OVC,,,800.0,1200.0,,,-SN,,,,27.0,350.0,2022-01-01 10:28,-18.43
PAVC,2022-01-01 10:39,23.0,17.6,79.47,300.0,45.0,0.0,30.0,,1.25,58.0,BKN,OVC,,,1100.0,1500.0,,,-SN,,,,59.0,280.0,2022-01-01 10:20,1.25
DVT,2022-01-01 10:40,51.1,50.0,96.0,260.0,11.0,0.03,29.75,,10.0,,FEW,SCT,OVC,,1000.0,2600.0,4400.0,,,,,,26.0,260.0,2022-01-01 10:19,51.1
VTA,2022-01-01 10:41,55.9,52.0,86.71,200.0,3.0,0.01,29.69,,6.0,,SCT,BKN,OVC,,2700.0,3700.0,6500.0,,-RA BR,,,,,,,55.9
EVV,2022-01-01 10:42,57.9,57.0,96.81,0.0,0.0,0.1,29.69,,4.0,,SCT,BKN,OVC,,1100.0,5000.0,8000.0,,RA BR,,,,,,,57.9
MLC,2022-01-01 10:43,57.9,57.0,96.81,120.0,4.0,0.2,29.65,,2.5,,BKN,BKN,OVC,,4900.0,6000.0,7500.0,,+RA BR,,,,,,,57.9
MCI,2022-01-01 10:44,19.9,17.1,88.68,20.0,21.0,0.03,29.76,,1.25,28.0,OVC,,,,1000.0,,,,-SN BR,0.0001,,,28.0,10.0,2022-01-01 10:42,2.71
LUF,2022-01-01 10:45,53.6,42.8,66.7,260.0,14.0,0.0,29.76,1007.4,10.0,,FEW,SCT,BKN,OVC,2900.0,3800.0,4500.0,8000.0,,,,,,,,53.6
TOP,2022-01-01 10:46,19.0,15.1,84.49,350.0,12.0,0.04,29.82,,2.0,21.0,OVC,,,,1400.0,,,,-SN BR,0.01,,,27.0,20.0,2022-01-01 10:25,5.46
GXF,2022-01-01 10:47,55.4,50.0,81.99,250.0,17.0,0.0,29.8,1008.7,9.0,24.0,SCT,BKN,BKN,OVC,2500.0,3000.0,3700.0,9000.0,,,,,,,,55.4
SLN,2022-01-01 10:48,12.2,10.4,92.32,360.0,23.0,0.0001,29.83,,1.75,28.0,BKN,OVC,,,1500.0,2000.0,,,-SN BR,,,,30.0,360.0,2022-01-01 10:34,-8.3
BKW,2022-01-01 10:49,55.4,55.4,100.0,120.0,4.0,0.11,29.81,,1.5,,SCT,BKN,OVC,,800.0,1400.0,7500.0,,RA BR,,,,,,,55.4
CDS,2022-01-01 10:50,53.6,48.2,81.87,250.0,16.0,0.07,29.65,,4.0,28.0,FEW,BKN,OVC,,1600.0,2800.0,11000.0,,RA,,,,28.0,310.0,2022-01-01 10:42,53.6
CRP,2022-01-01 10:51,73.9,71.1,90.97,170.0,21.0,0.0,29.6,1002.2,10.0,28.0,FEW,BKN,,,1400.0,1800.0,,,,,,,28.0,160.0,2022-01-01 10:43,73.9
MHK,2022-01-01 10:52,14.0,9.0,80.1,30.0,13.0,0.02,29.83,1011.5,1.5,29.0,BKN,OVC,,,1100.0,2100.0,,,-SN,,,,29.0,20.0,2022-01-01 10:47,-1.49
BNA,2022-01-01 10:53,73.0,61.0,66.04,220.0,9.0,0.0,29.75,1006.8,10.0,20.0,SCT,BKN,BKN,OVC,2600.0,3300.0,5500.0,14000.0,,,,,29.0,200.0,2022-01-01 10:08,73.0
MKC,2022-01-01 10:54,24.1,21.0,87.76,10.0,13.0,0.0001,29.79,1009.4,2.5,,BKN,OVC,,,1100.0,2200.0,,,-SN BR,0.01,,,26.0,10.0,2022-01-01 10:36,11.45
CNK,2022-01-01 10:55,10.0,0.0,63.26,30.0,16.0,0.0,29.87,1013.8,10.0,34.0,BKN,OVC,,,2300.0,5000.0,,,,,,,34.0,30.0,2022-01-01 10:47,-8.26
GBD,2022-01-01 10:56,10.0,6.1,83.87,360.0,20.0,0.0001,29.8,1011.6,2.5,23.0,FEW,OVC,,,1000.0,1500.0,,,-SN BR,,,,30.0,10.0,2022-01-01 10:08,-10.08
FLG,2022-01-01 10:57,23.0,19.9,87.7,,6.0,0.01,29.63,1002.6,3.0,16.0,FEW,BKN,OVC,,1600.0,3400.0,7500.0,,-SN BR,,,,,,,14.69
GXF,2022-01-01 10:58,54.3,50.0,85.35,250.0,14.0,0.01,29.8,1008.7,10.0,,FEW,SCT,SCT,BKN,2300.0,3000.0,5500.0,7000.0,,,,,27.0,240.0,2022-01-01 10:29,54.3
RODE,2022-01-01 10:59,61.0,51.1,69.86,100.0,5.0,0.0,30.28,1029.7,10.0,,BKN,BKN,OVC,,4000.0,5000.0,6500.0,,,,,,,,,61.0
VOTR,2022-01-01 11:00,73.4,71.6,94.1,90.0,6.0,0.0,29.94,,1.24,,FEW,SCT,FEW,OVC,1000.0,1500.0,2500.0,8000.0,RA,,,,,,,73.4
DWU,2022-01-01 11:01,55.4,55.4,100.0,0.0,0.0,0.0001,29.75,,1.0,,FEW,BKN,OVC,,700.0,3900.0,5500.0,,-RA BR,,,,,,,55.4
BLF,2022-01-01 11:02,57.9,55.9,93.04,250.0,5.0,0.0,29.84,,3.0,,SCT,BKN,OVC,,2400.0,2900.0,3400.0,,RA BR,,,,,,,57.9
HNB,2022-01-01 11:03,57.2,57.2,100.0,130.0,3.0,0.01,29.69,,3.0,,FEW,BKN,OVC,,600.0,1400.0,7000.0,,-RA BR,,,,,,,57.2
MAI,2022-01-01 11:04,72.0,69.1,90.59,200.0,8.0,0.0,29.97,,10.0,,FEW,SCT,BKN,,1300.0,2200.0,3000.0,,,,,,,,,72.0
DDC,2022-01-01 11:05,9.0,6.1,87.71,10.0,22.0,0.0001,29.72,,2.0,30.0,BKN,OVC,,,900.0,1400.0,,,-SN BR,,,,30.0,10.0,2022-01-01 11:05,-12.22
FFO,2022-01-01 11:06,57.2,55.4,93.69,220.0,6.0,0.0,29.69,1005.6,10.0,,SCT,BKN,BKN,,1300.0,2000.0,2700.0,,-RA,,,,,,,57.2
CYQX,2022-01-01 11:07,19.4,17.6,92.57,240.0,6.0,0.0,30.07,1019.6,15.0,,FEW,FEW,BKN,,100.0,2000.0,25000.0,,,,,,,,,10.36
GBD,2022-01-01 11:08,8.6,5.0,84.93,10.0,19.0,0.0001,29.81,,3.0,29.0,FEW,OVC,,,1000.0,1500.0,,,-SN BR,,,,29.0,10.0,2022-01-01 11:05,-11.51
PAFM,2022-01-01 11:09,-5.8,-14.8,64.11,20.0,20.0,0.0001,30.13,,3.0,31.0,FEW,,,,200.0,,,,-SN,,,,31.0,20.0,2022-01-01 11:04,-31.07
P08,2022-01-01 11:10,51.8,50.0,93.55,210.0,15.0,0.0,29.76,,10.0,22.0,FEW,SCT,BKN,,2000.0,4000.0,10000.0,,,,,,,,,51.8
HOP,2022-01-01 11:11,60.8,59.0,93.79,280.0,5.0,0.0,29.73,1006.7,8.0,,FEW,FEW,BKN,OVC,200.0,1200.0,2000.0,2900.0,RA,,,,,,,60.8
MNN,2022-01-01 11:12,51.1,50.0,96.0,0.0,0.0,0.0001,29.69,,2.5,,BKN,BKN,OVC,,1700.0,6500.0,12000.0,,BR,,,,,,,51.1
SDL,2022-01-01 11:13,51.1,48.0,89.09,260.0,13.0,0.01,29.76,,10.0,20.0,SCT,BKN,OVC,,1400.0,5500.0,10000.0,,,,,,26.0,260.0,2022-01-01 11:03,51.1
RJSN,2022-01-01 11:14,35.6,28.4,74.8,260.0,16.0,0.0,30.27,,4.97,27.0,FEW,SCT,BKN,,800.0,1500.0,2000.0,,-SHSN,,,,,,,25.11
HUT,2022-01-01 11:15,15.1,10.9,83.11,10.0,17.0,0.0001,29.78,,1.75,28.0,BKN,OVC,,,1000.0,1400.0,,,-SN BR,,,,28.0,10.0,2022-01-01 11:11,-2.06
FFO,2022-01-01 11:16,57.2,55.4,93.69,210.0,9.0,0.0,29.7,1006.0,10.0,,FEW,SCT,SCT,,1300.0,2100.0,2800.0,,-DZ,,,,,,,57.2
GUY,2022-01-01 11:17,12.9,9.0,84.07,10.0,17.0,0.0001,29.72,,2.0,27.0,BKN,BKN,OVC,,1500.0,2200.0,2700.0,,-SN BR,,,,28.0,10.0,2022-01-01 10:56,-4.95
LVS,2022-01-01 11:18,32.0,30.0,92.22,210.0,14.0,0.0001,29.5,,5.0,24.0,SCT,SCT,BKN,,500.0,1000.0,1800.0,,-SN BR,,,,26.0,210.0,2022-01-01 11:03,21.16
AFJ,2022-01-01 11:19,53.6,53.6,100.0,0.0,0.0,0.05,29.76,,1.75,,FEW,BKN,OVC,,800.0,4700.0,6000.0,,-RA BR,,,,,,,53.6
CQC,2022-01-01 11:20,30.0,30.0,100.0,240.0,24.0,0.0,29.56,,10.0,37.0,SCT,OVC,,,600.0,4200.0,,,,,,,37.0,230.0,2022-01-01 11:03,15.36
SLN,2022-01-01 11:21,12.9,9.0,84.07,20.0,19.0,0.0001,29.86,,2.5,25.0,SCT,OVC,,,1400.0,2300.0,,,-SN BR,,,,28.0,10.0,2022-01-01 10:55,-5.82
CAO,2022-01-01 11:22,10.9,7.0,83.93,10.0,18.0,0.0,29.62,,6.0,26.0,SCT,OVC,,,1800.0,3700.0,,,BR,,,,26.0,360.0,2022-01-01 11:14,-8.03
AAO,2022-01-01 11:23,21.9,19.0,88.4,20.0,17.0,0.0001,29.7,,3.0,27.0,BKN,OVC,,,500.0,1000.0,,,-FZRA BR,0.03,,,27.0,20.0,2022-01-01 11:15,6.84
LTS,2022-01-01 11:24,53.6,51.8,93.6,320.0,31.0,0.0,29.6,1001.9,10.0,38.0,FEW,SCT,OVC,,800.0,8000.0,11000.0,,SQ,,,,,,,53.6
CYPR,2022-01-01 11:25,37.4,33.8,86.69,150.0,23.0,0.0,29.41,996.1,9.0,39.0,FEW,BKN,OVC,,1800.0,3000.0,4000.0,,-RA,,,,,,,25.57
HOP,2022-01-01 11:26,59.0,59.0,100.0,320.0,5.0,0.0,29.72,1006.4,10.0,,FEW,SCT,BKN,OVC,400.0,2200.0,3000.0,3500.0,-DZ,,,,,,,59.0
PAVC,2022-01-01 11:27,23.0,17.6,79.47,300.0,37.0,0.0001,30.06,,1.0,52.0,BKN,OVC,,,1200.0,1700.0,,,-SN,,,,60.0,330.0,2022-01-01 11:08,2.75
LVS,2022-01-01 11:28,32.0,30.0,92.22,210.0,15.0,0.0001,29.5,,1.75,,BKN,BKN,,,500.0,1000.0,,,-SN BR,,,,26.0,210.0,2022-01-01 11:03,20.78
PAVC,2022-01-01 11:29,21.2,17.6,85.74,300.0,39.0,0.0001,30.06,,1.25,53.0,FEW,OVC,,,800.0,1400.0,,,-SN BR,,,,60.0,330.0,2022-01-01 11:08,-0.18
LTS,2022-01-01 11:30,46.4,42.8,87.19,350.0,24.0,0.0,29.6,1002.1,10.0,38.0,FEW,SCT,BKN,OVC,800.0,1200.0,8000.0,11000.0,SQ,,,,,,,37.49
RJSN,2022-01-01 11:31,35.6,28.4,74.8,280.0,11.0,0.0,30.3,,2.17,,FEW,SCT,BKN,,500.0,800.0,1500.0,,-SHSN,,,,,,,27.02
PHJR,2022-01-01 11:32,72.0,69.1,90.59,180.0,7.0,0.28,29.85,,1.75,,SCT,BKN,OVC,,1800.0,2700.0,3700.0,,+RA BR,,,,,,,72.0
SLN,2022-01-01 11:33,12.9,9.0,84.07,10.0,18.0,0.0001,29.86,,1.5,24.0,FEW,OVC,,,1400.0,2100.0,,,-SN BR,,,,28.0,10.0,2022-01-01 10:55,-5.39
PHNL,2022-01-01 11:34,73.9,70.0,87.63,180.0,6.0,1.09,29.82,,7.0,,FEW,OVC,,,1000.0,1700.0,,,RA,,,,28.0,200.0,2022-01-01 11:07,73.9
GBD,2022-01-01 11:35,8.6,5.0,84.93,10.0,20.0,0.0001,29.79,,2.5,27.0,FEW,OVC,,,1000.0,1600.0,,,-SN BR,,,,30.0,20.0,2022-01-01 11:21,-11.94
PAVC,2022-01-01 11:36,23.0,17.6,79.47,310.0,37.0,0.0001,30.07,,2.0,53.0,FEW,OVC,,,800.0,1600.0,,,-SN,,,,60.0,330.0,2022-01-01 11:08,2.75
LTS,2022-01-01 11:37,41.0,37.4,86.89,320.0,23.0,0.0,29.67,1004.7,6.0,,FEW,BKN,BKN,OVC,800.0,1400.0,8000.0,10000.0,-RA,,,,,,,30.41
PASD,2022-01-01 11:38,21.2,17.6,85.74,340.0,38.0,0.0,29.96,,3.0,42.0,BKN,OVC,,,1900.0,2400.0,,,-SN,,,,42.0,330.0,2022-01-01 11:37,0.02
LTS,2022-01-01 11:39,41.0,37.4,86.89,320.0,27.0,0.0,29.66,1004.4,9.0,31.0,FEW,BKN,BKN,OVC,600.0,1400.0,8000.0,10000.0,-RA,,,,,,,29.61
GCK,2022-01-01 11:40,7.0,,,20.0,20.0,0.0001,29.74,,1.0,27.0,FEW,BKN,OVC,,700.0,1200.0,2100.0,,-SN,,,,34.0,10.0,2022-01-01 11:09,
GUY,2022-01-01 11:41,12.9,9.0,84.07,10.0,16.0,0.0001,29.76,,3.0,22.0,BKN,OVC,,,1100.0,3400.0,,,-SN BR,,,,28.0,10.0,2022-01-01 10:56,-4.48
BMG,2022-01-01 11:42,57.9,55.9,93.04,230.0,9.0,0.1,29.68,,2.5,,SCT,BKN,OVC,,600.0,1000.0,6000.0,,RA BR,,,,,,,57.9
FFZ,2022-01-01 11:43,52.0,46.9,82.68,270.0,14.0,0.0,29.77,,10.0,24.0,FEW,BKN,OVC,,1000.0,6000.0,8500.0,,,,,,26.0,230.0,2022-01-01 11:26,52.0
HFF,2022-01-01 11:44,68.0,68.0,100.0,230.0,6.0,0.0,29.86,1011.3,10.0,,SCT,BKN,BKN,OVC,1000.0,1600.0,2200.0,2700.0,,,,,,,,68.0
MRC,2022-01-01 11:45,71.6,69.8,94.06,220.0,11.0,0.0,29.75,,6.0,18.0,FEW,SCT,BKN,,2300.0,2800.0,3300.0,,BR,,,,,,,71.6
PHHI,2022-01-01 11:46,68.0,66.2,93.97,140.0,3.0,0.0,29.85,1010.0,2.75,,SCT,BKN,OVC,,400.0,900.0,4900.0,,-RA BR,,,,,,,68.0
HYS,2022-01-01 11:47,6.8,1.4,78.01,360.0,18.0,0.0001,29.85,,1.75,24.0,BKN,OVC,,,1100.0,1800.0,,,-SN,,,,27.0,10.0,2022-01-01 11:01,-13.42
FMN,2022-01-01 11:48,28.4,26.6,92.86,260.0,10.0,0.0001,29.5,,1.5,20.0,SCT,BKN,OVC,,700.0,1100.0,2100.0,,-SN BR,,,,,,,18.45
PAVC,2022-01-01 11:49,23.0,15.8,73.51,300.0,41.0,0.0001,30.08,,4.0,52.0,FEW,BKN,OVC,,800.0,1300.0,1900.0,,-SN,,,,60.0,330.0,2022-01-01 11:08,1.97
MHK,2022-01-01 11:50,12.2,6.8,78.51,30.0,16.0,0.01,29.88,,2.0,23.0,FEW,OVC,,,1300.0,2000.0,,,-SN,,,,26.0,20.0,2022-01-01 11:36,-5.39
PHX,2022-01-01 11:51,53.1,46.9,79.4,260.0,17.0,0.0001,29.76,1007.0,10.0,25.0,FEW,SCT,BKN,,2900.0,4000.0,5000.0,,-RA,,,,28.0,270.0,2022-01-01 11:05,53.1
DVN,2022-01-01 11:52,25.0,21.0,84.53,360.0,14.0,0.0001,29.86,1011.6,1.75,24.0,SCT,BKN,OVC,,1100.0,1900.0,2600.0,,-SN BR,0.0001,,0.0001,26.0,10.0,2022-01-01 11:37,12.14
CSM,2022-01-01 11:53,28.0,26.1,92.46,350.0,24.0,0.06,29.69,1005.4,4.0,30.0,FEW,BKN,OVC,,800.0,1200.0,4100.0,,-FZRA BR,0.05,,0.05,30.0,350.0,2022-01-01 11:50,12.66
FFZ,2022-01-01 11:54,52.0,48.0,86.17,270.0,11.0,0.0,29.78,1007.2,10.0,20.0,FEW,SCT,OVC,,800.0,3200.0,6000.0,,,,,,26.0,230.0,2022-01-01 11:26,52.0
BVN,2022-01-01 11:55,-2.6,-9.4,71.99,350.0,12.0,0.0,30.02,,10.0,21.0,SCT,BKN,OVC,,3000.0,4100.0,7500.0,,-SN,,,,,,,-22.03
LRF,2022-01-01 11:56,63.3,60.3,89.94,290.0,8.0,0.04,29.64,1003.8,8.0,21.0,FEW,BKN,OVC,,1300.0,2800.0,3600.0,,-TSRA,,,,35.0,270.0,2022-01-01 11:39,63.3
ROG,2022-01-01 11:57,55.0,54.0,96.42,210.0,5.0,0.15,29.66,1003.6,9.0,,FEW,BKN,OVC,,800.0,5500.0,7500.0,,RA,,,,,,,55.0
MEI,2022-01-01 11:58,73.9,66.9,78.77,180.0,14.0,0.0,29.84,1010.1,10.0,21.0,SCT,BKN,OVC,,1900.0,2400.0,4600.0,,,0.0001,,,,,,73.9
PAVC,2022-01-01 11:59,23.0,17.6,79.47,300.0,33.0,0.0001,30.09,,2.5,48.0,SCT,OVC,,,1400.0,2100.0,,,-SN,,,,41.0,310.0,2022-01-01 11:59,3.61
SJN,2022-01-01 12:00,30.9,28.0,88.84,290.0,22.0,0.0001,29.61,,4.0,32.0,SCT,BKN,OVC,,900.0,2900.0,10000.0,,-SN BR,,,,32.0,290.0,2022-01-01 11:56,17.11
DDC,2022-01-01 12:01,7.0,3.9,86.8,10.0,23.0,0.0001,29.76,,1.25,33.0,BKN,BKN,OVC,,1000.0,1600.0,2000.0,,-SN BR,,,,33.0,10.0,2022-01-01 12:01,-15.29
PAVC,2022-01-01 12:02,23.0,17.6,79.47,300.0,34.0,0.0001,30.1,,1.25,53.0,FEW,BKN,OVC,,700.0,1700.0,2300.0,,-SN,,,,53.0,290.0,2022-01-01 12:00,3.39
GEZ,2022-01-01 12:03,60.1,57.0,89.48,250.0,8.0,0.05,29.67,,2.5,17.0,SCT,BKN,OVC,,400.0,900.0,1600.0,,+RA BR,,,,,,,60.1
BKW,2022-01-01 12:04,52.0,51.1,96.73,330.0,14.0,0.04,29.79,,1.0,,FEW,BKN,OVC,,300.0,1300.0,2100.0,,+RA BR,,,,,,,52.0
FRI,2022-01-01 12:05,12.2,6.8,78.51,30.0,15.0,0.0,29.86,1012.6,7.0,,BKN,BKN,OVC,,700.0,1300.0,1900.0,,,,,,,,,-4.89
JBR,2022-01-01 12:06,60.1,57.9,92.43,70.0,11.0,0.0001,29.61,,10.0,15.0,SCT,BKN,OVC,,600.0,1000.0,3300.0,,-RA,,,,,,,60.1
HBR,2022-01-01 12:07,30.0,28.0,92.15,10.0,19.0,0.02,29.7,,4.0,,BKN,BKN,OVC,,1300.0,1900.0,2800.0,,UP BR,0.0001,,,26.0,340.0,2022-01-01 11:56,16.79
RSL,2022-01-01 12:08,6.1,1.0,79.05,360.0,20.0,0.0001,29.84,,1.5,31.0,SCT,OVC,,,1200.0,2100.0,,,-SN,,,,31.0,350.0,2022-01-01 12:08,-15.26
HBR,2022-01-01 12:09,30.0,28.0,92.15,10.0,18.0,0.02,29.69,,4.0,,FEW,BKN,OVC,,800.0,1300.0,3300.0,,-FZRA BR,0.01,,,26.0,340.0,2022-01-01 11:56,17.12
LWD,2022-01-01 12:10,10.0,3.9,75.83,20.0,14.0,0.0001,29.89,,6.0,25.0,SCT,BKN,OVC,,1700.0,4700.0,6000.0,,-SN,,,,,,,-7.2
FNB,2022-01-01 12:11,10.0,1.0,66.29,10.0,19.0,0.0001,29.91,,4.0,29.0,SCT,SCT,OVC,,2700.0,3400.0,4500.0,,-SN,,,,29.0,10.0,2022-01-01 12:11,-9.66
PHHI,2022-01-01 12:12,66.2,64.4,93.92,150.0,4.0,0.0,29.85,1010.2,10.0,,FEW,SCT,SCT,SCT,2000.0,2700.0,4100.0,5000.0,-DZ,,,,,,,66.2
EKQ,2022-01-01 12:13,69.8,66.2,88.34,220.0,15.0,0.0,29.77,,10.0,24.0,SCT,BKN,OVC,,2600.0,3200.0,4900.0,,,,,,27.0,210.0,2022-01-01 11:58,69.8
HFF,2022-01-01 12:14,69.8,68.0,94.01,240.0,8.0,0.0,29.86,1011.2,10.0,,FEW,SCT,BKN,OVC,1100.0,1500.0,2100.0,3600.0,,,,,,,,69.8
PAVC,2022-01-01 12:15,21.2,17.6,85.74,300.0,35.0,0.0001,30.1,,4.0,53.0,FEW,SCT,OVC,,900.0,1500.0,2100.0,,-SN,,,,53.0,320.0,2022-01-01 12:14,0.66
HUT,2022-01-01 12:16,12.9,9.0,84.07,360.0,16.0,0.0001,29.76,,1.75,28.0,OVC,,,,1300.0,,,,-SN BR,,,,28.0,20.0,2022-01-01 12:13,-4.48
SJN,2022-01-01 12:17,30.9,28.0,88.84,290.0,21.0,0.0001,29.62,,5.0,27.0,BKN,BKN,OVC,,900.0,2500.0,3800.0,,-SN BR,,,,32.0,290.0,2022-01-01 11:56,17.39
DDC,2022-01-01 12:18,7.0,3.0,83.27,10.0,24.0,0.0001,29.75,,0.75,32.0,BKN,BKN,OVC,,800.0,1500.0,2000.0,,-SN BR,,,,33.0,10.0,2022-01-01 12:01,-15.67
HBR,2022-01-01 12:19,30.0,28.0,92.15,40.0,16.0,0.02,29.68,,5.0,25.0,FEW,BKN,OVC,,800.0,3300.0,8500.0,,-FZRA BR,0.01,,,26.0,340.0,2022-01-01 11:56,17.81
LVS,2022-01-01 12:20,32.0,30.0,92.22,230.0,13.0,0.0001,29.5,,1.75,27.0,FEW,BKN,OVC,,700.0,1300.0,2500.0,,-SN BR,,,,27.0,240.0,2022-01-01 12:11,21.57
MCI,2022-01-01 12:21,16.0,12.0,83.91,10.0,18.0,0.02,29.8,,1.0,26.0,VV ,,,,800.0,,,,-SNPL BR,,,,26.0,10.0,2022-01-01 12:21,-1.31
M19,2022-01-01 12:22,57.2,57.2,100.0,340.0,23.0,0.08,29.67,,2.5,34.0,FEW,BKN,OVC,,800.0,1300.0,2100.0,,TS BR,,,,34.0,360.0,2022-01-01 12:17,57.2
LVS,2022-01-01 12:23,32.0,30.0,92.22,220.0,14.0,0.0001,29.5,,3.0,23.0,FEW,BKN,OVC,,700.0,1300.0,2000.0,,-SN BR,,,,27.0,240.0,2022-01-01 12:11,21.16
CYAM,2022-01-01 12:24,15.8,12.2,85.4,350.0,9.0,0.0,29.92,1014.7,2.25,15.0,SCT,BKN,OVC,,900.0,2600.0,17000.0,,-SN DRSN,,,,,,,3.37
M19,2022-01-01 12:25,57.2,57.2,100.0,350.0,17.0,0.27,29.65,,1.0,34.0,FEW,BKN,OVC,,800.0,1300.0,2100.0,,TS BR,,,,34.0,360.0,2022-01-01 12:17,57.2
TOP,2022-01-01 12:26,15.1,10.9,83.11,360.0,15.0,0.0001,29.82,,1.75,25.0,SCT,OVC,,,1100.0,2400.0,,,-SN BR,,,,30.0,360.0,2022-01-01 12:11,-1.13
AAO,2022-01-01 12:27,19.9,17.1,88.68,10.0,17.0,0.0001,29.73,,2.5,29.0,OVC,,,,600.0,,,,-FZRA BR,0.02,,,29.0,10.0,2022-01-01 12:21,4.22
CZBF,2022-01-01 12:28,30.2,26.6,86.28,200.0,3.0,0.0,29.95,1014.9,9.0,,BKN,BKN,OVC,,1000.0,3300.0,9600.0,,-SN,,,,,,,26.63
UNO,2022-01-01 12:29,57.0,55.0,93.01,140.0,4.0,0.02,29.65,,3.0,,BKN,BKN,OVC,,500.0,8500.0,10000.0,,-RA BR,,,,,,,57.0
M19,2022-01-01 12:30,57.2,57.2,100.0,350.0,15.0,0.42,29.66,,0.75,,FEW,BKN,OVC,,800.0,1500.0,2100.0,,TS BR,,,,34.0,360.0,2022-01-01 12:17,57.2
CQC,2022-01-01 12:31,30.0,28.9,95.61,220.0,24.0,0.0,29.58,,10.0,36.0,BKN,OVC,,,800.0,4300.0,,,,,,,36.0,210.0,2022-01-01 12:25,15.36
PHHI,2022-01-01 12:32,68.0,64.4,88.26,0.0,0.0,0.0,29.84,1009.7,9.0,,SCT,BKN,BKN,,1700.0,2600.0,5000.0,,-RA,,,,,,,68.0
M19,2022-01-01 12:33,57.2,57.2,100.0,350.0,15.0,0.51,29.66,,0.5,,FEW,BKN,OVC,,800.0,1500.0,2300.0,,FG,,,,34.0,360.0,2022-01-01 12:17,57.2
LVS,2022-01-01 12:34,32.0,28.9,88.17,220.0,20.0,0.0001,29.5,,9.0,28.0,FEW,SCT,BKN,,800.0,1500.0,2500.0,,,,,,28.0,230.0,2022-01-01 12:33,19.14
HBR,2022-01-01 12:35,30.9,28.0,88.84,40.0,15.0,0.03,29.69,,7.0,23.0,SCT,BKN,OVC,,800.0,4300.0,7000.0,,,0.01,,,26.0,340.0,2022-01-01 11:56,19.35
OFP,2022-01-01 12:36,57.9,57.0,96.81,160.0,3.0,0.02,29.86,,1.75,,FEW,BKN,OVC,,1600.0,8000.0,10000.0,,-RA BR,,,,,,,57.9
M19,2022-01-01 12:37,57.2,57.2,100.0,350.0,11.0,0.54,29.67,,1.0,,FEW,BKN,OVC,,700.0,2100.0,5500.0,,BR,,,,34.0,360.0,2022-01-01 12:17,57.2
SJN,2022-01-01 12:38,30.0,27.0,88.44,300.0,21.0,0.0001,29.63,,2.5,32.0,SCT,BKN,OVC,,900.0,2500.0,3900.0,,-SN BR,,,,32.0,290.0,2022-01-01 11:56,16.19
BKW,2022-01-01 12:39,55.0,54.0,96.42,310.0,14.0,0.21,29.81,,2.0,18.0,FEW,BKN,OVC,,200.0,1400.0,2100.0,,+RA BR,,,,26.0,170.0,2022-01-01 12:16,55.0
CSM,2022-01-01 12:40,27.0,25.0,92.05,,,0.05,29.65,,6.0,,SCT,BKN,OVC,,700.0,4800.0,10000.0,,UP BR,0.17,,,27.0,350.0,2022-01-01 11:54,
HOP,2022-01-01 12:41,59.0,59.0,100.0,120.0,3.0,0.0,29.68,1005.0,9.0,,FEW,SCT,SCT,BKN,3000.0,3500.0,4300.0,8500.0,RA,,,,,,,59.0
BKW,2022-01-01 12:42,54.0,53.1,96.76,,4.0,0.27,29.79,,1.25,18.0,FEW,BKN,OVC,,200.0,1700.0,2500.0,,+RA BR,,,,26.0,170.0,2022-01-01 12:16,54.0
HBR,2022-01-01 12:43,30.0,28.0,92.15,40.0,14.0,0.04,29.71,,6.0,,FEW,SCT,OVC,,800.0,4000.0,7500.0,,-FZRA BR,0.02,,,26.0,340.0,2022-01-01 11:56,18.58
MCI,2022-01-01 12:44,16.0,12.0,83.91,10.0,20.0,0.03,29.76,,1.0,27.0,SCT,BKN,OVC,,1600.0,2800.0,3400.0,,-SN BR,,,,28.0,10.0,2022-01-01 12:29,-2.11
M19,2022-01-01 12:45,57.2,57.2,100.0,10.0,11.0,0.56,29.66,,4.0,,FEW,BKN,OVC,,800.0,2100.0,4800.0,,BR,,,,34.0,360.0,2022-01-01 12:17,57.2
LBL,2022-01-01 12:46,10.4,6.8,85.05,360.0,18.0,0.0001,29.82,,0.75,21.0,BKN,BKN,OVC,,700.0,1100.0,2000.0,,-SN BR,,,,,,,-8.69
WLD,2022-01-01 12:47,26.1,24.1,92.01,10.0,13.0,0.0,29.72,,3.0,27.0,BKN,OVC,,,700.0,1100.0,,,BR,0.02,,,27.0,30.0,2022-01-01 12:41,14.01
LOZ,2022-01-01 12:48,64.4,60.8,88.09,0.0,0.0,0.0,29.74,,10.0,,SCT,BKN,OVC,,2300.0,2900.0,3500.0,,VCTS,,,,,,,64.4
GBD,2022-01-01 12:49,8.6,3.2,78.18,350.0,17.0,0.0001,29.85,,1.0,25.0,BKN,OVC,,,800.0,1100.0,,,-SN BR,,,,26.0,10.0,2022-01-01 12:01,-10.58
GUP,2022-01-01 12:50,30.2,28.4,92.92,260.0,11.0,0.02,29.57,,2.5,23.0,FEW,BKN,OVC,,600.0,1600.0,7500.0,,-SN BR,,,,37.0,260.0,2022-01-01 12:18,20.19
VCT,2022-01-01 12:51,75.0,68.0,78.86,180.0,18.0,0.0,29.65,1003.7,9.0,24.0,BKN,BKN,OVC,,1900.0,2400.0,2800.0,,,,,,26.0,170.0,2022-01-01 12:32,75.0
MHK,2022-01-01 12:52,12.0,6.1,76.73,30.0,13.0,0.01,29.85,1012.3,2.5,23.0,BKN,OVC,,,1400.0,2100.0,,,-SN,,,,27.0,20.0,2022-01-01 12:02,-4.05
LAW,2022-01-01 12:53,37.0,35.1,92.76,360.0,22.0,0.02,29.67,1004.9,4.0,30.0,SCT,BKN,OVC,,600.0,1000.0,1900.0,,-RA BR,,,,30.0,350.0,2022-01-01 12:42,25.27
MEM,2022-01-01 12:54,72.0,64.9,78.35,190.0,17.0,0.0,29.67,1004.3,10.0,29.0,FEW,FEW,BKN,,2100.0,6500.0,25000.0,,,,,,29.0,190.0,2022-01-01 12:45,72.0
CNK,2022-01-01 12:55,8.1,-0.9,66.04,20.0,20.0,0.01,29.89,1014.6,9.0,28.0,BKN,OVC,,,2500.0,4300.0,,,-SN,,,,30.0,40.0,2022-01-01 12:03,-12.6
EKQ,2022-01-01 12:56,69.1,64.9,86.48,220.0,13.0,0.0,29.76,1006.7,10.0,21.0,BKN,BKN,OVC,,3000.0,5500.0,8000.0,,,,,,29.0,210.0,2022-01-01 12:42,69.1
HOP,2022-01-01 12:57,59.0,59.0,100.0,130.0,8.0,0.0,29.67,1004.7,10.0,,FEW,SCT,SCT,SCT,2700.0,3300.0,4200.0,5500.0,,,,,,,,59.0
FHU,2022-01-01 12:58,42.8,37.0,79.8,230.0,14.0,0.0001,29.82,1008.0,7.0,,SCT,BKN,BKN,OVC,600.0,2300.0,3000.0,3900.0,-RA,,,,29.0,240.0,2022-01-01 12:35,35.08
OSU,2022-01-01 12:59,57.0,55.0,93.01,190.0,4.0,0.0001,29.68,,6.0,,SCT,BKN,OVC,,700.0,1700.0,8000.0,,-RA BR,,,,,,,57.0
SULS,2022-01-01 13:00,75.2,64.4,69.14,270.0,19.0,0.0,29.74,,6.21,30.0,FEW,FEW,SCT,OVC,2600.0,4000.0,7000.0,20000.0,TS,,,,,,,75.2
MHK,2022-01-01 13:01,12.0,6.1,76.73,30.0,19.0,0.01,29.85,,1.0,26.0,BKN,OVC,,,1400.0,2100.0,,,-SN,,,,26.0,30.0,2022-01-01 12:56,-7.01
HFF,2022-01-01 13:02,69.8,68.0,94.01,240.0,9.0,0.0,29.88,1011.9,10.0,,SCT,BKN,OVC,,1800.0,2500.0,4200.0,,,,,,,,,69.8
2DP,2022-01-01 13:03,68.0,68.0,100.0,220.0,7.0,0.0,29.92,,10.0,,SCT,BKN,BKN,OVC,600.0,1100.0,4900.0,9000.0,-RA,,,,,,,68.0
PHHI,2022-01-01 13:04,68.0,64.4,88.26,160.0,4.0,0.0,29.84,1009.7,10.0,,FEW,FEW,SCT,BKN,600.0,900.0,1600.0,2100.0,,,,,,,,68.0
GUY,2022-01-01 13:05,12.0,8.1,84.01,360.0,19.0,0.0001,29.79,,3.0,23.0,FEW,BKN,OVC,,900.0,1300.0,4900.0,,-SN BR,,,,,,,-7.01
PHHI,2022-01-01 13:06,68.0,64.4,88.26,160.0,4.0,0.0,29.84,1009.7,10.0,,FEW,SCT,BKN,BKN,600.0,1200.0,1700.0,2300.0,-DZ,,,,,,,68.0
LAW,2022-01-01 13:07,37.0,33.1,85.64,350.0,18.0,0.0001,29.7,,9.0,28.0,FEW,BKN,OVC,,600.0,1900.0,2300.0,,,,,,28.0,360.0,2022-01-01 13:02,26.33
SUMU,2022-01-01 13:08,69.8,66.2,88.34,360.0,5.0,0.0,29.74,,6.21,,FEW,FEW,BKN,OVC,2000.0,4000.0,10000.0,20000.0,-TSRA,,,,,,,69.8
CYOY,2022-01-01 13:09,30.2,30.2,100.0,70.0,3.0,0.0,29.78,1009.4,1.75,,OVC,OVC,OVC,OVC,200.0,3300.0,4800.0,5900.0,,,,,,,,26.63
IXD,2022-01-01 13:10,19.0,15.1,84.49,360.0,17.0,0.0001,29.8,,1.75,26.0,OVC,,,,900.0,,,,-SN BR,0.0001,,,26.0,360.0,2022-01-01 13:05,3.04
YBBN,2022-01-01 13:11,69.8,68.0,94.01,200.0,6.0,0.0,29.8,,5.59,,FEW,SCT,BKN,,1000.0,1900.0,3000.0,,-SHRA,,,,,,,69.8
LBL,2022-01-01 13:12,8.6,5.0,84.93,10.0,18.0,0.0001,29.82,,2.0,,FEW,SCT,OVC,,400.0,700.0,1700.0,,-SN BR,,,,,,,-11.05
LOZ,2022-01-01 13:13,62.1,59.0,89.57,320.0,5.0,0.0,29.77,,10.0,26.0,FEW,BKN,OVC,,1600.0,2500.0,8500.0,,,,,,26.0,180.0,2022-01-01 12:59,62.1
CAK,2022-01-01 13:14,53.1,50.0,89.18,170.0,3.0,0.0001,29.69,,0.5,,SCT,BKN,OVC,,400.0,1000.0,7000.0,,FG,,,,,,,53.1
HQG,2022-01-01 13:15,9.3,4.3,79.7,10.0,16.0,0.0,29.82,,7.0,23.0,SCT,BKN,BKN,,400.0,800.0,5500.0,,-SN,,,,,,,-9.17
SPS,2022-01-01 13:16,55.9,54.0,93.32,300.0,15.0,0.0,29.66,,10.0,23.0,SCT,BKN,OVC,,1200.0,2600.0,10000.0,,,,,,32.0,300.0,2022-01-01 13:01,55.9
CYZH,2022-01-01 13:17,-20.2,-27.4,68.31,110.0,9.0,0.0,29.74,1014.6,3.0,,BKN,BKN,BKN,,300.0,15000.0,21000.0,,HZ,,,,,,,-41.39
OKC,2022-01-01 13:18,30.0,27.0,88.44,330.0,22.0,0.0001,29.73,,3.0,33.0,OVC,,,,800.0,,,,FZRA BR,0.01,,,41.0,300.0,2022-01-01 13:08,15.9
CYKF,2022-01-01 13:19,37.4,37.4,100.0,20.0,5.0,0.0,29.71,1007.2,3.0,,FEW,BKN,OVC,,400.0,900.0,1600.0,,BR,,,,,,,32.81
PWA,2022-01-01 13:20,32.0,28.9,88.17,340.0,16.0,0.06,29.74,,2.0,25.0,BKN,OVC,,,800.0,1800.0,,,FZRA BR,0.04,,,33.0,320.0,2022-01-01 12:55,20.42
FSI,2022-01-01 13:21,33.8,33.8,100.0,10.0,18.0,0.0,29.68,1005.1,8.0,25.0,FEW,SCT,BKN,BKN,700.0,2000.0,2500.0,3100.0,-RA,,,,,,,22.12
LOZ,2022-01-01 13:22,63.0,59.0,86.77,0.0,0.0,0.0,29.76,,10.0,,SCT,BKN,OVC,,2000.0,3600.0,8500.0,,,,,,26.0,180.0,2022-01-01 12:59,63.0
PAVC,2022-01-01 13:23,23.0,15.8,73.51,320.0,30.0,0.0001,30.16,,1.5,44.0,FEW,SCT,OVC,,1000.0,1500.0,2500.0,,-SN,,,,44.0,280.0,2022-01-01 13:16,4.31
MCI,2022-01-01 13:24,16.0,12.0,83.91,10.0,16.0,0.01,29.83,,1.5,27.0,SCT,OVC,,,900.0,1400.0,,,-SN BR,,,,27.0,10.0,2022-01-01 13:15,-0.44
CNK,2022-01-01 13:25,7.0,0.0,72.41,10.0,19.0,0.0001,29.9,,1.5,36.0,SCT,OVC,,,2100.0,2700.0,,,-SN,,,,36.0,360.0,2022-01-01 13:17,-13.62
PAVC,2022-01-01 13:26,21.2,17.6,85.74,300.0,29.0,0.0001,30.16,,0.75,45.0,SCT,BKN,OVC,,1000.0,2300.0,2800.0,,-SN,,,,45.0,280.0,2022-01-01 13:25,2.09
HSI,2022-01-01 13:27,0.0,-6.0,75.15,10.0,15.0,0.0001,29.99,,0.75,26.0,VV ,,,,1200.0,,,,-SN,,,,31.0,10.0,2022-01-01 13:13,-20.7
MHK,2022-01-01 13:28,12.0,6.1,76.73,30.0,12.0,0.02,29.87,,2.0,25.0,BKN,OVC,,,1300.0,2600.0,,,-SN,,,,26.0,30.0,2022-01-01 12:56,-3.45
PWA,2022-01-01 13:29,32.0,28.0,84.98,360.0,13.0,0.07,29.72,,5.0,26.0,BKN,BKN,OVC,,800.0,3900.0,5500.0,,-FZRA BR,0.05,,,33.0,320.0,2022-01-01 12:55,21.57
VOTV,2022-01-01 13:30,86.0,75.2,70.27,50.0,6.0,0.0,29.88,,2.49,,FEW,SCT,FEW,BKN,1000.0,1200.0,2500.0,8000.0,HZ,,,,,,,95.19
OKC,2022-01-01 13:31,30.9,28.0,88.84,350.0,18.0,0.01,29.72,,7.0,30.0,SCT,BKN,OVC,,900.0,1900.0,10000.0,,-FZRA,0.02,,,41.0,300.0,2022-01-01 13:08,18.3
DYR,2022-01-01 13:32,71.6,68.0,88.43,190.0,15.0,0.0,29.61,,10.0,28.0,SCT,OVC,,,2000.0,6000.0,,,,,,,28.0,190.0,2022-01-01 13:30,71.6
SBGO,2022-01-01 13:33,71.6,69.8,94.06,310.0,7.0,0.0,29.94,,1.86,,SCT,BKN,BKN,FEW,600.0,1000.0,2000.0,3000.0,+SHRA,,,,,,,71.6
PAVC,2022-01-01 13:34,21.2,17.6,85.74,310.0,29.0,0.0001,30.16,,1.5,45.0,FEW,BKN,OVC,,1000.0,1900.0,2600.0,,-SN,,,,45.0,280.0,2022-01-01 13:25,2.09
STJ,2022-01-01 13:35,12.0,7.0,79.93,360.0,19.0,0.0001,29.91,,2.0,26.0,BKN,BKN,OVC,,1600.0,2400.0,3700.0,,-SN,,,,29.0,10.0,2022-01-01 13:10,-7.01
POB,2022-01-01 13:36,69.8,68.0,94.01,240.0,13.0,0.0,29.9,1012.7,10.0,17.0,SCT,SCT,BKN,,1400.0,2700.0,4600.0,,,,,,,,,69.8
GBD,2022-01-01 13:37,6.8,3.2,84.8,360.0,21.0,0.0001,29.84,,1.75,26.0,BKN,OVC,,,1000.0,1600.0,,,-SN BR,,,,26.0,360.0,2022-01-01 13:36,-14.76
PAVC,2022-01-01 13:38,21.2,15.8,79.31,310.0,32.0,0.0001,30.15,,3.0,44.0,FEW,SCT,OVC,,1000.0,1400.0,2600.0,,-SN,,,,45.0,280.0,2022-01-01 13:25,1.35
SJN,2022-01-01 13:39,28.9,26.1,89.12,290.0,17.0,0.01,29.68,,2.0,,FEW,OVC,,,900.0,1300.0,,,-SN BR,,,,26.0,310.0,2022-01-01 13:10,16.01
MHK,2022-01-01 13:40,10.9,5.0,76.62,20.0,13.0,0.02,29.87,,3.0,23.0,SCT,OVC,,,1400.0,2600.0,,,-SN,,,,26.0,30.0,2022-01-01 12:56,-5.46
FFO,2022-01-01 13:41,55.4,53.6,93.65,220.0,3.0,0.0,29.69,1005.6,5.0,,FEW,FEW,SCT,OVC,300.0,3300.0,4900.0,6000.0,-RA BR,,,,,,,55.4
CYPR,2022-01-01 13:42,39.2,33.8,80.79,150.0,27.0,0.0,29.25,990.7,9.0,44.0,FEW,BKN,OVC,,1600.0,2500.0,3400.0,,-RA,,,,,,,27.16
STJ,2022-01-01 13:43,10.9,7.0,83.93,10.0,21.0,0.0001,29.91,,1.25,28.0,BKN,OVC,,,1400.0,3700.0,,,-SN BR,,,,29.0,10.0,2022-01-01 13:10,-9.29
FHU,2022-01-01 13:44,42.8,35.6,75.5,240.0,17.0,0.0,29.85,1009.0,8.0,32.0,SCT,BKN,OVC,,2800.0,3700.0,5500.0,,-RA,,,,,,,34.22
SAAP,2022-01-01 13:45,86.0,64.4,48.58,230.0,25.0,0.0,29.62,,3.73,37.0,FEW,BKN,FEW,,2000.0,4500.0,4800.0,,TS,,,,,,,87.49
LOZ,2022-01-01 13:46,63.0,59.0,86.77,0.0,0.0,0.0,29.76,,10.0,,FEW,BKN,OVC,,1400.0,3300.0,8000.0,,,,,,26.0,180.0,2022-01-01 12:59,63.0
CYDL,2022-01-01 13:47,5.0,3.2,92.06,80.0,9.0,0.0,28.95,985.4,2.5,,BKN,BKN,OVC,,3200.0,12000.0,14000.0,,-SN,,,,,,,-10.06
ASG,2022-01-01 13:48,55.4,55.4,100.0,150.0,6.0,0.0,29.67,,4.0,,FEW,BKN,OVC,,4100.0,5500.0,7000.0,,RA BR,,,,,,,55.4
HYS,2022-01-01 13:49,3.2,-0.4,84.56,360.0,20.0,0.0001,29.92,,1.0,27.0,OVC,,,,900.0,,,,-SN BR,,,,28.0,360.0,2022-01-01 13:30,-19.11
HKA,2022-01-01 13:50,60.8,57.2,87.92,360.0,36.0,0.0001,29.62,,2.5,44.0,FEW,BKN,OVC,,1200.0,2400.0,5000.0,,VCTS +RA BR,,,,44.0,360.0,2022-01-01 13:50,60.8
POB,2022-01-01 13:51,71.6,68.0,88.43,240.0,11.0,0.0,29.91,1013.0,10.0,,SCT,BKN,BKN,BKN,1500.0,2300.0,3500.0,4600.0,,,,,,,,71.6
OKC,2022-01-01 13:52,30.9,28.0,88.84,360.0,12.0,0.01,29.7,1006.1,9.0,,SCT,BKN,OVC,,900.0,2100.0,7500.0,,-FZRA,0.02,,,41.0,300.0,2022-01-01 13:08,20.6
HKA,2022-01-01 13:53,60.1,55.9,85.99,360.0,30.0,0.0001,29.62,1002.8,1.5,44.0,FEW,BKN,OVC,,1200.0,2200.0,3000.0,,VCTS -RA BR,,,,44.0,360.0,2022-01-01 13:50,60.1
MEM,2022-01-01 13:54,73.0,66.0,78.7,200.0,19.0,0.0,29.66,1004.1,10.0,27.0,FEW,FEW,BKN,,1900.0,15000.0,25000.0,,,,,,27.0,200.0,2022-01-01 13:52,73.0
CYWA,2022-01-01 13:55,30.2,30.2,100.0,300.0,2.0,0.0,29.75,1008.3,2.5,,BKN,BKN,BKN,OVC,1300.0,3900.0,6000.0,7600.0,,,,,,,,30.2
ALK,2022-01-01 13:56,41.0,39.0,92.52,240.0,20.0,0.01,29.85,1007.1,10.0,28.0,FEW,BKN,OVC,,1800.0,2500.0,3000.0,,-RA,,,,34.0,240.0,2022-01-01 13:35,31.09
FLG,2022-01-01 13:57,19.0,15.1,84.49,270.0,8.0,0.0001,29.71,1006.4,10.0,,SCT,BKN,OVC,,2100.0,2600.0,4500.0,,-SN,,,,,,,8.1
FHU,2022-01-01 13:58,42.4,35.4,76.07,240.0,18.0,0.01,29.85,1009.0,8.0,27.0,SCT,OVC,,,2800.0,3600.0,,,-RA,,,,32.0,240.0,2022-01-01 13:39,33.44
EGE,2022-01-01 13:59,17.6,12.2,79.0,190.0,7.0,0.0001,29.65,,5.0,,FEW,SCT,OVC,,900.0,1300.0,3000.0,,-SN,,,,,,,7.23
EMP,2022-01-01 14:00,16.0,12.0,83.91,10.0,13.0,0.0001,29.77,,1.75,26.0,BKN,OVC,,,800.0,1200.0,,,-SN BR,0.0001,,,26.0,10.0,2022-01-01 13:55,1.07
CYOY,2022-01-01 14:01,32.0,30.2,92.97,30.0,3.0,0.0,29.76,1008.7,2.0,,SCT,OVC,OVC,OVC,200.0,700.0,4200.0,6200.0,,,,,,,,28.69
CYKF,2022-01-01 14:02,37.4,37.4,100.0,330.0,4.0,0.0,29.73,1007.9,3.0,,SCT,BKN,OVC,,600.0,1100.0,1400.0,,BR,,,,,,,33.73
QD3,2022-01-01 14:03,80.6,71.6,74.11,80.0,11.0,0.0,29.88,1010.3,6.21,,FEW,SCT,BKN,OVC,1600.0,2100.0,2900.0,3500.0,,,,,,,,84.57
SAAR,2022-01-01 14:04,68.0,64.4,88.26,220.0,29.0,0.0,29.83,,0.93,48.0,FEW,FEW,BKN,FEW,800.0,1200.0,3500.0,5000.0,+TSRA,,,,,,,68.0
HKA,2022-01-01 14:05,59.0,57.0,93.07,360.0,21.0,0.0,29.65,,1.25,33.0,FEW,BKN,OVC,,1400.0,2000.0,2600.0,,+RA BR,,,,35.0,360.0,2022-01-01 13:55,59.0
POB,2022-01-01 14:06,71.6,68.0,88.43,240.0,12.0,0.0,29.91,1013.0,10.0,,BKN,BKN,OVC,,1700.0,2600.0,3400.0,,,,,,,,,71.6
IXD,2022-01-01 14:07,17.1,12.0,80.01,10.0,17.0,0.0001,29.81,,1.0,27.0,BKN,OVC,,,800.0,1900.0,,,-SN,,,,27.0,10.0,2022-01-01 14:00,0.56
EMP,2022-01-01 14:08,16.0,12.0,83.91,10.0,14.0,0.0001,29.77,,1.25,23.0,OVC,,,,1000.0,,,,-SN BR,0.0001,,,26.0,10.0,2022-01-01 13:55,0.54
QD3,2022-01-01 14:09,80.6,71.6,74.11,70.0,11.0,0.0,29.88,1010.3,6.21,,FEW,SCT,BKN,BKN,1700.0,2200.0,3300.0,4100.0,,,,,,,,84.57
GCK,2022-01-01 14:10,5.0,,,350.0,20.0,0.0001,29.86,,1.5,27.0,FEW,BKN,OVC,,700.0,1100.0,7000.0,,-SN,,,,28.0,10.0,2022-01-01 13:57,
DAY,2022-01-01 14:11,57.0,53.1,86.77,260.0,5.0,0.03,29.7,,3.0,,SCT,BKN,OVC,,600.0,1700.0,4000.0,,-RA BR,,,,,,,57.0
YBCG,2022-01-01 14:12,68.0,66.2,93.97,210.0,6.0,0.0,29.8,,6.21,,SCT,SCT,OVC,,2200.0,5100.0,9800.0,,-SHRA,,,,,,,68.0
MXF,2022-01-01 14:13,71.6,68.0,88.43,180.0,6.0,0.0,29.91,1013.0,10.0,,SCT,BKN,BKN,BKN,2000.0,2700.0,3700.0,5000.0,-RA,,,,,,,71.6
CYAM,2022-01-01 14:14,12.2,5.0,72.33,360.0,9.0,0.0,29.99,1017.0,15.0,,FEW,SCT,SCT,BKN,1900.0,2600.0,16000.0,20000.0,VCSH,,,,,,,-1.11
GCK,2022-01-01 14:15,5.0,5.0,100.0,360.0,20.0,0.0001,29.87,,2.0,27.0,SCT,OVC,,,1300.0,7000.0,,,-SN BR,,,,28.0,10.0,2022-01-01 13:57,-16.72
CQC,2022-01-01 14:16,30.2,28.4,92.92,230.0,24.0,0.0,29.6,,2.0,38.0,BKN,BKN,OVC,,700.0,5000.0,10000.0,,-SN BR,,,,38.0,230.0,2022-01-01 14:14,15.63
FTK,2022-01-01 14:17,57.2,57.2,100.0,110.0,3.0,0.0,29.69,1005.4,9.0,,SCT,SCT,BKN,OVC,700.0,3100.0,4600.0,5500.0,-RA,,,,,,,57.2
GBD,2022-01-01 14:18,6.8,1.4,78.01,350.0,19.0,0.0001,29.92,,1.25,32.0,FEW,OVC,,,800.0,2000.0,,,-SN,,,,32.0,350.0,2022-01-01 14:10,-13.89
SWO,2022-01-01 14:19,33.1,30.0,88.23,30.0,11.0,0.01,29.68,,10.0,20.0,SCT,BKN,OVC,,800.0,5500.0,10000.0,,-FZRA,0.0001,,,,,,23.86
DMA,2022-01-01 14:20,48.2,42.8,81.47,260.0,8.0,0.0,29.83,1009.0,10.0,,FEW,BKN,OVC,,2500.0,3700.0,5000.0,,-DZ,,,,,,,44.07
FTK,2022-01-01 14:21,57.2,57.2,100.0,80.0,5.0,0.0,29.67,1004.7,7.0,,FEW,SCT,BKN,OVC,700.0,3400.0,4800.0,6000.0,-RA,,,,,,,57.2
CYDL,2022-01-01 14:22,5.0,1.4,84.68,70.0,9.0,0.0,28.92,984.5,6.0,,SCT,SCT,BKN,OVC,7100.0,8800.0,12000.0,14000.0,-SN,,,,,,,-10.06
WLD,2022-01-01 14:23,23.0,21.0,91.9,20.0,14.0,0.0001,29.74,,1.0,27.0,FEW,SCT,OVC,,700.0,1200.0,2200.0,,-SN BR,,,,27.0,40.0,2022-01-01 14:17,9.56
CYDQ,2022-01-01 14:24,-11.2,-16.6,76.21,70.0,5.0,0.0,29.47,1005.4,3.0,,SCT,SCT,BKN,,1500.0,2300.0,3200.0,,-SN,,,,,,,-24.91
AAO,2022-01-01 14:25,15.1,12.0,87.27,10.0,15.0,0.01,29.78,,1.25,26.0,BKN,OVC,,,700.0,2500.0,,,-SN BR,,,,26.0,360.0,2022-01-01 14:16,-1.13
DYR,2022-01-01 14:26,64.4,60.8,88.09,330.0,14.0,0.0,29.64,,10.0,24.0,FEW,BKN,OVC,,1200.0,2800.0,5000.0,,-RA,,,,29.0,210.0,2022-01-01 14:02,64.4
GCK,2022-01-01 14:27,5.0,5.0,100.0,360.0,21.0,0.0001,29.87,,4.0,28.0,FEW,OVC,,,900.0,7000.0,,,-SN BR,,,,28.0,10.0,2022-01-01 13:57,-17.16
HKA,2022-01-01 14:28,59.0,55.9,89.44,30.0,14.0,0.0,29.65,,7.0,22.0,SCT,BKN,OVC,,2900.0,3400.0,5000.0,,-RA,,,,35.0,360.0,2022-01-01 13:55,59.0
EMP,2022-01-01 14:29,16.0,10.9,79.92,360.0,11.0,0.01,29.8,,0.75,20.0,BKN,OVC,,,1000.0,1800.0,,,-SN,0.0001,,,26.0,10.0,2022-01-01 13:55,2.25
VOTV,2022-01-01 14:30,84.2,75.2,74.44,360.0,4.0,0.0,29.88,,2.49,,FEW,SCT,FEW,BKN,1000.0,1500.0,2500.0,8000.0,HZ,,,,,,,92.45
LSF,2022-01-01 14:31,71.6,68.0,88.43,160.0,6.0,0.0,29.94,1014.2,10.0,,FEW,BKN,BKN,OVC,1500.0,2000.0,8000.0,9500.0,,,,,,,,71.6
HFF,2022-01-01 14:32,71.6,68.0,88.43,250.0,12.0,0.0,29.9,1012.6,10.0,19.0,SCT,BKN,OVC,,1700.0,2200.0,3000.0,,,,,,,,,71.6
DMA,2022-01-01 14:33,48.2,42.8,81.47,320.0,17.0,0.0,29.85,1009.7,9.0,,FEW,BKN,BKN,OVC,1900.0,2400.0,3700.0,5500.0,-RA,,,,,,,41.3
CQC,2022-01-01 14:34,30.0,30.0,100.0,240.0,22.0,0.0001,29.61,,0.75,36.0,SCT,BKN,OVC,,700.0,3500.0,6000.0,,-SN BR,,,,38.0,230.0,2022-01-01 14:14,15.9
PAVC,2022-01-01 14:35,21.2,15.8,79.31,310.0,28.0,0.0001,30.17,,2.0,48.0,SCT,SCT,OVC,,1500.0,2100.0,2700.0,,-SN,,,,49.0,290.0,2022-01-01 14:23,2.35
DDC,2022-01-01 14:36,6.1,1.9,82.43,360.0,19.0,0.03,29.87,,1.5,27.0,BKN,OVC,,,800.0,5500.0,,,-SN BR,,,,27.0,20.0,2022-01-01 14:30,-14.81
SGR,2022-01-01 14:37,78.1,69.1,73.88,200.0,14.0,0.0,29.71,,10.0,22.0,FEW,BKN,OVC,,2100.0,3600.0,4500.0,,,,,,27.0,210.0,2022-01-01 14:23,78.1
TUS,2022-01-01 14:38,48.0,44.1,86.28,290.0,13.0,0.0001,29.89,,1.75,27.0,FEW,SCT,OVC,,1400.0,3900.0,5000.0,,+RA BR,,,,27.0,270.0,2022-01-01 14:32,42.07
GBD,2022-01-01 14:39,6.8,1.4,78.01,360.0,21.0,0.0001,29.94,,1.25,26.0,BKN,OVC,,,1500.0,2000.0,,,-SN BR,,,,32.0,350.0,2022-01-01 14:10,-14.76
HKA,2022-01-01 14:40,59.0,57.0,93.07,350.0,4.0,0.0,29.66,,5.0,,FEW,BKN,OVC,,700.0,3200.0,5000.0,,-RA BR,,,,35.0,360.0,2022-01-01 13:55,59.0
CYTE,2022-01-01 14:41,10.4,6.8,85.05,90.0,17.0,0.0,29.57,1002.1,2.25,,FEW,SCT,BKN,OVC,1600.0,2400.0,3000.0,3500.0,-SN,,,,,,,-8.22
WLD,2022-01-01 14:42,23.0,19.9,87.7,10.0,16.0,0.0001,29.78,,3.0,23.0,FEW,FEW,OVC,,800.0,1200.0,2000.0,,BR,,,,27.0,40.0,2022-01-01 14:17,8.69
CYIN,2022-01-01 14:43,-4.0,-7.6,84.04,120.0,7.0,0.0,29.75,1017.3,9.0,,SCT,BKN,BKN,,7100.0,12000.0,14000.0,,-SN,,,,,,,-19.1
PAVC,2022-01-01 14:44,21.2,14.0,73.32,300.0,29.0,0.0001,30.19,,6.0,44.0,SCT,BKN,OVC,,1400.0,1900.0,2500.0,,-SN,,,,49.0,290.0,2022-01-01 14:23,2.09
TUS,2022-01-01 14:45,46.9,44.1,89.92,290.0,12.0,0.09,29.9,,1.5,22.0,FEW,BKN,OVC,,1200.0,3800.0,5000.0,,+RA BR,,,,27.0,270.0,2022-01-01 14:32,40.97
EMP,2022-01-01 14:46,15.1,10.0,79.84,350.0,11.0,0.01,29.84,,0.75,24.0,SCT,OVC,,,1000.0,2000.0,,,-SN,0.0001,,,26.0,10.0,2022-01-01 13:55,1.11
DDC,2022-01-01 14:47,6.8,1.4,78.01,360.0,21.0,0.03,29.88,,2.0,28.0,SCT,OVC,,,1300.0,5500.0,,,-SN BR,,,,28.0,360.0,2022-01-01 14:42,-14.76
PAFR,2022-01-01 14:48,12.2,6.8,78.51,360.0,3.0,0.0,29.08,985.9,5.0,,BKN,BKN,BKN,OVC,700.0,1500.0,2400.0,3100.0,-SN,,,,,,,6.05
TUS,2022-01-01 14:49,46.4,44.6,93.4,280.0,13.0,0.11,29.91,,3.0,22.0,FEW,BKN,OVC,,1200.0,2400.0,3600.0,,-RA BR,,,,27.0,270.0,2022-01-01 14:32,40.02
CQC,2022-01-01 14:50,30.2,30.2,100.0,250.0,17.0,0.0001,29.61,,0.25,27.0,FEW,OVC,,,500.0,1700.0,,,SN FZFG,,,,38.0,230.0,2022-01-01 14:14,17.72
SAD,2022-01-01 14:51,39.9,39.0,96.55,290.0,14.0,0.16,29.8,1007.9,10.0,24.0,BKN,BKN,,,3000.0,6500.0,,,-RA,,,,37.0,280.0,2022-01-01 14:25,31.35
DDC,2022-01-01 14:52,5.0,1.0,83.12,360.0,21.0,0.03,29.88,1015.9,2.5,28.0,FEW,SCT,OVC,,1100.0,2200.0,5500.0,,-SN BR,,,,28.0,360.0,2022-01-01 14:50,-17.16
EMP,2022-01-01 14:53,15.1,10.9,83.11,350.0,13.0,0.01,29.86,1012.8,0.5,20.0,BKN,OVC,,,1000.0,2000.0,,,-SN FZFG,0.0001,0.04,,26.0,10.0,2022-01-01 13:55,-0.08
GCK,2022-01-01 14:54,5.0,5.0,100.0,360.0,23.0,0.0001,29.88,1016.2,9.0,31.0,FEW,SCT,OVC,,1100.0,2000.0,7000.0,,UP,,,,31.0,10.0,2022-01-01 14:50,-17.98
UGN,2022-01-01 14:55,30.0,27.0,88.44,360.0,11.0,0.0,29.89,1013.1,10.0,26.0,BKN,OVC,,,1000.0,1500.0,,,,,,,27.0,40.0,2022-01-01 14:26,19.94
ALK,2022-01-01 14:56,41.0,39.9,95.82,240.0,20.0,0.0001,29.89,1008.3,10.0,28.0,FEW,BKN,OVC,,2000.0,3000.0,3900.0,,-RA,,,,36.0,240.0,2022-01-01 14:03,31.09
AQV,2022-01-01 14:57,75.9,66.9,73.68,200.0,7.0,0.0,29.72,1006.2,9.0,17.0,BKN,BKN,,,2500.0,3400.0,,,,,,,,,,75.9
FHU,2022-01-01 14:58,42.8,35.6,75.5,230.0,20.0,0.0001,29.87,1009.7,7.0,29.0,FEW,BKN,,,2600.0,3400.0,,,-RA,,,,36.0,220.0,2022-01-01 14:20,33.48
DDC,2022-01-01 14:59,5.0,1.0,83.12,350.0,22.0,0.0001,29.89,,1.75,32.0,SCT,BKN,OVC,,1300.0,2100.0,5500.0,,UP BR,,,,32.0,350.0,2022-01-01 14:57,-17.58
CYYF,2022-01-01 15:00,8.6,1.4,71.92,150.0,12.0,0.0,30.27,1028.5,15.0,17.0,FEW,FEW,BKN,BKN,2500.0,4000.0,7500.0,17000.0,,,,,,,,-7.78
WWD,2022-01-01 15:01,55.4,55.4,100.0,0.0,0.0,0.0001,29.88,,3.0,,SCT,BKN,OVC,,400.0,7000.0,9000.0,,-RA BR,,,,,,,55.4
CYPR,2022-01-01 15:02,39.2,37.4,93.19,160.0,19.0,0.0,29.26,991.3,5.0,31.0,SCT,BKN,OVC,,1600.0,2200.0,2600.0,,-RA BR,,,,,,,28.96
PAVC,2022-01-01 15:03,21.2,17.6,85.74,300.0,28.0,0.0001,30.21,,0.75,42.0,FEW,BKN,OVC,,700.0,1100.0,1700.0,,-SN BR,,,,42.0,310.0,2022-01-01 14:57,2.35
CYKF,2022-01-01 15:04,37.4,35.6,93.14,350.0,9.0,0.0,29.74,1008.3,6.0,,SCT,BKN,OVC,,800.0,1300.0,1800.0,,BR,,,,,,,30.23
CYTE,2022-01-01 15:05,10.4,6.8,85.05,110.0,19.0,0.0,29.57,1002.2,5.0,,FEW,SCT,OVC,,1800.0,2700.0,3700.0,,BR,,,,,,,-9.13
DDC,2022-01-01 15:06,5.0,0.0,79.32,350.0,22.0,0.0001,29.89,,3.0,32.0,SCT,BKN,OVC,,1200.0,2600.0,5500.0,,UP,,,,32.0,350.0,2022-01-01 14:57,-17.58
PAVC,2022-01-01 15:07,21.2,17.6,85.74,290.0,34.0,0.0001,30.21,,1.25,43.0,FEW,BKN,OVC,,700.0,1100.0,1700.0,,-SN BR,,,,43.0,290.0,2022-01-01 15:07,0.89
PAFR,2022-01-01 15:08,12.2,6.8,78.51,0.0,0.0,0.0,29.08,985.9,8.0,,SCT,BKN,BKN,OVC,700.0,1400.0,2100.0,2600.0,-SN,,,,,,,12.2
SAAP,2022-01-01 15:09,71.6,69.8,94.06,170.0,35.0,0.0,29.74,,2.49,49.0,FEW,OVC,FEW,,900.0,4200.0,4800.0,,TSRA,,,,,,,71.6
PAVD,2022-01-01 15:10,28.4,10.4,46.32,40.0,15.0,0.0,28.97,,6.0,28.0,BKN,OVC,,,7500.0,9000.0,,,BLSN,,,,28.0,50.0,2022-01-01 15:06,16.11
AAO,2022-01-01 15:11,14.0,10.0,83.77,360.0,16.0,0.0001,29.81,,2.0,27.0,BKN,OVC,,,1200.0,2500.0,,,-SN BR,,,,27.0,10.0,2022-01-01 14:56,-3.04
CYPX,2022-01-01 15:12,-7.6,-13.0,76.59,270.0,8.0,0.0,29.5,999.7,5.0,,SCT,BKN,BKN,,1400.0,18000.0,20000.0,,-SN,,,,,,,-24.67
DDC,2022-01-01 15:13,5.0,0.0,79.32,360.0,24.0,0.0001,29.87,,3.0,31.0,FEW,BKN,OVC,,1200.0,3400.0,5500.0,,HZ,,,,32.0,350.0,2022-01-01 14:57,-18.37
PAVC,2022-01-01 15:14,21.2,15.8,79.31,300.0,25.0,0.0001,30.22,,3.0,44.0,FEW,BKN,OVC,,700.0,1600.0,2500.0,,-SN,,,,44.0,270.0,2022-01-01 15:09,3.19
TQK,2022-01-01 15:15,3.0,-2.4,77.65,350.0,19.0,0.0,29.95,,2.5,23.0,SCT,SCT,OVC,,800.0,2600.0,6500.0,,-SN,,,,,,,-18.91
CYWA,2022-01-01 15:16,32.0,30.2,92.97,300.0,5.0,0.0,29.79,1009.5,4.0,,SCT,BKN,OVC,OVC,600.0,1700.0,3400.0,5200.0,,,,,,,,26.4
CYTE,2022-01-01 15:17,10.4,8.6,92.25,110.0,16.0,0.0,29.58,1002.3,2.0,22.0,FEW,BKN,OVC,,1300.0,2700.0,3800.0,,-SN,,,,,,,-7.74
IAB,2022-01-01 15:18,15.8,10.4,78.84,360.0,8.0,0.0,29.84,1012.5,6.0,,BKN,BKN,OVC,,500.0,1300.0,1900.0,,-SN,,,,,,,4.16
DDC,2022-01-01 15:19,5.0,0.0,79.32,360.0,24.0,0.0001,29.87,,2.5,31.0,FEW,BKN,OVC,,1200.0,2000.0,6000.0,,HZ,,,,32.0,350.0,2022-01-01 14:57,-18.37
EGAA,2022-01-01 15:20,50.0,46.4,87.37,230.0,13.0,0.0,29.56,,6.21,,FEW,SCT,BKN,///,1900.0,3000.0,4700.0,,-RA,,,,,,,50.0
CKV,2022-01-01 15:21,73.9,64.0,71.21,200.0,17.0,0.0,29.62,,10.0,37.0,SCT,BKN,BKN,,2700.0,3300.0,4400.0,,,,,,37.0,180.0,2022-01-01 15:17,73.9
PAVC,2022-01-01 15:22,21.2,15.8,79.31,290.0,33.0,0.0001,30.22,,1.5,44.0,FEW,BKN,OVC,,700.0,1600.0,2900.0,,-SN,,,,44.0,310.0,2022-01-01 15:21,1.11
FEW,2022-01-01 15:23,3.2,-2.2,77.67,30.0,6.0,0.0,29.77,1018.2,1.88,,FEW,SCT,BKN,OVC,2400.0,9000.0,11000.0,13000.0,-SN,,,,,,,-9.16
FHU,2022-01-01 15:24,42.8,37.4,81.07,240.0,19.0,0.0,29.89,1010.4,7.0,31.0,BKN,BKN,,,2700.0,3600.0,,,-RA,,,,,,,33.72
SKX,2022-01-01 15:25,32.0,30.2,92.97,230.0,27.0,0.0001,29.5,,1.75,32.0,SCT,OVC,,,600.0,1100.0,,,-SN BR,,,,32.0,230.0,2022-01-01 15:24,17.34
DDC,2022-01-01 15:26,6.1,0.0,75.43,350.0,21.0,0.0001,29.9,,4.0,31.0,FEW,BKN,OVC,,1200.0,3500.0,7000.0,,UP,,,,32.0,350.0,2022-01-01 14:57,-15.69
LBL,2022-01-01 15:27,8.6,1.4,71.92,360.0,22.0,0.0001,29.9,,9.0,,FEW,SCT,BKN,,900.0,1400.0,6000.0,,,,,,27.0,360.0,2022-01-01 15:24,-12.76
PAFR,2022-01-01 15:28,12.2,6.8,78.51,10.0,6.0,0.0,29.08,985.9,8.0,,BKN,BKN,BKN,OVC,700.0,1400.0,2000.0,2600.0,-SN,,,,,,,1.68
CYZH,2022-01-01 15:29,-20.2,-25.6,75.24,100.0,12.0,0.0,29.7,1013.1,3.0,,FEW,BKN,BKN,OVC,300.0,6000.0,8300.0,10000.0,HZ,,,,,,,-44.43
MKO,2022-01-01 15:30,46.0,44.1,93.03,300.0,18.0,0.02,29.71,,2.0,25.0,SCT,BKN,OVC,,600.0,1400.0,3000.0,,RA BR,,,,30.0,310.0,2022-01-01 15:27,38.18
PAH,2022-01-01 15:31,57.9,55.9,93.04,310.0,3.0,0.14,29.68,,1.0,,BKN,BKN,OVC,,500.0,2400.0,5500.0,,+RA BR,,,,,,,57.9
PAVC,2022-01-01 15:32,21.2,15.8,79.31,310.0,20.0,0.0001,30.23,,3.0,45.0,FEW,BKN,OVC,,1200.0,1800.0,2900.0,,-SN,,,,45.0,300.0,2022-01-01 15:25,4.79
SAF,2022-01-01 15:33,34.0,28.9,81.37,240.0,22.0,0.01,29.58,,1.5,30.0,BKN,BKN,OVC,,2200.0,4300.0,5000.0,,-SN,,,,30.0,240.0,2022-01-01 15:33,21.26
LBL,2022-01-01 15:34,8.6,1.4,71.92,350.0,19.0,0.0001,29.91,,10.0,26.0,FEW,BKN,BKN,,900.0,1300.0,6000.0,,,,,,27.0,360.0,2022-01-01 15:24,-11.51
AXX,2022-01-01 15:35,28.4,21.4,74.71,200.0,18.0,0.0,29.51,,4.0,24.0,BKN,BKN,OVC,,2900.0,3500.0,4100.0,,HZ,,,,,,,15.01
SKX,2022-01-01 15:36,30.2,30.2,100.0,230.0,26.0,0.0001,29.51,,0.5,32.0,BKN,OVC,,,800.0,1400.0,,,-SN FZFG,,,,32.0,240.0,2022-01-01 15:34,15.13
MKO,2022-01-01 15:37,44.1,43.0,95.88,310.0,20.0,0.02,29.73,,3.0,26.0,BKN,BKN,OVC,,600.0,1400.0,2800.0,,-RA BR,,,,30.0,310.0,2022-01-01 15:27,35.21
CYZP,2022-01-01 15:38,42.8,39.2,86.99,250.0,16.0,0.0,29.3,992.3,6.0,22.0,FEW,SCT,BKN,OVC,4300.0,9900.0,12000.0,14000.0,-RA BR,,,,,,,34.5
SAF,2022-01-01 15:39,32.0,30.0,92.22,230.0,19.0,0.01,29.59,,0.75,34.0,FEW,BKN,OVC,,900.0,1500.0,4200.0,,-SN BR,,,,34.0,220.0,2022-01-01 15:34,19.44
PAVC,2022-01-01 15:40,21.2,15.8,79.31,300.0,22.0,0.0001,30.24,,1.75,45.0,FEW,BKN,OVC,,1100.0,1700.0,2400.0,,-SN,,,,45.0,290.0,2022-01-01 15:35,4.12
DDC,2022-01-01 15:41,5.0,-0.9,76.03,350.0,23.0,0.0001,29.9,,2.5,31.0,BKN,BKN,OVC,,1500.0,3300.0,7000.0,,HZ,,,,32.0,350.0,2022-01-01 14:57,-17.98
OXB,2022-01-01 15:42,54.0,54.0,100.0,0.0,0.0,0.01,29.84,,5.0,,BKN,BKN,OVC,,300.0,7500.0,9500.0,,-RA BR,,,,,,,54.0
GUY,2022-01-01 15:43,10.9,5.0,76.62,360.0,20.0,0.0001,29.86,,6.0,27.0,BKN,BKN,,,1300.0,1800.0,,,UP,,,,27.0,360.0,2022-01-01 15:35,-8.89
CSV,2022-01-01 15:44,69.1,61.0,75.4,210.0,8.0,0.0,29.83,,10.0,23.0,SCT,BKN,OVC,,2600.0,3600.0,7000.0,,,,,,,,,69.1
LBL,2022-01-01 15:45,8.6,1.4,71.92,360.0,21.0,0.0001,29.9,,4.0,28.0,FEW,BKN,OVC,,1000.0,1500.0,6000.0,,-SN,,,,28.0,10.0,2022-01-01 15:43,-12.36
PASD,2022-01-01 15:46,19.4,14.0,79.16,330.0,24.0,0.0,30.13,,1.75,31.0,FEW,BKN,OVC,,1200.0,2200.0,2700.0,,-SN,,,,37.0,340.0,2022-01-01 15:08,1.06
PAVC,2022-01-01 15:47,21.2,17.6,85.74,290.0,28.0,0.0001,30.25,,0.5,43.0,FEW,BKN,OVC,,300.0,1200.0,2400.0,,SN FZFG,,,,45.0,290.0,2022-01-01 15:35,2.35
PAFR,2022-01-01 15:48,12.2,5.0,72.33,0.0,0.0,0.0,29.09,986.2,8.0,,SCT,SCT,BKN,OVC,700.0,1300.0,2300.0,3300.0,-SN,,,,,,,12.2
LAW,2022-01-01 15:49,35.6,30.2,80.51,350.0,20.0,0.0,29.78,,10.0,27.0,BKN,OVC,,,1000.0,1700.0,,,,,,,27.0,350.0,2022-01-01 15:46,23.92
PRN,2022-01-01 15:50,75.9,66.0,71.41,190.0,11.0,0.0,29.93,,10.0,26.0,SCT,SCT,SCT,,1800.0,2700.0,4200.0,,,,,,26.0,200.0,2022-01-01 15:45,75.9
SAF,2022-01-01 15:51,32.0,30.2,92.97,240.0,20.0,0.01,29.58,,2.5,30.0,SCT,BKN,OVC,,900.0,1500.0,12000.0,,-SN BR,,,,34.0,220.0,2022-01-01 15:34,19.14
DDC,2022-01-01 15:52,5.0,0.0,79.32,10.0,22.0,0.0001,29.91,1016.7,2.5,32.0,BKN,BKN,OVC,,1300.0,3300.0,7000.0,,HZ,,,,32.0,350.0,2022-01-01 14:57,-17.58
TYS,2022-01-01 15:53,75.0,64.0,68.64,210.0,20.0,0.0,29.81,1008.6,10.0,29.0,FEW,SCT,BKN,BKN,3000.0,4500.0,8000.0,25000.0,,,,,32.0,220.0,2022-01-01 15:41,75.0
MEM,2022-01-01 15:54,75.9,66.0,71.41,210.0,21.0,0.0,29.68,1004.8,10.0,31.0,SCT,SCT,BKN,,2400.0,15000.0,25000.0,,,,,,32.0,210.0,2022-01-01 15:39,75.9
NBG,2022-01-01 15:55,81.0,73.0,76.7,180.0,17.0,0.0,29.89,1012.0,10.0,24.0,BKN,BKN,,,1600.0,8000.0,,,,,,,28.0,170.0,2022-01-01 15:44,85.81
GBD,2022-01-01 15:56,5.0,0.0,79.32,360.0,22.0,0.0001,29.96,1017.8,1.5,29.0,FEW,BKN,OVC,,900.0,1400.0,1900.0,,-SN,,,,29.0,10.0,2022-01-01 15:49,-17.58
PASD,2022-01-01 15:57,19.4,15.8,85.63,340.0,27.0,0.0,30.14,,2.5,33.0,BKN,OVC,,,1600.0,2400.0,,,-SN BLSN,,,,30.0,340.0,2022-01-01 15:57,0.17
PRN,2022-01-01 15:58,75.9,66.0,71.41,200.0,13.0,0.0,29.93,1008.2,10.0,25.0,FEW,FEW,SCT,,1800.0,2600.0,3900.0,,,,,,26.0,200.0,2022-01-01 15:45,75.9
HUT,2022-01-01 15:59,8.1,3.0,79.23,340.0,17.0,0.0001,29.92,,1.25,28.0,FEW,OVC,,,1300.0,2900.0,,,-SN,,,,28.0,330.0,2022-01-01 15:59,-11.24
PAVC,2022-01-01 16:00,21.2,19.4,92.63,300.0,31.0,0.0001,30.26,,1.0,42.0,SCT,BKN,OVC,,500.0,1200.0,3200.0,,-SN BR,,,,40.0,290.0,2022-01-01 16:00,1.59
AWM,2022-01-01 16:01,66.0,59.0,78.14,330.0,12.0,0.0,29.7,,10.0,35.0,SCT,BKN,OVC,,1800.0,2300.0,7000.0,,,,,,35.0,220.0,2022-01-01 15:56,66.0
GCK,2022-01-01 16:02,3.9,3.9,100.0,360.0,22.0,0.0,29.94,,10.0,,FEW,BKN,OVC,,1000.0,1300.0,7500.0,,,,,,28.0,360.0,2022-01-01 16:02,-19.05
NEW,2022-01-01 16:03,80.1,71.1,74.07,190.0,17.0,0.0,29.88,,10.0,35.0,FEW,BKN,,,2000.0,7000.0,,,,,,,35.0,180.0,2022-01-01 15:57,83.64
BLF,2022-01-01 16:04,64.0,55.9,74.93,240.0,17.0,0.0,29.82,,10.0,26.0,SCT,BKN,OVC,,2400.0,3400.0,4600.0,,,,,,32.0,230.0,2022-01-01 15:53,64.0
GUY,2022-01-01 16:05,10.9,1.9,66.41,20.0,20.0,0.0,29.88,,10.0,30.0,FEW,BKN,BKN,,1000.0,1500.0,6000.0,,,,,,30.0,20.0,2022-01-01 15:56,-8.89
OQT,2022-01-01 16:06,73.0,63.0,70.87,210.0,10.0,0.0,29.81,,10.0,26.0,BKN,BKN,,,2400.0,3400.0,,,,,,,26.0,220.0,2022-01-01 16:03,73.0
GBD,2022-01-01 16:07,5.0,-0.4,77.84,360.0,23.0,0.0001,29.98,,2.5,28.0,BKN,OVC,,,1400.0,1900.0,,,-SN,,,,28.0,360.0,2022-01-01 16:07,-17.98
FEW,2022-01-01 16:08,3.2,-2.2,77.67,360.0,6.0,0.0,29.8,1019.3,3.0,,FEW,BKN,BKN,BKN,3600.0,4300.0,5000.0,9000.0,-SN,,,,,,,-9.16
UNO,2022-01-01 16:09,57.0,55.0,93.01,140.0,4.0,0.07,29.69,,2.5,,SCT,BKN,OVC,,500.0,6000.0,7500.0,,+RA BR,,,,,,,57.0
AWM,2022-01-01 16:10,62.1,57.9,86.11,330.0,16.0,0.08,29.72,,2.5,23.0,FEW,BKN,OVC,,1400.0,2000.0,4000.0,,-RA BR,,,,35.0,220.0,2022-01-01 15:56,62.1
PAVC,2022-01-01 16:11,21.2,17.6,85.74,310.0,28.0,0.0001,30.27,,2.0,40.0,FEW,SCT,OVC,,500.0,1300.0,3100.0,,-SN BR,,,,,,,2.35
BLF,2022-01-01 16:12,64.0,55.9,74.93,250.0,14.0,0.0,29.81,,10.0,26.0,BKN,BKN,OVC,,2600.0,3600.0,4600.0,,,,,,32.0,230.0,2022-01-01 15:53,64.0
DDC,2022-01-01 16:13,5.0,0.0,79.32,360.0,18.0,0.0001,29.92,,1.75,29.0,SCT,OVC,,,1300.0,3300.0,,,-SN,,,,33.0,360.0,2022-01-01 15:53,-15.79
AWM,2022-01-01 16:14,61.0,57.9,89.52,340.0,12.0,0.2,29.72,,0.75,21.0,SCT,BKN,OVC,,1600.0,2300.0,2800.0,,+RA BR,,,,35.0,220.0,2022-01-01 15:56,61.0
LBL,2022-01-01 16:15,8.6,3.2,78.18,360.0,23.0,0.0001,29.91,,1.75,,FEW,BKN,OVC,,900.0,1500.0,6000.0,,-SN,,,,26.0,360.0,2022-01-01 16:14,-13.14
GBD,2022-01-01 16:16,5.0,-0.4,77.84,350.0,21.0,0.0001,29.99,,4.0,28.0,BKN,OVC,,,1400.0,4400.0,,,-SN,,,,28.0,360.0,2022-01-01 16:07,-17.16
CYTE,2022-01-01 16:17,10.4,6.8,85.05,100.0,15.0,0.0,29.57,1002.0,5.0,,FEW,OVC,,,2600.0,3400.0,,,-SN,,,,,,,-7.22
PASD,2022-01-01 16:18,19.4,14.0,79.16,330.0,29.0,0.0,30.16,,1.0,34.0,BKN,BKN,OVC,,800.0,1600.0,2500.0,,-SN BLSN,,,,34.0,330.0,2022-01-01 16:14,-0.38
OTM,2022-01-01 16:19,10.9,8.1,88.21,360.0,19.0,0.0001,29.92,,2.0,26.0,FEW,BKN,OVC,,2400.0,2900.0,4600.0,,-SN BR,,,,29.0,360.0,2022-01-01 15:54,-8.47
RAC,2022-01-01 16:20,28.0,25.0,88.33,10.0,15.0,0.0,29.91,,10.0,25.0,BKN,OVC,,,700.0,1100.0,,,,,,,27.0,20.0,2022-01-01 15:54,15.59
AQV,2022-01-01 16:21,78.1,66.9,68.49,190.0,9.0,0.0,29.74,,10.0,22.0,SCT,BKN,OVC,,2400.0,3000.0,4300.0,,,,,,27.0,190.0,2022-01-01 16:11,78.1
LBL,2022-01-01 16:22,8.6,3.2,78.18,350.0,17.0,0.0001,29.91,,3.0,24.0,FEW,OVC,,,900.0,1500.0,,,-SN,,,,26.0,360.0,2022-01-01 16:14,-10.58
PASD,2022-01-01 16:23,19.4,14.0,79.16,340.0,25.0,0.0,30.16,,1.0,34.0,BKN,BKN,OVC,,800.0,1600.0,2200.0,,-SN BLSN,,,,34.0,330.0,2022-01-01 16:14,0.75
PGSN,2022-01-01 16:24,77.0,75.0,93.56,40.0,16.0,0.15,29.92,,1.75,25.0,SCT,BKN,OVC,,1000.0,1900.0,3900.0,,+RA BR,,,,,,,77.0
DDC,2022-01-01 16:25,5.0,-0.9,76.03,10.0,24.0,0.0001,29.92,,3.0,31.0,FEW,OVC,,,1300.0,3300.0,,,HZ,,,,33.0,360.0,2022-01-01 15:53,-18.37
AVP,2022-01-01 16:26,54.0,48.9,82.82,190.0,10.0,0.01,29.75,,7.0,19.0,FEW,BKN,OVC,,1600.0,6500.0,8000.0,,-RA,,,,,,,54.0
AWM,2022-01-01 16:27,61.0,57.9,89.52,360.0,10.0,0.29,29.72,,2.5,20.0,FEW,BKN,OVC,,1800.0,2500.0,5000.0,,RA BR,,,,35.0,220.0,2022-01-01 15:56,61.0
ESF,2022-01-01 16:28,80.1,69.1,69.18,210.0,15.0,0.0,29.76,,10.0,26.0,BKN,BKN,OVC,,2500.0,3100.0,3800.0,,,,,,26.0,230.0,2022-01-01 16:28,83.01
MEM,2022-01-01 16:29,79.0,66.0,64.45,220.0,21.0,0.0,29.69,,10.0,31.0,SCT,BKN,BKN,,2600.0,3100.0,8000.0,,,,,,34.0,190.0,2022-01-01 16:06,79.0
MEI,2022-01-01 16:30,80.1,66.9,64.14,190.0,18.0,0.0001,29.84,,10.0,28.0,BKN,BKN,OVC,,2600.0,3000.0,3600.0,,,0.0001,,,28.0,190.0,2022-01-01 16:21,82.4
JKL,2022-01-01 16:31,59.0,57.0,93.07,0.0,0.0,0.02,29.71,,10.0,,FEW,SCT,BKN,,300.0,1700.0,2300.0,,-RA,,,,,,,59.0
RQE,2022-01-01 16:32,23.0,16.0,74.15,330.0,10.0,0.01,29.72,,3.0,,BKN,BKN,OVC,,2900.0,4600.0,5500.0,,-SN,,,,,,,11.68
PAVC,2022-01-01 16:33,21.2,17.6,85.74,300.0,25.0,0.0001,30.29,,3.0,42.0,FEW,BKN,OVC,,1500.0,2700.0,3400.0,,-SN,,,,46.0,280.0,2022-01-01 16:22,3.19
AWM,2022-01-01 16:34,61.0,59.0,93.12,350.0,8.0,0.31,29.72,,5.0,16.0,FEW,BKN,OVC,,900.0,2500.0,5000.0,,-RA BR,,,,35.0,220.0,2022-01-01 15:56,61.0
CQC,2022-01-01 16:35,28.4,28.4,100.0,260.0,27.0,0.11,29.63,,0.5,38.0,BKN,BKN,OVC,,500.0,1200.0,1800.0,,-SN FZFG,,,,38.0,250.0,2022-01-01 16:24,12.44
HLC,2022-01-01 16:36,3.9,-2.0,75.92,350.0,12.0,0.0001,30.06,,1.5,19.0,BKN,OVC,,,2100.0,3200.0,,,-SN,,,,26.0,360.0,2022-01-01 16:12,-13.76
SKX,2022-01-01 16:37,30.2,28.4,92.92,250.0,10.0,0.01,29.56,,1.0,28.0,SCT,BKN,OVC,,300.0,600.0,6000.0,,-SN BR,,,,28.0,240.0,2022-01-01 16:28,20.71
PAVC,2022-01-01 16:38,21.2,17.6,85.74,300.0,30.0,0.0001,30.28,,2.5,45.0,FEW,SCT,OVC,,1500.0,2500.0,3200.0,,-SN,,,,46.0,280.0,2022-01-01 16:22,1.84
SKX,2022-01-01 16:39,30.2,28.4,92.92,250.0,10.0,0.01,29.56,,2.0,,SCT,BKN,OVC,,300.0,600.0,6500.0,,-SN BR,,,,28.0,240.0,2022-01-01 16:28,20.71
MEM,2022-01-01 16:40,68.0,60.1,75.84,310.0,22.0,0.0001,29.72,,10.0,28.0,FEW,SCT,BKN,,1400.0,2600.0,3200.0,,-RA,,,,34.0,190.0,2022-01-01 16:06,68.0
PHHI,2022-01-01 16:41,68.0,66.2,93.97,210.0,5.0,0.0,29.85,1010.2,10.0,,FEW,SCT,BKN,OVC,400.0,1000.0,1600.0,2300.0,,,,,,,,68.0
PAVC,2022-01-01 16:42,21.2,17.6,85.74,300.0,25.0,0.0001,30.29,,1.75,45.0,FEW,BKN,OVC,,1700.0,2700.0,3400.0,,-SN,,,,46.0,280.0,2022-01-01 16:22,3.19
FEW,2022-01-01 16:43,3.2,-2.2,77.67,340.0,5.0,0.0,29.82,1020.0,1.75,,FEW,SCT,SCT,OVC,3600.0,4300.0,5500.0,9000.0,-SN,,,,,,,-7.81
PHHI,2022-01-01 16:44,68.0,66.2,93.97,0.0,0.0,0.0,29.85,1010.2,10.0,,SCT,BKN,BKN,OVC,800.0,1300.0,2500.0,3100.0,-RA,,,,,,,68.0
CYYG,2022-01-01 16:45,37.4,37.4,100.0,180.0,7.0,0.0,29.94,1014.2,0.75,,BKN,BKN,BKN,,200.0,2000.0,12000.0,,BR,,,,,,,31.36
PAVC,2022-01-01 16:46,21.2,17.6,85.74,290.0,24.0,0.0001,30.28,,2.0,43.0,FEW,SCT,OVC,,1600.0,2400.0,3100.0,,-SN,,,,46.0,280.0,2022-01-01 16:22,3.49
HOP,2022-01-01 16:47,62.6,62.6,100.0,320.0,16.0,0.0,29.61,1002.6,9.0,23.0,FEW,FEW,BKN,OVC,1100.0,1600.0,2400.0,3100.0,-DZ,,,,,,,62.6
OQT,2022-01-01 16:48,69.8,64.4,82.98,220.0,7.0,0.06,29.78,,3.0,18.0,FEW,SCT,BKN,,2500.0,3700.0,4900.0,,-RA,,,,26.0,220.0,2022-01-01 16:03,69.8
CQC,2022-01-01 16:49,28.4,28.4,100.0,260.0,26.0,0.11,29.64,,1.5,33.0,SCT,BKN,OVC,,500.0,4100.0,5500.0,,-SN BR,,,,38.0,250.0,2022-01-01 16:24,12.68
PAVC,2022-01-01 16:50,21.2,17.6,85.74,290.0,26.0,0.0001,30.28,,1.75,38.0,FEW,BKN,OVC,,1100.0,2900.0,3400.0,,-SN,,,,46.0,280.0,2022-01-01 16:22,2.9
CSG,2022-01-01 16:51,77.0,64.9,66.27,220.0,13.0,0.0,29.93,1013.1,10.0,25.0,SCT,BKN,OVC,,2700.0,3100.0,4900.0,,,,,,27.0,220.0,2022-01-01 16:34,77.0
CKV,2022-01-01 16:52,71.1,60.1,68.21,310.0,18.0,0.0,29.61,1002.1,9.0,32.0,FEW,BKN,OVC,,2200.0,3800.0,4600.0,,,,,,42.0,220.0,2022-01-01 16:00,71.1
BNA,2022-01-01 16:53,73.9,62.1,66.61,210.0,15.0,0.01,29.67,1004.0,8.0,35.0,BKN,BKN,BKN,BKN,3000.0,4600.0,9000.0,25000.0,-RA,,,,35.0,200.0,2022-01-01 16:47,73.9
MEM,2022-01-01 16:54,62.1,59.0,89.57,320.0,10.0,0.08,29.72,1006.2,1.5,18.0,FEW,BKN,OVC,,1400.0,2200.0,5000.0,,+RA BR,,,,34.0,190.0,2022-01-01 16:06,62.1
CNK,2022-01-01 16:55,3.9,-2.0,75.92,360.0,20.0,0.03,30.01,1018.9,0.5,28.0,VV ,,,,1100.0,,,,SN,,,,33.0,10.0,2022-01-01 16:38,-18.18
HOP,2022-01-01 16:56,59.9,59.5,98.58,350.0,17.0,0.29,29.59,1002.0,1.88,21.0,FEW,BKN,BKN,OVC,200.0,1700.0,2400.0,2900.0,+RA BR,,,,38.0,230.0,2022-01-01 16:11,59.9
AQV,2022-01-01 16:57,79.0,66.0,64.45,210.0,10.0,0.0,29.74,1006.9,10.0,23.0,FEW,BKN,BKN,,3000.0,4800.0,6000.0,,,,,,27.0,190.0,2022-01-01 16:11,79.0
FHU,2022-01-01 16:58,44.6,38.1,77.78,250.0,21.0,0.0001,29.95,1012.1,10.0,30.0,FEW,BKN,BKN,,2000.0,3300.0,4400.0,,,,,,33.0,240.0,2022-01-01 16:39,35.66
OXB,2022-01-01 16:59,55.9,55.0,96.78,150.0,8.0,0.0001,29.78,,0.75,,FEW,BKN,OVC,,200.0,5500.0,9500.0,,-RA BR,,,,,,,55.9
CYYF,2022-01-01 17:00,12.2,3.2,66.58,160.0,15.0,0.0,30.27,1028.3,15.0,23.0,FEW,SCT,BKN,BKN,2500.0,4000.0,6000.0,8000.0,-SN DRSN,,,,,,,-4.89
PAVC,2022-01-01 17:01,21.2,17.6,85.74,300.0,26.0,0.0001,30.29,,2.0,43.0,SCT,SCT,OVC,,1500.0,2400.0,3200.0,,-SN,,,,43.0,300.0,2022-01-01 16:59,2.9
0J4,2022-01-01 17:02,81.0,66.0,60.37,200.0,18.0,0.0,29.96,,10.0,29.0,FEW,BKN,BKN,,2200.0,2800.0,3200.0,,,,,,27.0,210.0,2022-01-01 17:01,83.11
FEW,2022-01-01 17:03,5.0,-2.2,71.5,350.0,4.0,0.0,29.83,1019.8,2.25,,FEW,BKN,BKN,OVC,1700.0,2400.0,7500.0,9000.0,-SN,,,,,,,-4.11
OXB,2022-01-01 17:04,54.0,54.0,100.0,160.0,8.0,0.0001,29.77,,0.5,,FEW,BKN,OVC,,200.0,900.0,9500.0,,-RA FG,,,,,,,54.0
HLC,2022-01-01 17:05,3.9,-2.0,75.92,360.0,21.0,0.0001,30.05,,1.25,27.0,BKN,OVC,,,2200.0,2900.0,,,-SN,,,,27.0,350.0,2022-01-01 17:04,-18.62
CYGV,2022-01-01 17:06,32.0,30.2,92.97,190.0,7.0,0.0,29.83,1010.7,7.0,,FEW,BKN,OVC,,1000.0,1400.0,2100.0,,-SN,,,,,,,24.78
0J4,2022-01-01 17:07,80.1,66.0,62.17,190.0,18.0,0.0,29.96,,10.0,27.0,FEW,SCT,BKN,,2000.0,2600.0,3200.0,,,,,,27.0,210.0,2022-01-01 17:01,82.17
CQC,2022-01-01 17:08,28.4,28.4,100.0,260.0,24.0,0.0001,29.63,,0.5,37.0,SCT,BKN,OVC,,400.0,2700.0,5500.0,,-SN FZFG,,,,37.0,260.0,2022-01-01 16:59,13.2
CEW,2022-01-01 17:09,81.0,69.1,67.18,190.0,15.0,0.0,29.96,,10.0,27.0,BKN,BKN,BKN,,2000.0,2700.0,3200.0,,,,,,27.0,200.0,2022-01-01 17:03,84.16
PAVC,2022-01-01 17:10,21.2,15.8,79.31,300.0,31.0,0.0001,30.29,,6.0,45.0,FEW,SCT,OVC,,1100.0,2300.0,3300.0,,-SN,,,,45.0,300.0,2022-01-01 17:10,1.59
EMP,2022-01-01 17:11,12.9,7.0,76.82,350.0,17.0,0.0001,29.89,,2.0,30.0,BKN,BKN,OVC,,1500.0,2300.0,2900.0,,-SN,,,,30.0,20.0,2022-01-01 17:09,-4.95
CYDQ,2022-01-01 17:12,-9.4,-13.0,83.64,100.0,3.0,0.0,29.4,1002.6,4.0,,SCT,SCT,BKN,BKN,1400.0,2300.0,2900.0,3500.0,-SN,,,,,,,-18.64
ALK,2022-01-01 17:13,45.0,42.1,89.49,260.0,22.0,0.0001,29.96,,10.0,36.0,FEW,SCT,BKN,,2000.0,2900.0,3700.0,,,,,,36.0,250.0,2022-01-01 17:08,35.99
HOT,2022-01-01 17:14,57.9,57.0,96.81,350.0,5.0,0.08,29.68,,1.75,,SCT,BKN,OVC,,500.0,2300.0,3000.0,,RA BR,,,,,,,57.9
CYNE,2022-01-01 17:15,-16.6,-22.0,75.63,270.0,6.0,0.0,30.03,1020.4,9.0,,SCT,BKN,BKN,BKN,3500.0,4300.0,7600.0,8800.0,-SN,,,,,,,-33.0
DMN,2022-01-01 17:16,39.0,34.0,82.08,300.0,23.0,0.0001,29.84,,4.0,34.0,FEW,BKN,OVC,,2700.0,4100.0,7500.0,,-RA,,,,47.0,240.0,2022-01-01 16:54,27.72
MEI,2022-01-01 17:17,80.1,66.9,64.14,200.0,14.0,0.0,29.83,,10.0,26.0,FEW,BKN,BKN,,2800.0,3500.0,4500.0,,,0.0001,,,31.0,180.0,2022-01-01 17:04,82.4
FEW,2022-01-01 17:18,5.0,-2.2,71.5,10.0,4.0,0.0,29.83,1020.4,4.0,,FEW,BKN,BKN,OVC,1700.0,3200.0,4200.0,4900.0,-SN,,,,,,,-4.11
PADQ,2022-01-01 17:19,15.8,-0.4,48.08,290.0,25.0,0.0,29.19,,10.0,35.0,SCT,BKN,,,2800.0,6000.0,,,,,,,38.0,290.0,2022-01-01 17:04,-4.12
MNE,2022-01-01 17:20,75.2,69.8,83.32,180.0,7.0,0.0,29.69,,10.0,16.0,BKN,BKN,OVC,,2700.0,3200.0,4600.0,,-RA,,,,,,,75.2
MKL,2022-01-01 17:21,61.0,57.0,86.67,320.0,21.0,0.0001,29.71,,1.5,34.0,SCT,BKN,OVC,,1400.0,2400.0,3500.0,,RA BR,,,,34.0,310.0,2022-01-01 17:17,61.0
HYS,2022-01-01 17:22,3.2,-2.2,77.67,350.0,20.0,0.0001,30.02,,1.5,25.0,SCT,BKN,OVC,,1700.0,2200.0,4900.0,,-SN,,,,26.0,360.0,2022-01-01 17:20,-19.11
CYAY,2022-01-01 17:23,28.4,28.4,100.0,260.0,4.0,0.0,30.01,1016.6,9.0,,FEW,SCT,SCT,OVC,1000.0,1400.0,1900.0,3200.0,,,,,,,,23.22
HOU,2022-01-01 17:24,82.0,69.1,65.03,200.0,14.0,0.0,29.72,,10.0,26.0,BKN,BKN,BKN,,2700.0,3900.0,5500.0,,,,,,32.0,200.0,2022-01-01 17:01,85.39
ALK,2022-01-01 17:25,44.1,42.1,92.62,270.0,23.0,0.0001,29.97,,10.0,35.0,SCT,BKN,OVC,,2100.0,2900.0,4900.0,,-RA,,,,36.0,250.0,2022-01-01 17:08,34.58
WSAP,2022-01-01 17:26,73.4,73.4,100.0,360.0,6.0,0.0,29.88,,4.35,,FEW,FEW,BKN,,1400.0,1600.0,15000.0,,RA,,,,,,,73.4
CYCQ,2022-01-01 17:27,17.6,12.2,79.0,230.0,11.0,0.0,29.34,998.2,15.0,,FEW,SCT,BKN,OVC,2500.0,4000.0,15000.0,19000.0,,,,,,,,4.27
MTJ,2022-01-01 17:28,19.0,12.0,73.73,310.0,16.0,0.0001,29.82,,2.5,24.0,SCT,BKN,OVC,,2600.0,3600.0,5000.0,,-SN,,,,28.0,300.0,2022-01-01 17:11,3.47
EWK,2022-01-01 17:29,8.6,3.2,78.18,360.0,23.0,0.0001,29.9,,4.0,31.0,FEW,OVC,,,1500.0,2500.0,,,-SN BR,,,,31.0,360.0,2022-01-01 17:29,-13.14
CYPR,2022-01-01 17:30,41.0,39.2,93.24,230.0,16.0,0.0,29.28,991.9,7.0,29.0,FEW,BKN,OVC,,1200.0,2000.0,3300.0,,-RA,,,,,,,32.15
PAPM,2022-01-01 17:31,3.2,-0.4,84.56,340.0,27.0,0.0001,30.28,,0.75,32.0,FEW,SCT,OVC,,900.0,1500.0,2000.0,,-SN BR,,,,36.0,330.0,2022-01-01 17:07,-21.91
CKV,2022-01-01 17:32,59.0,55.9,89.44,320.0,12.0,0.5,29.64,,1.75,21.0,SCT,BKN,OVC,,700.0,1600.0,2400.0,,+RA BR,,,,27.0,300.0,2022-01-01 17:12,59.0
CYZH,2022-01-01 17:33,-18.4,-25.6,68.55,100.0,10.0,0.0,29.65,1011.5,2.5,17.0,SCT,BKN,OVC,,3200.0,4000.0,5000.0,,-SN,,,,,,,-40.23
CLT,2022-01-01 17:34,77.0,64.9,66.27,210.0,15.0,0.0,29.86,,10.0,26.0,FEW,BKN,BKN,BKN,2700.0,3200.0,4300.0,25000.0,,,,,26.0,240.0,2022-01-01 17:10,77.0
MTJ,2022-01-01 17:35,19.9,12.0,70.95,310.0,14.0,0.0001,29.82,,2.0,24.0,BKN,BKN,OVC,,2400.0,2900.0,3600.0,,-SN,,,,28.0,300.0,2022-01-01 17:11,5.57
IXD,2022-01-01 17:36,12.9,8.1,80.74,350.0,20.0,0.0001,29.86,,2.0,30.0,FEW,BKN,OVC,,1200.0,2100.0,2900.0,,-SN,,,,31.0,360.0,2022-01-01 17:24,-6.23
MKL,2022-01-01 17:37,59.0,57.9,96.13,330.0,14.0,0.0,29.71,,2.0,23.0,FEW,BKN,OVC,,900.0,2300.0,5000.0,,+RA BR,,,,34.0,310.0,2022-01-01 17:17,59.0
QD3,2022-01-01 17:38,78.8,71.6,78.62,80.0,11.0,0.0,29.94,1012.3,6.21,,FEW,SCT,BKN,OVC,1500.0,1900.0,2400.0,4300.0,DZ,,,,,,,78.8
CYOY,2022-01-01 17:39,33.8,33.8,100.0,0.0,0.0,0.0,29.69,1006.2,3.0,,OVC,OVC,OVC,OVC,200.0,1700.0,3100.0,6500.0,-RA,,,,,,,33.8
GRD,2022-01-01 17:40,75.0,64.0,68.64,230.0,16.0,0.0,29.9,,10.0,23.0,BKN,BKN,OVC,,2800.0,3500.0,4400.0,,,,,,26.0,190.0,2022-01-01 17:22,75.0
PAPM,2022-01-01 17:41,3.2,-0.4,84.56,340.0,29.0,0.0001,30.29,,0.5,36.0,FEW,BKN,OVC,,900.0,1500.0,2000.0,,SN FZFG,,,,36.0,340.0,2022-01-01 17:37,-22.59
CKV,2022-01-01 17:42,60.1,55.9,85.99,320.0,13.0,0.54,29.65,,3.0,,SCT,BKN,OVC,,700.0,3000.0,5000.0,,RA BR,,,,27.0,300.0,2022-01-01 17:12,60.1
GAD,2022-01-01 17:43,77.0,66.2,69.33,200.0,14.0,0.0,29.83,,10.0,21.0,SCT,BKN,OVC,,3100.0,3800.0,4900.0,,,,,,27.0,190.0,2022-01-01 16:58,77.0
DWU,2022-01-01 17:44,55.4,55.4,100.0,90.0,4.0,0.02,29.65,,1.5,,BKN,BKN,OVC,,800.0,1900.0,4300.0,,-RA BR,,,,,,,55.4
PALH,2022-01-01 17:45,10.9,0.0,60.77,340.0,25.0,0.0,29.17,,1.5,36.0,BKN,OVC,,,4100.0,6000.0,,,BLSN,,,,39.0,340.0,2022-01-01 17:27,-10.75
HLC,2022-01-01 17:46,5.0,-0.9,76.03,360.0,18.0,0.0001,30.06,,2.0,28.0,BKN,OVC,,,1800.0,2700.0,,,-SN,,,,30.0,10.0,2022-01-01 17:09,-15.79
CYZS,2022-01-01 17:47,-2.2,-5.8,84.17,90.0,18.0,0.0,29.52,1000.5,3.0,,FEW,BKN,BKN,,2500.0,5100.0,11000.0,,-SN DRSN,,,,,,,-25.27
MCB,2022-01-01 17:48,82.4,71.6,69.9,190.0,16.0,0.0,29.8,,10.0,22.0,FEW,BKN,BKN,,2500.0,3300.0,4400.0,,,,,,27.0,180.0,2022-01-01 16:54,87.18
RSL,2022-01-01 17:49,3.2,-2.2,77.67,350.0,22.0,0.0001,30.01,,2.0,,FEW,BKN,OVC,,1400.0,3800.0,5000.0,,-SN,,,,31.0,10.0,2022-01-01 17:31,-19.99
PAPM,2022-01-01 17:50,3.2,-0.4,84.56,350.0,30.0,0.0001,30.29,,1.0,35.0,SCT,BKN,,,900.0,1700.0,,,-SN BR,,,,36.0,340.0,2022-01-01 17:37,-22.92
CSG,2022-01-01 17:51,79.0,64.9,62.03,230.0,18.0,0.0,29.9,1012.0,10.0,28.0,FEW,SCT,BKN,,3300.0,4300.0,5500.0,,,,,,30.0,240.0,2022-01-01 16:56,79.0
CLT,2022-01-01 17:52,75.9,64.0,66.6,220.0,12.0,0.0,29.85,1010.0,10.0,24.0,FEW,BKN,BKN,BKN,2500.0,3100.0,6000.0,25000.0,,,,,26.0,240.0,2022-01-01 17:10,75.9
HOU,2022-01-01 17:53,82.0,69.1,65.03,220.0,18.0,0.0,29.71,1006.4,10.0,27.0,SCT,BKN,BKN,BKN,2500.0,3000.0,4000.0,25000.0,,,,,32.0,200.0,2022-01-01 17:01,85.39
SJN,2022-01-01 17:54,27.0,21.9,80.83,290.0,21.0,0.0001,29.83,1009.5,10.0,27.0,BKN,BKN,OVC,,1600.0,2500.0,4400.0,,UP,,,,30.0,290.0,2022-01-01 17:37,12.18
NBG,2022-01-01 17:55,80.1,72.0,76.36,190.0,17.0,0.0,29.85,1010.8,10.0,31.0,SCT,BKN,OVC,,1800.0,2600.0,3300.0,,,,,,31.0,200.0,2022-01-01 17:50,83.94
ALK,2022-01-01 17:56,43.0,42.1,96.6,270.0,22.0,0.02,29.98,1011.2,8.0,32.0,FEW,SCT,OVC,,1600.0,2100.0,2600.0,,-RA,,,,37.0,270.0,2022-01-01 17:26,33.31
AQV,2022-01-01 17:57,82.0,66.0,58.43,210.0,9.0,0.0,29.7,1005.3,10.0,21.0,SCT,SCT,BKN,,3700.0,4700.0,7000.0,,,,,,27.0,230.0,2022-01-01 17:23,84.15
FHU,2022-01-01 17:58,45.1,39.2,79.67,270.0,19.0,0.0001,29.97,1012.8,6.0,25.0,FEW,BKN,OVC,,600.0,2200.0,3000.0,,-RA,,,,33.0,250.0,2022-01-01 17:09,36.76
IAB,2022-01-01 17:59,10.4,5.0,78.35,10.0,18.0,0.0,29.91,1015.2,7.0,21.0,BKN,BKN,OVC,,600.0,1300.0,2000.0,,BLSN,,,,,,,-8.69
CYPR,2022-01-01 18:00,39.2,37.4,93.19,260.0,13.0,0.0,29.31,992.7,9.0,25.0,BKN,BKN,BKN,OVC,1700.0,2200.0,6000.0,7000.0,-RA,,,,,,,30.79
PASD,2022-01-01 18:01,19.4,15.8,85.63,330.0,31.0,0.0,30.19,,2.0,38.0,SCT,BKN,OVC,,1000.0,1800.0,2500.0,,-SN BLSN,,,,38.0,340.0,2022-01-01 17:59,-0.89
PAVC,2022-01-01 18:02,21.2,15.8,79.31,280.0,25.0,0.0001,30.33,,2.0,42.0,FEW,BKN,OVC,,1800.0,3000.0,3800.0,,-SN,,,,42.0,280.0,2022-01-01 18:01,3.19
PAPM,2022-01-01 18:03,3.2,-2.2,77.67,350.0,25.0,0.0001,30.29,,3.0,34.0,FEW,SCT,,,900.0,1500.0,,,-SN,,,,37.0,350.0,2022-01-01 17:52,-21.18
CYGV,2022-01-01 18:04,33.8,30.2,86.49,190.0,9.0,0.0,29.84,1010.9,3.0,17.0,FEW,BKN,OVC,,1400.0,2500.0,3400.0,,-SN,,,,,,,25.75
BWG,2022-01-01 18:05,60.1,57.0,89.48,320.0,5.0,0.23,29.6,,0.5,21.0,SCT,BKN,OVC,,1900.0,4200.0,5000.0,,RA FG,,,,,,,60.1
HLC,2022-01-01 18:06,5.0,-0.9,76.03,360.0,18.0,0.0001,30.05,,3.0,29.0,BKN,OVC,,,2600.0,3400.0,,,-SN,,,,29.0,360.0,2022-01-01 18:02,-15.79
PAED,2022-01-01 18:07,11.7,-1.1,55.69,350.0,16.0,0.0,29.16,987.4,6.0,26.0,SCT,OVC,,,4000.0,12000.0,,,BLSN,,,,34.0,360.0,2022-01-01 17:41,-6.04
CYPR,2022-01-01 18:08,41.0,35.6,80.93,260.0,15.0,0.0,29.31,992.7,9.0,22.0,SCT,BKN,BKN,OVC,1700.0,2400.0,6000.0,7000.0,,,,,,,,32.45
PAVC,2022-01-01 18:09,21.2,12.2,67.73,290.0,22.0,0.0001,30.33,,5.0,42.0,FEW,BKN,OVC,,1800.0,2900.0,3600.0,,-SN,,,,42.0,280.0,2022-01-01 18:01,4.12
CYGV,2022-01-01 18:10,32.0,30.2,92.97,180.0,10.0,0.0,29.83,1010.7,2.0,15.0,FEW,BKN,OVC,,1000.0,2300.0,3400.0,,-SN,,,,,,,22.97
SLN,2022-01-01 18:11,7.0,1.9,79.13,350.0,22.0,0.0001,30.0,,2.0,30.0,SCT,OVC,,,2000.0,3500.0,,,HZ,,,,30.0,350.0,2022-01-01 18:02,-14.9
RSL,2022-01-01 18:12,3.9,-2.0,75.92,360.0,18.0,0.0001,30.0,,1.75,29.0,BKN,OVC,,,2800.0,3600.0,,,-SN,,,,29.0,350.0,2022-01-01 18:05,-17.24
HMN,2022-01-01 18:13,51.8,35.6,53.81,240.0,34.0,0.0,29.78,1005.5,10.0,42.0,FEW,BKN,OVC,,500.0,4400.0,6000.0,,-RA,,,,,,,51.8
MSL,2022-01-01 18:14,73.0,66.0,78.7,250.0,19.0,0.15,29.71,,1.25,24.0,FEW,BKN,OVC,,2700.0,3400.0,9500.0,,+RA,,,,26.0,210.0,2022-01-01 17:58,73.0
LVJ,2022-01-01 18:15,81.0,70.0,69.28,220.0,13.0,0.0,29.72,,8.0,32.0,BKN,BKN,OVC,,2600.0,3200.0,4700.0,,,,,,32.0,200.0,2022-01-01 18:10,84.5
DDC,2022-01-01 18:16,6.1,0.0,75.43,360.0,24.0,0.0001,29.93,,3.0,,BKN,OVC,,,1700.0,3900.0,,,-SN,,,,31.0,10.0,2022-01-01 18:09,-16.88
PASD,2022-01-01 18:17,19.4,15.8,85.63,340.0,29.0,0.0,30.2,,1.0,35.0,SCT,BKN,BKN,,1500.0,2600.0,3800.0,,BLSN,,,,38.0,340.0,2022-01-01 17:59,-0.38
PALH,2022-01-01 18:18,10.9,0.0,60.77,340.0,27.0,0.0,29.18,,1.0,39.0,FEW,BKN,,,4300.0,7000.0,,,BLSN,,,,39.0,340.0,2022-01-01 18:17,-11.41
LCH,2022-01-01 18:19,80.1,71.1,74.07,220.0,18.0,0.0,29.76,,8.0,31.0,FEW,SCT,BKN,,1600.0,2200.0,3400.0,,,,,,31.0,230.0,2022-01-01 18:19,83.64
GBD,2022-01-01 18:20,5.0,-0.4,77.84,350.0,22.0,0.0001,30.0,,7.0,26.0,FEW,BKN,OVC,,1400.0,2300.0,3100.0,,-SN,,,,26.0,350.0,2022-01-01 18:16,-17.58
SLN,2022-01-01 18:21,7.0,1.9,79.13,350.0,21.0,0.0001,30.0,,2.0,,BKN,BKN,OVC,,2000.0,2500.0,3300.0,,HZ,,,,30.0,350.0,2022-01-01 18:02,-14.49
POE,2022-01-01 18:22,78.8,66.2,65.33,190.0,15.0,0.0,29.7,1005.6,10.0,21.0,SCT,SCT,BKN,,3500.0,5000.0,7000.0,,-RA,,,,,,,78.8
1M4,2022-01-01 18:23,73.4,66.2,78.19,210.0,12.0,0.0001,29.78,,10.0,21.0,FEW,BKN,BKN,,2400.0,3100.0,3800.0,,,,,,26.0,220.0,2022-01-01 17:57,73.4
DDC,2022-01-01 18:24,7.0,0.0,72.41,360.0,23.0,0.0001,29.92,,2.5,33.0,BKN,OVC,,,1700.0,4000.0,,,-SN,,,,33.0,350.0,2022-01-01 18:18,-15.29
UIN,2022-01-01 18:25,27.0,25.0,92.05,360.0,10.0,0.0001,29.75,,1.25,,BKN,BKN,OVC,,800.0,1100.0,1700.0,,-FZRA BR,0.0001,,,,,,16.7
MSL,2022-01-01 18:26,73.9,66.9,78.77,220.0,14.0,0.22,29.7,,5.0,,FEW,SCT,BKN,,2400.0,3500.0,4700.0,,-RA,,,,26.0,210.0,2022-01-01 17:58,73.9
LVJ,2022-01-01 18:27,81.0,70.0,69.28,220.0,9.0,0.0,29.71,,7.0,25.0,SCT,BKN,BKN,,2600.0,4000.0,4700.0,,,,,,32.0,200.0,2022-01-01 18:10,84.5
PASD,2022-01-01 18:28,19.4,15.8,85.63,340.0,30.0,0.0,30.21,,0.5,35.0,SCT,BKN,OVC,,500.0,1500.0,2100.0,,-SN BLSN,,,,38.0,340.0,2022-01-01 17:59,-0.64
LXT,2022-01-01 18:29,12.9,9.0,84.07,360.0,17.0,0.0001,29.86,,5.0,26.0,BKN,OVC,,,1400.0,2200.0,,,-SN BR,,,,26.0,350.0,2022-01-01 18:26,-4.95
FHU,2022-01-01 18:30,41.0,35.6,80.93,280.0,17.0,0.0,29.99,1013.9,9.0,,FEW,BKN,BKN,BKN,1400.0,2100.0,2600.0,4300.0,-RA,,,,,,,31.87
HUT,2022-01-01 18:31,7.0,0.0,72.41,360.0,17.0,0.0001,29.95,,3.0,26.0,FEW,OVC,,,1400.0,2700.0,,,HZ,,,,31.0,350.0,2022-01-01 18:08,-12.68
ATL,2022-01-01 18:32,75.0,66.0,73.59,220.0,13.0,0.0,29.87,,10.0,27.0,FEW,SCT,BKN,BKN,2200.0,2600.0,3400.0,25000.0,,,,,27.0,220.0,2022-01-01 18:25,75.0
GCK,2022-01-01 18:33,5.0,0.0,79.32,10.0,22.0,0.0,29.95,,3.0,31.0,SCT,BKN,OVC,,1200.0,2600.0,3900.0,,HZ,,,,32.0,10.0,2022-01-01 18:18,-17.58
EMP,2022-01-01 18:34,10.0,3.9,75.83,360.0,15.0,0.0001,29.9,,1.5,26.0,BKN,OVC,,,1700.0,2400.0,,,-SN,,,,30.0,10.0,2022-01-01 18:16,-7.74
LVJ,2022-01-01 18:35,79.0,69.1,71.72,220.0,14.0,0.0,29.71,,7.0,25.0,BKN,BKN,BKN,,2600.0,4000.0,6000.0,,,,,,32.0,200.0,2022-01-01 18:10,79.0
LAN,2022-01-01 18:36,30.0,27.0,88.44,50.0,11.0,0.0,29.83,,3.0,,BKN,BKN,OVC,,800.0,1200.0,2200.0,,BR,0.0001,,,,,,19.94
PHNL,2022-01-01 18:37,71.6,66.2,83.09,200.0,7.0,0.0,29.86,,1.75,22.0,BKN,BKN,OVC,,2000.0,4200.0,9500.0,,+RA,,,,,,,71.6
PAVC,2022-01-01 18:38,21.2,15.8,79.31,300.0,24.0,0.0001,30.35,,2.5,35.0,FEW,BKN,OVC,,1300.0,2600.0,3400.0,,-SN,,,,42.0,280.0,2022-01-01 18:01,3.49
GRD,2022-01-01 18:39,70.0,66.0,87.14,230.0,11.0,0.0001,29.88,,2.5,22.0,SCT,BKN,OVC,,2600.0,3600.0,6000.0,,-RA BR,,,,,,,70.0
FHU,2022-01-01 18:40,39.2,35.6,86.79,290.0,16.0,0.0,29.98,1013.9,7.0,,FEW,BKN,BKN,BKN,700.0,1200.0,2100.0,2600.0,,,,,,,,29.8
GWO,2022-01-01 18:41,75.0,69.1,81.9,230.0,9.0,0.1,29.67,,2.5,31.0,SCT,BKN,BKN,,900.0,4200.0,4900.0,,-RA,,,,31.0,190.0,2022-01-01 18:31,75.0
PAVC,2022-01-01 18:42,21.2,15.8,79.31,310.0,21.0,0.0001,30.35,,3.0,34.0,FEW,BKN,OVC,,1300.0,2600.0,3100.0,,-SN,,,,42.0,280.0,2022-01-01 18:01,4.45
HBR,2022-01-01 18:43,19.9,15.1,81.3,10.0,19.0,0.0,29.87,,10.0,27.0,BKN,OVC,,,1500.0,2200.0,,,,,,,27.0,10.0,2022-01-01 18:37,3.44
LXT,2022-01-01 18:44,14.0,10.0,83.77,360.0,18.0,0.0001,29.86,,1.0,25.0,BKN,OVC,,,1400.0,2100.0,,,-SN BR,,,,26.0,350.0,2022-01-01 18:26,-3.95
BNA,2022-01-01 18:45,77.0,60.1,55.95,220.0,12.0,0.0001,29.6,,10.0,30.0,SCT,BKN,BKN,,4000.0,5500.0,8000.0,,VCTS -RA,,,,30.0,220.0,2022-01-01 18:32,77.0
WLD,2022-01-01 18:46,14.0,10.0,83.77,340.0,14.0,0.0001,29.91,,2.0,24.0,OVC,,,,1900.0,,,,-SN BR,,,,28.0,350.0,2022-01-01 18:19,-2.04
ORD,2022-01-01 18:47,33.8,28.4,80.36,40.0,16.0,0.0001,29.8,,2.0,25.0,BKN,OVC,,,1400.0,1900.0,,,-SN,,,,30.0,20.0,2022-01-01 17:55,22.76
FOE,2022-01-01 18:48,8.6,1.4,71.92,360.0,15.0,0.0001,29.91,,2.0,30.0,SCT,OVC,,,1500.0,3100.0,,,-SN,,,,31.0,360.0,2022-01-01 18:02,-9.56
DDC,2022-01-01 18:49,6.8,1.4,78.01,10.0,26.0,0.0001,29.89,,2.5,33.0,BKN,OVC,,,2000.0,2900.0,,,-SN,,,,34.0,360.0,2022-01-01 18:33,-16.66
CVS,2022-01-01 18:50,24.8,19.4,79.62,60.0,11.0,0.0,29.71,1006.3,10.0,,FEW,BKN,BKN,OVC,3500.0,4700.0,6500.0,7500.0,-UP,,,,,,,13.37
RDU,2022-01-01 18:51,77.0,64.0,64.21,230.0,20.0,0.0,29.79,1008.4,10.0,31.0,SCT,BKN,BKN,,3200.0,6000.0,25000.0,,,,,,31.0,230.0,2022-01-01 18:33,77.0
CLT,2022-01-01 18:52,75.9,64.0,66.6,220.0,13.0,0.0,29.82,1008.9,10.0,21.0,FEW,SCT,SCT,BKN,2900.0,3500.0,6000.0,25000.0,,,,,26.0,220.0,2022-01-01 17:56,75.9
TRI,2022-01-01 18:53,77.0,55.0,46.57,220.0,13.0,0.0,29.7,1003.6,10.0,26.0,BKN,BKN,BKN,BKN,7000.0,8000.0,11000.0,20000.0,,,,,31.0,230.0,2022-01-01 18:03,77.0
JAN,2022-01-01 18:54,82.9,64.9,54.62,190.0,21.0,0.0,29.71,1005.5,10.0,32.0,FEW,SCT,BKN,,4000.0,4800.0,6000.0,,,,,,32.0,210.0,2022-01-01 18:47,84.64
CNK,2022-01-01 18:55,3.9,-2.0,75.92,360.0,20.0,0.0001,30.01,1019.0,1.25,30.0,FEW,BKN,OVC,,1300.0,1800.0,3400.0,,-SN,,,,31.0,20.0,2022-01-01 18:07,-18.18
AND,2022-01-01 18:56,69.1,66.9,92.71,230.0,10.0,0.07,29.84,1009.7,5.0,19.0,FEW,BKN,OVC,,1800.0,7000.0,9000.0,,-RA BR,,,,27.0,210.0,2022-01-01 18:26,69.1
AQV,2022-01-01 18:57,80.1,66.0,62.17,210.0,9.0,0.0,29.67,1004.2,9.0,17.0,SCT,BKN,OVC,,3500.0,6000.0,8000.0,,,,,,27.0,180.0,2022-01-01 18:06,82.17
HMN,2022-01-01 18:58,45.9,37.0,70.9,250.0,18.0,1.64,29.8,1006.5,10.0,24.0,FEW,FEW,BKN,BKN,2900.0,3700.0,4500.0,5500.0,,,,,44.0,260.0,2022-01-01 18:14,38.05
HMN,2022-01-01 18:59,46.4,37.4,70.68,240.0,19.0,0.0,29.8,1006.5,10.0,24.0,FEW,BKN,BKN,OVC,2700.0,4200.0,5000.0,7500.0,-DZ,,,,,,,38.48
BNA,2022-01-01 19:00,69.1,60.1,73.03,240.0,12.0,0.07,29.64,,1.0,36.0,SCT,BKN,OVC,,2800.0,4000.0,8000.0,,+RA BR,,,,34.0,240.0,2022-01-01 19:00,69.1
UGN,2022-01-01 19:01,30.9,27.0,85.26,20.0,11.0,0.0001,29.81,,0.75,30.0,BKN,BKN,OVC,,1000.0,1400.0,2500.0,,-SN BR,,,,30.0,20.0,2022-01-01 18:57,21.08
CNK,2022-01-01 19:02,5.0,-0.9,76.03,360.0,20.0,0.0001,30.01,,1.5,26.0,BKN,OVC,,,2000.0,4000.0,,,-SN,,,,26.0,360.0,2022-01-01 19:00,-16.72
CSV,2022-01-01 19:03,68.0,60.1,75.84,260.0,13.0,0.03,29.72,,1.75,26.0,FEW,BKN,OVC,,2900.0,4100.0,7500.0,,RA,,,,26.0,260.0,2022-01-01 19:03,68.0
LXT,2022-01-01 19:04,12.9,10.0,87.92,350.0,16.0,0.0001,29.86,,0.75,23.0,SCT,BKN,OVC,,900.0,1400.0,2100.0,,-SN BR,,,,,,,-4.48
BNA,2022-01-01 19:05,66.9,61.0,81.33,250.0,18.0,0.22,29.63,,1.0,42.0,BKN,BKN,OVC,,2700.0,4200.0,7000.0,,+RA BR,,,,42.0,260.0,2022-01-01 19:01,66.9
FFO,2022-01-01 19:06,53.6,51.8,93.6,340.0,7.0,0.0,29.65,1004.3,8.0,,SCT,SCT,BKN,OVC,400.0,1700.0,2500.0,3000.0,-RA,,,,,,,53.6
DMN,2022-01-01 19:07,43.0,36.0,76.12,280.0,19.0,0.0001,29.84,,10.0,28.0,SCT,BKN,OVC,,2400.0,2900.0,3800.0,,,,,,28.0,290.0,2022-01-01 19:07,33.98
GSP,2022-01-01 19:08,71.1,64.0,78.28,210.0,17.0,0.0001,29.82,,8.0,21.0,BKN,BKN,OVC,,2100.0,2900.0,7500.0,,-RA,,,,,,,71.1
CYCG,2022-01-01 19:09,6.8,1.4,78.01,170.0,4.0,0.0,30.33,1031.2,4.0,,FEW,FEW,SCT,BKN,500.0,2500.0,3500.0,7100.0,-SN,,,,,,,-2.01
CNK,2022-01-01 19:10,3.9,-2.0,75.92,360.0,21.0,0.01,30.01,,1.0,31.0,BKN,BKN,OVC,,1600.0,2900.0,4200.0,,-SN,,,,31.0,350.0,2022-01-01 19:06,-18.62
IAB,2022-01-01 19:11,10.4,5.0,78.35,10.0,13.0,0.0,29.92,1015.5,4.0,23.0,BKN,BKN,OVC,,700.0,1100.0,1800.0,,BLSN,,,,,,,-6.1
SJN,2022-01-01 19:12,25.0,19.9,80.66,320.0,18.0,0.0001,29.86,,1.25,24.0,BKN,BKN,OVC,,1500.0,2400.0,3100.0,,-SN,,,,28.0,300.0,2022-01-01 19:01,10.53
CSV,2022-01-01 19:13,66.9,62.1,84.56,230.0,11.0,0.04,29.71,,3.0,24.0,FEW,BKN,BKN,,2900.0,4200.0,5000.0,,-RA,,,,26.0,260.0,2022-01-01 19:03,66.9
CYCG,2022-01-01 19:14,6.8,1.4,78.01,160.0,3.0,0.0,30.32,1031.1,10.0,,FEW,FEW,SCT,BKN,700.0,2500.0,4100.0,6800.0,-SN,,,,,,,-0.12
GBD,2022-01-01 19:15,5.0,-0.4,77.84,340.0,24.0,0.0001,29.98,,5.0,28.0,FEW,OVC,,,1200.0,3000.0,,,-SN,,,,28.0,350.0,2022-01-01 19:13,-18.37
CYPR,2022-01-01 19:16,39.2,35.6,86.79,230.0,7.0,0.0,29.33,993.5,9.0,17.0,SCT,BKN,BKN,OVC,1900.0,2400.0,3400.0,7600.0,-RA,,,,,,,33.56
CYNA,2022-01-01 19:17,32.0,32.0,100.0,170.0,10.0,0.0,29.89,1012.4,1.75,16.0,SCT,BKN,OVC,,500.0,1000.0,1400.0,,-SN,,,,,,,22.97
CYPR,2022-01-01 19:18,39.2,35.6,86.79,240.0,3.0,0.0,29.33,993.6,9.0,17.0,SCT,BKN,BKN,OVC,1900.0,2700.0,5500.0,7800.0,-RA,,,,,,,36.92
IRK,2022-01-01 19:19,12.9,9.0,84.07,340.0,14.0,0.01,29.84,,0.75,23.0,BKN,OVC,,,2100.0,3100.0,,,-SN BR,,,,32.0,350.0,2022-01-01 18:57,-3.46
BNA,2022-01-01 19:20,66.0,60.1,81.27,280.0,14.0,0.39,29.65,,9.0,30.0,BKN,BKN,OVC,,1000.0,2500.0,3200.0,,-RA,,,,42.0,260.0,2022-01-01 19:01,66.0
DDC,2022-01-01 19:21,7.0,1.0,75.88,360.0,26.0,0.0001,29.91,,1.75,34.0,FEW,BKN,OVC,,1600.0,2000.0,2900.0,,-SN,,,,34.0,360.0,2022-01-01 19:21,-16.39
PHHI,2022-01-01 19:22,69.8,66.2,88.34,120.0,3.0,0.0,29.89,1011.4,10.0,,FEW,SCT,BKN,BKN,500.0,1100.0,3200.0,6000.0,-RA,,,,,,,69.8
DMN,2022-01-01 19:23,44.1,35.1,70.43,280.0,25.0,0.0001,29.84,,10.0,34.0,SCT,BKN,OVC,,2500.0,4100.0,4800.0,,,,,,34.0,270.0,2022-01-01 19:10,34.19
PAVC,2022-01-01 19:24,21.2,15.8,79.31,290.0,28.0,0.0001,30.37,,2.0,36.0,FEW,BKN,OVC,,1600.0,2600.0,3700.0,,-SN,,,,36.0,270.0,2022-01-01 19:16,2.35
HYS,2022-01-01 19:25,5.0,-0.4,77.84,340.0,23.0,0.0001,30.02,,2.5,27.0,BKN,OVC,,,1600.0,2400.0,,,-SN,,,,27.0,360.0,2022-01-01 19:19,-17.98
AFW,2022-01-01 19:26,64.0,51.1,62.85,330.0,27.0,0.0001,29.66,,10.0,38.0,FEW,SCT,SCT,BKN,4700.0,10000.0,18000.0,28000.0,-RA SQ,,,,38.0,320.0,2022-01-01 19:23,64.0
PAVC,2022-01-01 19:27,21.2,14.0,73.32,310.0,20.0,0.0001,30.38,,4.0,35.0,FEW,SCT,OVC,,1600.0,2600.0,3500.0,,-SN,,,,36.0,270.0,2022-01-01 19:16,4.79
CNK,2022-01-01 19:28,5.0,-2.0,72.18,360.0,17.0,0.01,30.02,,2.0,28.0,BKN,BKN,OVC,,2000.0,2900.0,4200.0,,-SN,,,,31.0,350.0,2022-01-01 19:06,-15.3
CVS,2022-01-01 19:29,24.8,21.2,85.96,50.0,14.0,0.0,29.72,1006.6,6.0,,FEW,FEW,SCT,BKN,400.0,800.0,1200.0,1900.0,-SN,,,,,,,11.88
DTO,2022-01-01 19:30,51.1,44.1,76.86,340.0,19.0,0.0,29.7,,10.0,32.0,BKN,BKN,OVC,,1300.0,2800.0,3500.0,,,,,,33.0,340.0,2022-01-01 19:10,51.1
GVL,2022-01-01 19:31,73.9,63.0,68.76,220.0,12.0,0.0001,29.85,,10.0,26.0,SCT,BKN,OVC,,2500.0,3400.0,10000.0,,,,,,26.0,210.0,2022-01-01 19:29,73.9
MCI,2022-01-01 19:32,10.0,3.9,75.83,10.0,19.0,0.01,29.89,,2.0,27.0,FEW,BKN,OVC,,1200.0,1600.0,3600.0,,-SN,,,,30.0,360.0,2022-01-01 18:56,-9.66
BNA,2022-01-01 19:33,64.0,59.0,83.78,320.0,11.0,0.39,29.64,,8.0,18.0,SCT,BKN,BKN,,1200.0,2600.0,3800.0,,-RA,,,,42.0,260.0,2022-01-01 19:01,64.0
CVS,2022-01-01 19:34,24.8,21.2,85.96,20.0,17.0,0.0,29.73,1007.0,4.0,,FEW,SCT,BKN,BKN,400.0,800.0,1200.0,1800.0,-SN,,,,,,,10.64
CVS,2022-01-01 19:35,24.8,19.4,79.62,10.0,18.0,0.0,29.75,1007.7,2.75,,SCT,SCT,SCT,BKN,300.0,800.0,1200.0,1800.0,-SN,,,,,,,10.27
PAVC,2022-01-01 19:36,21.2,15.8,79.31,290.0,22.0,0.0001,30.37,,2.5,41.0,FEW,BKN,OVC,,1600.0,2800.0,3500.0,,-SN,,,,41.0,310.0,2022-01-01 19:36,4.12
MSY,2022-01-01 19:37,81.0,71.1,71.92,190.0,16.0,0.0,29.8,,10.0,24.0,SCT,BKN,BKN,,2400.0,2900.0,3500.0,,,,,,29.0,210.0,2022-01-01 19:17,84.95
AFW,2022-01-01 19:38,57.9,48.0,69.52,330.0,28.0,0.0,29.69,,10.0,35.0,FEW,SCT,SCT,BKN,3500.0,6000.0,18000.0,28000.0,,,,,38.0,320.0,2022-01-01 19:23,57.9
LBL,2022-01-01 19:39,8.6,1.4,71.92,360.0,19.0,0.0001,29.94,,3.0,25.0,FEW,BKN,OVC,,900.0,1500.0,6500.0,,-SN,,,,,,,-11.51
BKF,2022-01-01 19:40,6.8,1.4,78.01,310.0,3.0,0.0,29.87,1019.5,3.0,,SCT,BKN,OVC,,2200.0,3000.0,3500.0,,-SN,,,,,,,-0.12
PGSN,2022-01-01 19:41,75.9,73.9,93.53,50.0,17.0,0.03,29.89,,4.0,26.0,FEW,BKN,OVC,,900.0,3500.0,4600.0,,-RA BR,,,,26.0,50.0,2022-01-01 19:36,75.9
SJN,2022-01-01 19:42,25.0,19.9,80.66,310.0,13.0,0.0001,29.87,,3.0,,BKN,BKN,OVC,,2100.0,3400.0,4700.0,,-SN,,,,28.0,300.0,2022-01-01 19:01,12.6
MCI,2022-01-01 19:43,10.0,5.0,79.76,360.0,14.0,0.01,29.88,,1.5,23.0,FEW,SCT,OVC,,1200.0,2000.0,3600.0,,-SN,,,,30.0,360.0,2022-01-01 18:56,-7.2
PBF,2022-01-01 19:44,66.0,57.9,75.12,340.0,23.0,0.0001,29.58,,9.0,33.0,FEW,SCT,BKN,,1700.0,2200.0,3300.0,,-RA,,,,33.0,320.0,2022-01-01 19:35,66.0
SJN,2022-01-01 19:45,26.1,21.0,80.75,300.0,16.0,0.0001,29.88,,1.75,20.0,BKN,BKN,OVC,,2100.0,3400.0,4900.0,,-SN,,,,28.0,300.0,2022-01-01 19:01,12.73
UIN,2022-01-01 19:46,26.1,23.0,87.87,360.0,17.0,0.0001,29.73,,1.0,24.0,FEW,BKN,OVC,,700.0,1500.0,2800.0,,BR,0.0001,,,,,,12.35
CYPR,2022-01-01 19:47,39.2,33.8,80.79,260.0,6.0,0.0,29.34,993.7,9.0,,SCT,BKN,BKN,OVC,1900.0,2700.0,4200.0,6600.0,,,,,,,,34.2
GBD,2022-01-01 19:48,5.0,-0.4,77.84,360.0,24.0,0.0001,29.96,,2.5,30.0,SCT,BKN,OVC,,1500.0,2800.0,3200.0,,-SN,,,,30.0,360.0,2022-01-01 19:45,-18.37
CYPR,2022-01-01 19:49,39.2,33.8,80.79,260.0,10.0,0.0,29.34,993.7,9.0,,BKN,BKN,BKN,OVC,2100.0,2900.0,3800.0,6600.0,,,,,,,,32.0
NEW,2022-01-01 19:50,80.6,71.6,74.11,200.0,26.0,0.0,29.8,,10.0,31.0,SCT,SCT,BKN,,2400.0,2900.0,3400.0,,,,,,33.0,200.0,2022-01-01 19:28,84.57
ROW,2022-01-01 19:51,48.9,39.9,70.95,290.0,27.0,0.0001,29.67,1002.1,7.0,35.0,SCT,BKN,OVC,,4500.0,5000.0,7000.0,,RA,,,,40.0,260.0,2022-01-01 18:52,40.38
DDC,2022-01-01 19:52,7.0,0.0,72.41,10.0,25.0,0.0001,29.92,1017.4,1.5,35.0,FEW,BKN,OVC,,1300.0,2400.0,2900.0,,-SN,,,,35.0,350.0,2022-01-01 19:46,-16.03
HSV,2022-01-01 19:53,79.0,64.0,60.11,200.0,20.0,0.0001,29.69,1004.6,10.0,28.0,FEW,SCT,BKN,BKN,4600.0,6000.0,10000.0,25000.0,-RA,,,,32.0,210.0,2022-01-01 19:07,79.0
JAN,2022-01-01 19:54,81.0,64.9,58.1,200.0,18.0,0.0,29.68,1004.6,10.0,31.0,FEW,BKN,BKN,,4800.0,7000.0,9500.0,,,,,,31.0,210.0,2022-01-01 19:49,82.79
CNK,2022-01-01 19:55,3.9,-2.0,75.92,360.0,18.0,0.01,30.04,1020.3,3.0,28.0,BKN,OVC,,,2600.0,4400.0,,,-SN,,,,31.0,350.0,2022-01-01 19:06,-17.24
LBL,2022-01-01 19:56,9.0,3.0,76.08,10.0,24.0,0.0001,29.91,1016.9,4.0,29.0,BKN,BKN,OVC,,1300.0,1800.0,6000.0,,-SN,,,,29.0,360.0,2022-01-01 19:53,-12.97
AQV,2022-01-01 19:57,80.1,66.0,62.17,210.0,8.0,0.0,29.64,1003.2,9.0,22.0,SCT,BKN,OVC,,3300.0,4400.0,8500.0,,,,,,,,,82.17
0J4,2022-01-01 19:58,79.0,66.0,64.45,210.0,9.0,0.0,29.92,1012.5,10.0,25.0,FEW,BKN,OVC,,2500.0,3800.0,4600.0,,,,,,26.0,190.0,2022-01-01 19:11,79.0
MCI,2022-01-01 19:59,10.0,5.0,79.76,360.0,15.0,0.0001,29.88,,1.75,26.0,FEW,BKN,OVC,,1100.0,2400.0,3500.0,,-SN,,,,,,,-7.74
PBF,2022-01-01 20:00,61.0,57.9,89.52,360.0,18.0,0.03,29.6,,3.0,27.0,FEW,SCT,OVC,,1500.0,2400.0,3300.0,,RA BR,,,,27.0,340.0,2022-01-01 19:55,61.0
LBL,2022-01-01 20:01,8.6,3.2,78.18,360.0,23.0,0.0001,29.91,,2.0,29.0,SCT,BKN,OVC,,900.0,1500.0,6000.0,,-SN,,,,27.0,10.0,2022-01-01 19:59,-13.14
DDC,2022-01-01 20:02,6.1,0.0,75.43,360.0,25.0,0.0001,29.94,,2.5,32.0,FEW,OVC,,,1700.0,2600.0,,,-SN,,,,32.0,360.0,2022-01-01 20:01,-17.25
TOP,2022-01-01 20:03,10.0,3.0,72.75,360.0,13.0,0.0001,29.97,,1.5,26.0,BKN,BKN,OVC,,1400.0,3800.0,4600.0,,-SN,,,,26.0,360.0,2022-01-01 19:57,-6.62
PAPM,2022-01-01 20:04,3.2,1.4,91.99,330.0,28.0,0.0001,30.35,,0.75,34.0,FEW,BKN,OVC,,800.0,1500.0,2200.0,,-SN BR,,,,34.0,340.0,2022-01-01 19:58,-22.26
DHT,2022-01-01 20:05,10.9,3.0,69.89,360.0,26.0,0.0001,29.85,,1.25,36.0,SCT,OVC,,,2800.0,4000.0,,,-SN,,,,36.0,350.0,2022-01-01 20:04,-11.09
TOP,2022-01-01 20:06,10.0,3.0,72.75,350.0,12.0,0.0001,29.97,,2.5,26.0,SCT,BKN,OVC,,1400.0,3800.0,4600.0,,-SN,,,,26.0,360.0,2022-01-01 19:57,-6.0
LXT,2022-01-01 20:07,10.9,6.1,80.57,10.0,18.0,0.0001,29.87,,5.0,26.0,BKN,OVC,,,1700.0,2300.0,,,-SN,,,,26.0,350.0,2022-01-01 20:04,-8.03
TKI,2022-01-01 20:08,60.1,53.1,77.65,340.0,21.0,0.0,29.67,,10.0,30.0,SCT,BKN,BKN,,1400.0,2900.0,3600.0,,,,,,30.0,330.0,2022-01-01 20:01,60.1
CYDL,2022-01-01 20:09,3.2,-0.4,84.56,60.0,3.0,0.0,28.98,986.7,3.0,,BKN,BKN,BKN,OVC,3500.0,5000.0,9600.0,12000.0,-SN,,,,,,,-4.24
SBKP,2022-01-01 20:10,71.6,68.0,88.43,40.0,10.0,0.0,29.85,,3.11,,FEW,SCT,SCT,BKN,1500.0,2500.0,3000.0,10000.0,SHRA BR,,,,,,,71.6
CNU,2022-01-01 20:11,16.0,10.9,79.92,350.0,17.0,0.0001,29.86,,1.25,26.0,SCT,OVC,,,1100.0,1900.0,,,-SN,,,,26.0,350.0,2022-01-01 20:07,-0.89
GBD,2022-01-01 20:12,6.8,1.4,78.01,350.0,24.0,0.0001,29.97,,3.0,27.0,BKN,OVC,,,1300.0,3200.0,,,-SN,,,,29.0,360.0,2022-01-01 19:57,-15.94
TOP,2022-01-01 20:13,10.0,3.0,72.75,330.0,14.0,0.01,29.98,,4.0,22.0,SCT,BKN,OVC,,1600.0,3700.0,4600.0,,-SN,,,,26.0,360.0,2022-01-01 19:57,-7.2
CYDL,2022-01-01 20:14,3.2,-2.2,77.67,70.0,4.0,0.0,28.98,986.9,6.0,,SCT,BKN,BKN,OVC,3200.0,4000.0,10000.0,12000.0,-SN,,,,,,,-6.21
NEW,2022-01-01 20:15,81.0,71.1,71.92,210.0,21.0,0.0,29.79,,10.0,27.0,BKN,BKN,BKN,,2600.0,3300.0,4300.0,,,,,,32.0,200.0,2022-01-01 19:59,84.95
LBL,2022-01-01 20:16,8.6,1.4,71.92,10.0,19.0,0.0001,29.95,,9.0,30.0,FEW,BKN,OVC,,900.0,1200.0,6000.0,,-SN,,,,30.0,10.0,2022-01-01 20:07,-11.51
HTS,2022-01-01 20:17,61.0,57.9,89.52,330.0,6.0,0.02,29.52,,3.0,,SCT,BKN,OVC,,1000.0,2300.0,8000.0,,RA BR,,,,26.0,310.0,2022-01-01 20:02,61.0
SBTE,2022-01-01 20:18,75.2,75.2,100.0,240.0,2.0,0.0,29.8,,4.97,,BKN,FEW,BKN,,2000.0,3000.0,9000.0,,TSRA,,,,,,,75.2
PAGK,2022-01-01 20:19,1.0,-9.0,61.96,360.0,25.0,0.0001,29.22,,1.75,36.0,BKN,OVC,,,6000.0,7000.0,,,UP,,,,36.0,350.0,2022-01-01 20:15,-24.16
LXT,2022-01-01 20:20,10.9,7.0,83.93,350.0,18.0,0.0001,29.87,,1.75,25.0,BKN,OVC,,,1800.0,2300.0,,,-SN BR,,,,26.0,350.0,2022-01-01 20:04,-8.03
CAO,2022-01-01 20:21,10.9,5.0,76.62,360.0,20.0,0.01,29.75,,1.25,28.0,BKN,BKN,OVC,,2400.0,3300.0,4900.0,,-SN,,,,28.0,360.0,2022-01-01 20:07,-8.89
CNK,2022-01-01 20:22,5.0,-0.9,76.03,360.0,17.0,0.0001,30.03,,2.0,27.0,FEW,SCT,OVC,,1200.0,2600.0,4400.0,,-SN,,,,28.0,360.0,2022-01-01 20:05,-15.3
UZA,2022-01-01 20:23,66.9,64.0,90.4,240.0,15.0,0.19,29.83,,0.75,31.0,FEW,BKN,OVC,,1500.0,2700.0,7500.0,,+RA BR,,,,31.0,220.0,2022-01-01 20:17,66.9
CAO,2022-01-01 20:24,10.9,5.0,76.62,360.0,18.0,0.01,29.76,,1.5,28.0,SCT,BKN,OVC,,2600.0,3300.0,4900.0,,-SN,,,,28.0,360.0,2022-01-01 20:07,-8.03
HTS,2022-01-01 20:25,60.1,57.0,89.48,290.0,7.0,0.04,29.56,,4.0,,FEW,BKN,OVC,,600.0,1200.0,5000.0,,RA BR,,,,26.0,310.0,2022-01-01 20:02,60.1
LWD,2022-01-01 20:26,5.0,0.0,79.32,10.0,19.0,0.01,29.89,,0.5,33.0,VV ,,,,1000.0,,,,HZ,,,,33.0,10.0,2022-01-01 20:12,-16.27
NEW,2022-01-01 20:27,81.0,70.0,69.28,200.0,25.0,0.0,29.79,,10.0,31.0,SCT,SCT,BKN,,2600.0,3000.0,3800.0,,,,,,32.0,200.0,2022-01-01 19:59,84.5
HTS,2022-01-01 20:28,59.0,57.0,93.07,290.0,16.0,0.05,29.6,,1.75,23.0,SCT,BKN,OVC,,600.0,1600.0,3100.0,,+RA BR,,,,26.0,310.0,2022-01-01 20:02,59.0
CNK,2022-01-01 20:29,5.0,-0.9,76.03,350.0,19.0,0.0001,30.03,,2.0,27.0,FEW,BKN,OVC,,1200.0,2000.0,4400.0,,-SN,,,,28.0,360.0,2022-01-01 20:05,-16.27
LBL,2022-01-01 20:30,8.6,1.4,71.92,360.0,19.0,0.0001,29.96,,4.0,,FEW,SCT,OVC,,900.0,1400.0,2700.0,,-SN,,,,30.0,10.0,2022-01-01 20:07,-11.51
PASD,2022-01-01 20:31,21.2,14.0,73.32,330.0,34.0,0.0,30.23,,7.0,41.0,FEW,SCT,BKN,,1700.0,3400.0,5000.0,,-SN,,,,44.0,330.0,2022-01-01 20:02,0.89
GCK,2022-01-01 20:32,5.0,0.0,79.32,10.0,23.0,0.0001,29.95,,0.75,29.0,FEW,BKN,OVC,,1000.0,1600.0,2400.0,,-SN,,,,29.0,350.0,2022-01-01 20:28,-17.98
CFV,2022-01-01 20:33,19.0,14.0,80.52,340.0,20.0,0.0001,29.86,,5.0,26.0,SCT,OVC,,,900.0,1500.0,,,-SN,0.01,,,26.0,350.0,2022-01-01 20:33,1.87
GCK,2022-01-01 20:34,5.0,0.0,79.32,10.0,21.0,0.0001,29.95,,1.0,29.0,FEW,BKN,OVC,,1000.0,1600.0,2400.0,,-SN,,,,29.0,350.0,2022-01-01 20:28,-17.16
1A6,2022-01-01 20:35,70.5,62.2,74.99,240.0,10.0,0.01,29.66,,10.0,21.0,SCT,BKN,OVC,,2100.0,3900.0,6500.0,,-RA,,,,,,,70.5
DHT,2022-01-01 20:36,10.9,1.9,66.41,10.0,26.0,0.0001,29.85,,3.0,34.0,FEW,SCT,OVC,,1600.0,2500.0,4600.0,,-SN,,,,38.0,10.0,2022-01-01 20:08,-11.09
UZA,2022-01-01 20:37,66.9,63.0,87.28,240.0,11.0,0.23,29.83,,3.0,19.0,FEW,BKN,OVC,,1900.0,3100.0,4800.0,,-RA BR,,,,31.0,220.0,2022-01-01 20:17,66.9
EKQ,2022-01-01 20:38,62.6,62.6,100.0,310.0,11.0,0.25,29.66,,1.75,37.0,SCT,BKN,OVC,,500.0,4600.0,11000.0,,-RA BR,,,,40.0,300.0,2022-01-01 20:28,62.6
CYZH,2022-01-01 20:39,-13.0,-18.4,76.02,100.0,8.0,0.0,29.54,1007.0,2.5,15.0,BKN,BKN,OVC,,2400.0,3300.0,4300.0,,-SN,,,,,,,-31.32
TOP,2022-01-01 20:40,10.0,3.0,72.75,340.0,13.0,0.01,29.98,,2.0,20.0,FEW,BKN,OVC,,1900.0,2500.0,3600.0,,-SN,,,,26.0,360.0,2022-01-01 19:57,-6.62
END,2022-01-01 20:41,14.0,6.8,72.53,350.0,20.0,0.0,29.92,1015.0,10.0,27.0,SCT,BKN,OVC,,600.0,1400.0,1900.0,,-UP,,,,,,,-4.77
HTS,2022-01-01 20:42,57.0,55.9,96.1,340.0,11.0,0.21,29.58,,2.0,17.0,SCT,BKN,OVC,,800.0,3100.0,6000.0,,RA BR,,,,26.0,310.0,2022-01-01 20:02,57.0
CYQY,2022-01-01 20:43,37.4,37.4,100.0,190.0,10.0,0.0,30.03,1017.4,2.0,18.0,BKN,BKN,OVC,,600.0,1500.0,2800.0,,-RA BR,,,,,,,29.74
EQY,2022-01-01 20:44,70.0,66.0,87.14,230.0,13.0,0.02,29.8,,2.0,24.0,FEW,BKN,OVC,,2700.0,5000.0,6000.0,,-RA BR,,,,27.0,220.0,2022-01-01 20:06,70.0
EMP,2022-01-01 20:45,10.0,5.0,79.76,350.0,15.0,0.0001,29.92,,1.25,24.0,SCT,OVC,,,1600.0,2500.0,,,-SN,,,,32.0,350.0,2022-01-01 20:11,-7.74
DDC,2022-01-01 20:46,6.8,1.4,78.01,360.0,19.0,0.0001,29.94,,2.5,30.0,SCT,BKN,OVC,,2200.0,2800.0,3300.0,,-SN,,,,32.0,10.0,2022-01-01 20:35,-13.89
HYS,2022-01-01 20:47,6.8,1.4,78.01,350.0,20.0,0.0001,30.02,,1.25,,BKN,BKN,OVC,,1700.0,2200.0,2800.0,,-SN,,,,31.0,350.0,2022-01-01 20:36,-14.33
MXF,2022-01-01 20:48,78.8,66.2,65.33,190.0,10.0,0.0,29.79,1008.9,10.0,,SCT,SCT,SCT,BKN,3900.0,4800.0,6500.0,8000.0,,,,,,,,78.8
RSL,2022-01-01 20:49,6.8,-0.4,71.71,360.0,21.0,0.0001,30.0,,2.0,27.0,BKN,BKN,OVC,,2100.0,2800.0,3500.0,,-SN,,,,31.0,360.0,2022-01-01 20:23,-14.76
CQC,2022-01-01 20:50,28.4,21.2,74.08,290.0,19.0,0.0001,29.65,1004.2,9.0,27.0,FEW,BKN,OVC,,1400.0,3800.0,5000.0,,-SN,,,,27.0,290.0,2022-01-01 20:39,14.68
RDU,2022-01-01 20:51,77.0,63.0,62.0,230.0,20.0,0.0,29.76,1007.3,10.0,27.0,SCT,BKN,BKN,,4000.0,5000.0,25000.0,,,,,,29.0,220.0,2022-01-01 19:59,77.0
DDC,2022-01-01 20:52,6.1,1.0,79.05,360.0,22.0,0.0001,29.95,1018.6,1.75,30.0,FEW,BKN,OVC,,1100.0,2800.0,3300.0,,-SN,,,,32.0,10.0,2022-01-01 20:35,-16.1
TYS,2022-01-01 20:53,72.0,62.1,71.02,230.0,22.0,0.0001,29.67,1003.8,8.0,32.0,SCT,SCT,BKN,OVC,4000.0,6500.0,10000.0,25000.0,RA,,,,37.0,210.0,2022-01-01 20:08,72.0
GCK,2022-01-01 20:54,5.0,0.0,79.32,360.0,20.0,0.0001,29.98,1020.2,1.25,26.0,FEW,BKN,OVC,,1000.0,2000.0,2900.0,,-SN,,,,29.0,350.0,2022-01-01 20:28,-16.72
NBG,2022-01-01 20:55,80.1,73.0,78.99,200.0,17.0,0.0,29.79,1008.8,10.0,26.0,BKN,BKN,OVC,,1900.0,3100.0,3900.0,,,,,,29.0,200.0,2022-01-01 20:38,84.3
LBL,2022-01-01 20:56,8.1,1.9,75.29,360.0,18.0,0.0001,29.98,1019.6,2.5,24.0,FEW,SCT,OVC,,800.0,1200.0,2700.0,,-SN,,,,30.0,10.0,2022-01-01 20:07,-11.71
EQY,2022-01-01 20:57,69.1,66.0,89.86,260.0,12.0,0.15,29.81,,1.25,18.0,FEW,BKN,OVC,,1200.0,3900.0,6000.0,,+RA BR,,,,,,,69.1
PASD,2022-01-01 20:58,21.2,15.8,79.31,330.0,29.0,0.0,30.25,,8.0,35.0,FEW,SCT,BKN,,1700.0,3400.0,5000.0,,-SN,,,,32.0,330.0,2022-01-01 20:57,2.09
CYZY,2022-01-01 20:59,14.0,8.6,78.68,160.0,16.0,0.0,29.43,1001.6,7.0,21.0,BKN,BKN,OVC,,2600.0,3200.0,4400.0,,-SN,,,,,,,-3.04
SBBH,2022-01-01 21:00,68.0,66.2,93.97,50.0,7.0,0.0,29.94,,1.24,20.0,SCT,FEW,SCT,BKN,4000.0,4500.0,4900.0,10000.0,+TSRA,,,,,,,68.0
PGSN,2022-01-01 21:01,75.9,73.9,93.53,40.0,14.0,0.0001,29.93,,9.0,,BKN,BKN,OVC,,1400.0,2500.0,3100.0,,-RA,,,,,,,75.9
PAVC,2022-01-01 21:02,23.0,15.8,73.51,300.0,20.0,0.0001,30.4,,1.75,34.0,FEW,BKN,OVC,,1500.0,2800.0,3600.0,,-SN,,,,29.0,280.0,2022-01-01 20:58,7.19
EMP,2022-01-01 21:03,10.0,3.9,75.83,350.0,15.0,0.0001,29.94,,1.5,26.0,BKN,BKN,OVC,,1400.0,1900.0,2500.0,,-SN,,,,26.0,340.0,2022-01-01 21:00,-7.74
PBG,2022-01-01 21:04,37.0,36.0,96.13,360.0,4.0,0.0001,29.7,,1.75,,BKN,BKN,OVC,,800.0,1500.0,2700.0,,UP BR,,,,,,,33.26
CYKL,2022-01-01 21:05,3.2,-0.4,84.56,290.0,8.0,0.0,29.59,1007.4,5.0,,SCT,BKN,OVC,,2900.0,3600.0,6600.0,,-SN,,,,,,,-11.36
LBL,2022-01-01 21:06,8.6,1.4,71.92,360.0,20.0,0.0001,29.97,,7.0,24.0,SCT,BKN,OVC,,1200.0,2500.0,3900.0,,-SN,,,,,,,-11.94
PHNL,2022-01-01 21:07,69.8,66.2,88.34,240.0,16.0,0.0,29.9,,2.5,22.0,FEW,BKN,OVC,,600.0,1000.0,1600.0,,+RA BR,,,,,,,69.8
OJC,2022-01-01 21:08,10.9,7.0,83.93,10.0,14.0,0.0001,29.89,,1.0,26.0,FEW,OVC,,,1500.0,2400.0,,,-SN BR,,,,26.0,20.0,2022-01-01 20:58,-6.04
CVN,2022-01-01 21:09,19.4,15.8,85.63,40.0,21.0,0.0001,29.79,,1.0,26.0,FEW,BKN,OVC,,800.0,1200.0,2500.0,,-SN BR,,,,26.0,40.0,2022-01-01 21:06,2.05
TQV,2022-01-01 21:10,77.0,60.8,57.36,200.0,19.0,0.0,29.74,,10.0,26.0,SCT,BKN,BKN,,4900.0,5500.0,10000.0,,,,,,,,,77.0
EQY,2022-01-01 21:11,68.0,66.0,93.32,250.0,16.0,0.23,29.81,,2.0,,SCT,BKN,OVC,,900.0,1700.0,4200.0,,RA BR,,,,,,,68.0
LOZ,2022-01-01 21:12,64.9,61.0,87.18,260.0,25.0,0.22,29.64,,0.75,39.0,FEW,BKN,OVC,,1800.0,4800.0,10000.0,,RA BR,,,,39.0,270.0,2022-01-01 21:11,64.9
HYS,2022-01-01 21:13,6.8,-0.4,71.71,360.0,23.0,0.0001,30.02,,2.0,29.0,FEW,SCT,BKN,,1000.0,1500.0,2900.0,,-SN,,,,29.0,360.0,2022-01-01 21:07,-15.56
DOV,2022-01-01 21:14,53.6,53.6,100.0,80.0,6.0,0.0,29.69,1005.8,4.0,,SCT,BKN,BKN,,300.0,3000.0,3900.0,,BR,,,,,,,53.6
HYS,2022-01-01 21:15,6.8,-0.4,71.71,360.0,22.0,0.0001,30.02,,1.75,29.0,FEW,SCT,BKN,,1000.0,1500.0,6500.0,,-SN,,,,29.0,360.0,2022-01-01 21:07,-15.17
LWD,2022-01-01 21:16,5.0,0.0,79.32,360.0,21.0,0.0,29.92,,2.0,30.0,FEW,BKN,OVC,,2800.0,3300.0,5000.0,,HZ,,,,30.0,360.0,2022-01-01 21:08,-17.16
LCH,2022-01-01 21:17,75.9,71.1,85.09,210.0,14.0,0.0001,29.69,,6.0,25.0,SCT,BKN,OVC,,1300.0,2000.0,6000.0,,HZ,,,,,,,75.9
LBL,2022-01-01 21:18,8.6,1.4,71.92,360.0,22.0,0.0001,29.96,,9.0,26.0,FEW,SCT,OVC,,900.0,2500.0,3900.0,,-SN,,,,26.0,360.0,2022-01-01 21:18,-12.76
RAC,2022-01-01 21:19,26.1,23.0,87.87,360.0,19.0,0.0001,29.87,,0.5,32.0,BKN,OVC,,,900.0,1400.0,,,SN FZFG,,,,32.0,10.0,2022-01-01 21:11,11.63
CYZH,2022-01-01 21:20,-11.2,-18.4,69.5,90.0,13.0,0.0,29.51,1005.9,3.0,18.0,BKN,BKN,OVC,,2400.0,3000.0,3700.0,,-SN,,,,,,,-33.78
LOZ,2022-01-01 21:21,63.0,62.1,96.88,310.0,11.0,0.23,29.64,,1.0,30.0,FEW,BKN,OVC,,1300.0,3600.0,9000.0,,-RA BR,,,,39.0,270.0,2022-01-01 21:11,63.0
HEZ,2022-01-01 21:22,78.8,69.8,73.95,220.0,18.0,0.0,29.67,,10.0,32.0,BKN,BKN,OVC,,3100.0,4500.0,6000.0,,,,,,32.0,210.0,2022-01-01 21:20,78.8
HYS,2022-01-01 21:23,6.8,1.4,78.01,350.0,19.0,0.0001,30.04,,3.0,,FEW,SCT,BKN,,1200.0,2900.0,5500.0,,-SN,,,,29.0,360.0,2022-01-01 21:07,-13.89
CYZH,2022-01-01 21:24,-11.2,-16.6,76.21,100.0,12.0,0.0,29.52,1006.0,2.25,18.0,BKN,BKN,OVC,,2400.0,3000.0,3700.0,,-SN,,,,,,,-32.98
AMA,2022-01-01 21:25,12.0,6.1,76.73,340.0,18.0,0.0001,29.88,,0.5,27.0,BKN,BKN,OVC,,1400.0,1900.0,3400.0,,SN,,,,32.0,350.0,2022-01-01 21:06,-6.58
GBD,2022-01-01 21:26,6.8,1.4,78.01,360.0,24.0,0.0001,30.0,,3.0,29.0,SCT,OVC,,,1300.0,4100.0,,,-SN,,,,29.0,10.0,2022-01-01 21:26,-15.94
RSL,2022-01-01 21:27,6.1,-0.9,72.31,360.0,22.0,0.0001,30.03,,4.0,28.0,BKN,BKN,OVC,,2100.0,2600.0,4200.0,,HZ,,,,30.0,360.0,2022-01-01 21:13,-16.1
OJC,2022-01-01 21:28,10.9,6.1,80.57,350.0,15.0,0.0001,29.9,,0.75,,FEW,OVC,,,1400.0,2500.0,,,-SN,,,,26.0,20.0,2022-01-01 20:58,-6.57
LOZ,2022-01-01 21:29,62.1,61.0,96.18,320.0,9.0,0.24,29.64,,4.0,19.0,FEW,BKN,OVC,,1500.0,4500.0,7000.0,,RA BR,,,,39.0,270.0,2022-01-01 21:11,62.1
NEW,2022-01-01 21:30,80.1,71.1,74.07,190.0,19.0,0.0,29.78,,10.0,24.0,SCT,BKN,BKN,,2300.0,2800.0,3400.0,,,,,,36.0,220.0,2022-01-01 20:54,83.64
TZR,2022-01-01 21:31,51.8,50.0,93.55,10.0,6.0,0.0,29.64,,7.0,,SCT,BKN,OVC,,300.0,7500.0,8000.0,,RA,,,,,,,51.8
EQY,2022-01-01 21:32,66.9,64.9,93.29,220.0,17.0,0.31,29.8,,1.75,32.0,SCT,BKN,OVC,,1200.0,3400.0,6000.0,,+RA BR,,,,32.0,230.0,2022-01-01 21:28,66.9
YLHI,2022-01-01 21:33,71.6,64.4,78.04,90.0,22.0,0.0,29.83,,4.97,32.0,SCT,BKN,OVC,,2200.0,3200.0,4500.0,,-RA,,,,,,,71.6
CSV,2022-01-01 21:34,66.0,62.1,87.24,290.0,12.0,0.09,29.71,,1.5,26.0,FEW,BKN,OVC,,1200.0,4200.0,8000.0,,+RA BR,,,,26.0,280.0,2022-01-01 21:34,66.0
CRW,2022-01-01 21:35,60.1,60.1,100.0,320.0,18.0,0.08,29.57,,2.0,26.0,BKN,BKN,OVC,,1000.0,2800.0,7000.0,,RA BR,,,,26.0,320.0,2022-01-01 21:35,60.1
FTK,2022-01-01 21:36,53.6,53.6,100.0,100.0,3.0,0.0,29.65,1004.1,10.0,,FEW,SCT,BKN,,4800.0,6000.0,7500.0,,-RA,,,,,,,53.6
CRW,2022-01-01 21:37,59.0,59.0,100.0,320.0,19.0,0.09,29.57,,2.0,30.0,BKN,BKN,OVC,,800.0,2800.0,7000.0,,+RA BR,,,,30.0,320.0,2022-01-01 21:36,59.0
CSV,2022-01-01 21:38,64.0,63.0,96.55,250.0,10.0,0.21,29.69,,0.5,27.0,SCT,BKN,OVC,,1900.0,4200.0,7500.0,,+RA FG,,,,27.0,280.0,2022-01-01 21:35,64.0
EQY,2022-01-01 21:39,66.9,64.9,93.29,220.0,13.0,0.31,29.8,,3.0,25.0,FEW,BKN,OVC,,1200.0,4700.0,8500.0,,-RA BR,,,,32.0,230.0,2022-01-01 21:28,66.9
TYS,2022-01-01 21:40,68.0,63.0,84.03,250.0,20.0,0.02,29.68,,1.0,30.0,FEW,BKN,OVC,,3100.0,5000.0,8000.0,,+RA,,,,41.0,230.0,2022-01-01 21:24,68.0
PAVC,2022-01-01 21:41,21.2,15.8,79.31,300.0,22.0,0.0001,30.4,,1.25,32.0,FEW,BKN,OVC,,1700.0,2500.0,3200.0,,-SN,,,,36.0,270.0,2022-01-01 21:25,4.12
AMA,2022-01-01 21:42,12.0,6.1,76.73,360.0,19.0,0.02,29.87,,0.5,,BKN,OVC,,,900.0,1400.0,,,SN,,,,32.0,350.0,2022-01-01 21:06,-7.01
GSH,2022-01-01 21:43,33.1,30.0,88.23,40.0,11.0,0.02,29.73,,1.75,17.0,SCT,BKN,OVC,,800.0,1500.0,2600.0,,-SN BR,,,,,,,23.86
AMA,2022-01-01 21:44,12.0,6.1,76.73,350.0,21.0,0.02,29.87,,0.75,,BKN,OVC,,,900.0,1400.0,,,-SN,,,,32.0,350.0,2022-01-01 21:06,-7.82
CYYG,2022-01-01 21:45,37.4,37.4,100.0,140.0,6.0,0.0,29.89,1012.7,15.0,,FEW,SCT,OVC,,400.0,1200.0,1600.0,,VCFG,,,,,,,32.03
CSV,2022-01-01 21:46,63.0,63.0,100.0,260.0,6.0,0.22,29.69,,1.0,18.0,FEW,BKN,OVC,,2000.0,3800.0,8000.0,,-RA BR,,,,27.0,280.0,2022-01-01 21:35,63.0
CVN,2022-01-01 21:47,17.6,12.2,79.0,30.0,17.0,0.0001,29.82,,9.0,24.0,SCT,BKN,OVC,,1000.0,2300.0,3100.0,,-SN,,,,26.0,40.0,2022-01-01 21:06,1.21
CQC,2022-01-01 21:48,24.8,23.0,92.74,300.0,19.0,0.01,29.69,,0.25,27.0,FEW,OVC,,,500.0,1000.0,,,+SN FZFG,,,,27.0,310.0,2022-01-01 21:48,9.92
CSV,2022-01-01 21:49,62.6,62.6,100.0,260.0,9.0,0.22,29.7,,4.0,,FEW,BKN,OVC,,1600.0,4300.0,9000.0,,-RA BR,,,,27.0,280.0,2022-01-01 21:35,62.6
LLN,2022-01-01 21:50,30.2,24.8,80.07,10.0,16.0,0.0,29.82,,2.0,22.0,SCT,SCT,SCT,,2100.0,2800.0,3500.0,,-SN HZ,,,,,,,18.07
ORD,2022-01-01 21:51,30.9,27.0,85.26,30.0,18.0,0.0001,29.79,1009.3,0.75,25.0,SCT,BKN,OVC,,700.0,1100.0,2500.0,,-SN BR,,,,31.0,30.0,2022-01-01 21:03,18.3
PWK,2022-01-01 21:52,30.9,27.0,85.26,20.0,15.0,0.04,29.82,1010.3,1.0,24.0,BKN,BKN,OVC,,800.0,1300.0,2000.0,,-SN BR,,,,28.0,30.0,2022-01-01 21:05,19.35
CHA,2022-01-01 21:53,77.0,62.1,60.06,170.0,9.0,0.0,29.67,1004.1,10.0,16.0,FEW,BKN,BKN,BKN,4500.0,5500.0,10000.0,25000.0,,,,,27.0,210.0,2022-01-01 20:58,77.0
GSO,2022-01-01 21:54,70.0,63.0,78.46,210.0,19.0,0.0001,29.74,1006.1,10.0,24.0,FEW,SCT,OVC,,4100.0,6500.0,8000.0,,-RA,,,,29.0,220.0,2022-01-01 21:20,70.0
CNK,2022-01-01 21:55,5.0,-0.9,76.03,10.0,17.0,0.0001,30.05,1020.8,4.0,26.0,BKN,OVC,,,1900.0,3400.0,,,-SN,,,,27.0,350.0,2022-01-01 21:18,-15.3
LBL,2022-01-01 21:56,9.0,1.9,72.3,350.0,17.0,0.0001,29.99,1020.3,8.0,22.0,FEW,BKN,OVC,,1200.0,3100.0,5500.0,,-SN,,,,27.0,10.0,2022-01-01 21:38,-10.06
CYBC,2022-01-01 21:57,32.0,32.0,100.0,250.0,6.0,0.0,29.69,1005.8,2.5,,SCT,BKN,OVC,,600.0,1000.0,1600.0,,-SN,,,,,,,25.53
HMN,2022-01-01 21:58,48.2,25.5,40.83,240.0,26.0,0.0,29.82,1007.2,10.0,36.0,SCT,SCT,BKN,,1000.0,6500.0,8000.0,,,,,,43.0,250.0,2022-01-01 20:57,39.58
PASD,2022-01-01 21:59,21.2,15.8,79.31,330.0,34.0,0.0,30.24,,10.0,41.0,FEW,FEW,SCT,,2100.0,3800.0,6000.0,,,,,,41.0,330.0,2022-01-01 21:58,0.89
CYCQ,2022-01-01 22:00,30.2,17.6,59.01,230.0,12.0,0.0,29.27,994.8,15.0,20.0,FEW,SCT,BKN,BKN,3000.0,6000.0,13000.0,14000.0,,,,,,,,19.71
MNE,2022-01-01 22:01,75.2,71.6,88.59,210.0,9.0,0.0,29.61,,10.0,14.0,SCT,SCT,BKN,,1800.0,3900.0,7500.0,,-RA,,,,,,,75.2
CQC,2022-01-01 22:02,23.0,21.0,91.9,300.0,20.0,0.01,29.7,,0.5,26.0,FEW,OVC,,,600.0,1000.0,,,-SN FZFG,,,,26.0,300.0,2022-01-01 22:01,7.19
LOZ,2022-01-01 22:03,60.1,60.1,100.0,310.0,7.0,0.02,29.66,,4.0,,SCT,BKN,OVC,,4100.0,5000.0,6000.0,,RA BR,,,,,,,60.1
PAMD,2022-01-01 22:04,30.2,28.4,92.92,360.0,21.0,0.0001,28.77,,0.75,30.0,BKN,OVC,,,500.0,900.0,,,-SN BR,,,,31.0,20.0,2022-01-01 21:52,16.45
CQC,2022-01-01 22:05,23.0,19.9,87.7,300.0,20.0,0.01,29.7,,2.0,26.0,FEW,FEW,OVC,,600.0,1000.0,1400.0,,-SN BR,,,,26.0,300.0,2022-01-01 22:01,7.19
NEW,2022-01-01 22:06,80.1,70.0,71.35,200.0,20.0,0.0,29.79,,10.0,29.0,SCT,SCT,BKN,,2500.0,3100.0,3900.0,,,,,,29.0,180.0,2022-01-01 22:02,83.28
PAMD,2022-01-01 22:07,30.2,28.4,92.92,360.0,20.0,0.0001,28.77,,1.0,30.0,SCT,OVC,,,500.0,900.0,,,-SN BR,,,,31.0,20.0,2022-01-01 21:52,16.75
CYAM,2022-01-01 22:08,12.2,3.2,66.58,10.0,9.0,0.0,30.02,1018.1,10.0,,FEW,SCT,BKN,BKN,1300.0,2200.0,10000.0,20000.0,-SHSN,,,,,,,-1.11
CQC,2022-01-01 22:09,23.0,19.9,87.7,300.0,16.0,0.02,29.7,,3.0,26.0,FEW,BKN,OVC,,600.0,1600.0,3700.0,,-SN BR,,,,26.0,300.0,2022-01-01 22:01,8.69
MDW,2022-01-01 22:10,32.0,28.0,84.98,20.0,18.0,0.01,29.8,,1.0,27.0,SCT,OVC,,,700.0,1100.0,,,-SN BR,,,,31.0,10.0,2022-01-01 21:57,19.75
DWU,2022-01-01 22:11,53.6,53.6,100.0,310.0,5.0,0.02,29.67,,0.75,,SCT,BKN,OVC,,900.0,1300.0,4800.0,,RA BR,,,,,,,53.6
AMA,2022-01-01 22:12,12.0,5.0,72.97,360.0,17.0,0.0001,29.86,,10.0,28.0,FEW,BKN,OVC,,1400.0,5500.0,7000.0,,UP,,,,28.0,360.0,2022-01-01 22:07,-6.13
ROW,2022-01-01 22:13,50.0,34.0,53.97,320.0,19.0,0.0,29.73,,10.0,27.0,BKN,BKN,,,9500.0,11000.0,,,,,,,48.0,250.0,2022-01-01 21:55,50.0
UNO,2022-01-01 22:14,46.9,43.0,86.21,340.0,10.0,0.03,29.64,,1.75,26.0,BKN,BKN,OVC,,500.0,1200.0,2400.0,,-RA BR,,,,26.0,320.0,2022-01-01 22:07,41.65
PAMD,2022-01-01 22:15,30.2,28.4,92.92,10.0,21.0,0.0001,28.77,,1.0,29.0,SCT,BKN,OVC,,400.0,1000.0,1400.0,,-SN BR,,,,31.0,20.0,2022-01-01 21:52,16.45
UNO,2022-01-01 22:16,46.9,43.0,86.21,350.0,12.0,0.03,29.64,,2.5,26.0,SCT,BKN,OVC,,500.0,1200.0,2400.0,,-RA BR,,,,26.0,320.0,2022-01-01 22:07,40.97
PAMD,2022-01-01 22:17,30.2,28.4,92.92,10.0,19.0,0.0001,28.77,,1.25,29.0,FEW,BKN,OVC,,400.0,800.0,1400.0,,-SN BR,,,,31.0,20.0,2022-01-01 21:52,17.06
PAVC,2022-01-01 22:18,23.0,15.8,73.51,290.0,24.0,0.0001,30.39,,1.5,37.0,FEW,BKN,OVC,,1900.0,2600.0,3400.0,,-SN,,,,38.0,310.0,2022-01-01 22:03,5.92
CYRV,2022-01-01 22:19,12.2,6.8,78.51,180.0,10.0,0.0,30.24,1027.7,2.5,15.0,SCT,SCT,OVC,,1800.0,2300.0,2800.0,,-SN,,,,,,,-1.86
LLN,2022-01-01 22:20,24.8,21.2,85.96,20.0,14.0,0.0,29.85,,0.5,25.0,BKN,BKN,OVC,,500.0,1900.0,4600.0,,-SN BR,,,,,,,11.88
HDC,2022-01-01 22:21,80.6,69.8,69.71,200.0,11.0,0.0,29.75,,10.0,16.0,SCT,SCT,SCT,,3800.0,4500.0,5500.0,,,,,,,,,83.9
CAO,2022-01-01 22:22,9.0,1.9,72.3,10.0,20.0,0.0001,29.86,,1.75,29.0,BKN,OVC,,,3400.0,4200.0,,,-SN,,,,29.0,10.0,2022-01-01 22:18,-11.41
UNO,2022-01-01 22:23,46.0,42.1,86.16,340.0,11.0,0.04,29.65,,5.0,19.0,SCT,BKN,OVC,,500.0,1200.0,2600.0,,-RA BR,,,,26.0,320.0,2022-01-01 22:07,40.16
DPA,2022-01-01 22:24,25.0,21.0,84.53,10.0,14.0,0.01,29.82,,1.0,27.0,FEW,OVC,,,1300.0,1900.0,,,-SN BR,,,,27.0,10.0,2022-01-01 22:15,12.14
PASD,2022-01-01 22:25,21.2,14.0,73.32,330.0,33.0,0.0,30.25,,9.0,38.0,FEW,SCT,BKN,,2100.0,3800.0,6000.0,,-SN,,,,41.0,330.0,2022-01-01 22:05,1.11
ABQ,2022-01-01 22:26,33.1,17.1,51.37,310.0,16.0,0.0,29.83,,10.0,25.0,FEW,SCT,BKN,,2000.0,4000.0,7000.0,,,,,,28.0,310.0,2022-01-01 22:03,21.85
PAVC,2022-01-01 22:27,23.0,14.0,67.96,290.0,23.0,0.0001,30.39,,3.0,35.0,FEW,BKN,OVC,,1900.0,2700.0,3300.0,,-SN,,,,38.0,310.0,2022-01-01 22:03,6.22
CYRV,2022-01-01 22:28,14.0,6.8,72.53,180.0,13.0,0.0,30.24,1027.5,3.0,19.0,FEW,SCT,OVC,,2000.0,2400.0,3500.0,,-SN,,,,,,,-1.49
CYXT,2022-01-01 22:29,32.0,32.0,100.0,200.0,9.0,0.0,29.3,993.7,3.0,16.0,SCT,BKN,BKN,OVC,500.0,1200.0,2000.0,3400.0,-SN,,,,,,,23.51
MDW,2022-01-01 22:30,32.0,27.0,81.55,30.0,19.0,0.01,29.81,,2.0,31.0,SCT,BKN,OVC,,1100.0,1900.0,2900.0,,-SN BR,,,,31.0,50.0,2022-01-01 22:28,19.44
CAO,2022-01-01 22:31,9.0,1.9,72.3,360.0,20.0,0.0001,29.87,,2.0,29.0,BKN,BKN,OVC,,2800.0,3300.0,4100.0,,-SN,,,,29.0,10.0,2022-01-01 22:18,-11.41
ADG,2022-01-01 22:32,30.9,30.9,100.0,50.0,14.0,0.01,29.78,,9.0,19.0,FEW,BKN,OVC,,700.0,1100.0,2000.0,,-SN,0.0001,,,,,,19.74
DDC,2022-01-01 22:33,6.1,1.9,82.43,360.0,19.0,0.0001,29.99,,1.5,28.0,BKN,BKN,OVC,,2100.0,3300.0,4300.0,,-SN BR,,,,30.0,350.0,2022-01-01 22:14,-14.81
PAMD,2022-01-01 22:34,30.2,28.4,92.92,20.0,22.0,0.0001,28.77,,3.0,28.0,FEW,OVC,,,800.0,1600.0,,,-SN BR,,,,31.0,20.0,2022-01-01 21:52,16.17
DHT,2022-01-01 22:35,10.0,3.0,72.75,360.0,24.0,0.0,29.94,,5.0,33.0,SCT,BKN,OVC,,1600.0,2000.0,4500.0,,HZ,,,,33.0,360.0,2022-01-01 22:33,-11.62
PAMD,2022-01-01 22:36,30.2,28.4,92.92,20.0,22.0,0.0001,28.77,,2.5,27.0,FEW,OVC,,,800.0,1600.0,,,-SN BR,,,,31.0,20.0,2022-01-01 21:52,16.17
PAFE,2022-01-01 22:37,33.8,33.8,100.0,120.0,9.0,0.0001,29.14,,10.0,,FEW,SCT,OVC,,800.0,5000.0,9000.0,,-RA,,,,,,,25.75
RSL,2022-01-01 22:38,6.1,0.0,75.43,330.0,14.0,0.0001,30.07,,1.75,22.0,BKN,OVC,,,1900.0,3300.0,,,-SN,,,,26.0,350.0,2022-01-01 22:02,-12.22
IAB,2022-01-01 22:39,8.6,3.2,78.18,20.0,17.0,0.0,29.99,1018.1,7.0,23.0,SCT,BKN,OVC,,800.0,1600.0,2200.0,,BLSN,,,,,,,-10.58
IAB,2022-01-01 22:40,8.6,3.2,78.18,20.0,17.0,0.0,29.99,1018.1,6.0,23.0,SCT,BKN,OVC,,800.0,1600.0,2200.0,,HZ,,,,,,,-10.58
IAB,2022-01-01 22:41,8.6,3.2,78.18,20.0,17.0,0.0,29.99,1018.1,6.0,23.0,SCT,BKN,OVC,,800.0,1600.0,2200.0,,BLSN,,,,,,,-10.58
CTB,2022-01-01 22:42,12.9,6.1,73.74,250.0,41.0,0.0001,29.67,,0.5,55.0,VV ,,,,100.0,,,,UP,,,,59.0,260.0,2022-01-01 22:23,-12.31
LBB,2022-01-01 22:43,24.1,17.1,74.27,10.0,19.0,0.0001,29.85,,1.5,27.0,BKN,BKN,OVC,,2100.0,3100.0,4100.0,,-SN BLSN,,,,27.0,20.0,2022-01-01 22:04,8.99
OTM,2022-01-01 22:44,8.1,5.0,86.86,350.0,20.0,0.0001,29.98,,1.5,,SCT,OVC,,,1400.0,2900.0,,,-SN BR,,,,27.0,340.0,2022-01-01 22:19,-12.6
AMA,2022-01-01 22:45,10.9,3.9,72.85,350.0,18.0,0.0001,29.91,,7.0,31.0,FEW,BKN,OVC,,1400.0,2300.0,9500.0,,-SN,,,,31.0,350.0,2022-01-01 22:38,-8.03
CYQB,2022-01-01 22:46,33.8,33.8,100.0,240.0,6.0,0.0,29.69,1006.0,0.75,,FEW,BKN,OVC,,200.0,1100.0,4200.0,,BR,,,,,,,27.7
CYBC,2022-01-01 22:47,32.0,32.0,100.0,250.0,5.0,0.0,29.7,1005.9,1.5,,BKN,BKN,OVC,,400.0,700.0,1100.0,,-SN,,,,,,,26.4
MUI,2022-01-01 22:48,51.8,51.8,100.0,80.0,3.0,0.0,29.67,1005.1,4.0,,FEW,BKN,OVC,,1100.0,1900.0,2500.0,,-RA BR,,,,,,,51.8
CQC,2022-01-01 22:49,21.2,17.6,85.74,300.0,23.0,0.02,29.74,,8.0,29.0,BKN,BKN,OVC,,3000.0,3500.0,5500.0,,-SN,,,,29.0,300.0,2022-01-01 22:49,3.8
TQV,2022-01-01 22:50,68.0,64.4,88.26,240.0,16.0,0.0,29.77,,1.5,28.0,SCT,BKN,OVC,,1200.0,2300.0,3500.0,,BR,,,,,,,68.0
ORD,2022-01-01 22:51,30.0,26.1,85.21,30.0,23.0,0.02,29.82,1010.6,0.5,32.0,BKN,BKN,OVC,,700.0,1500.0,2000.0,,-SN FZFG,,,,32.0,30.0,2022-01-01 22:41,15.63
ABQ,2022-01-01 22:52,30.9,14.0,49.05,310.0,15.0,0.0,29.85,1010.7,10.0,27.0,FEW,SCT,BKN,,2000.0,4700.0,9000.0,,,,,,28.0,310.0,2022-01-01 22:03,19.35
CHA,2022-01-01 22:53,75.9,62.1,62.3,190.0,15.0,0.0001,29.68,1004.2,10.0,22.0,FEW,SCT,BKN,BKN,4600.0,6500.0,9000.0,25000.0,,,,,31.0,190.0,2022-01-01 22:04,75.9
GCK,2022-01-01 22:54,6.1,3.9,90.42,360.0,20.0,0.0001,30.02,1022.1,3.0,,FEW,SCT,OVC,,3700.0,4900.0,7000.0,,-SN BR,,,,30.0,20.0,2022-01-01 22:17,-15.26
CAO,2022-01-01 22:55,8.1,1.9,75.29,360.0,20.0,0.0001,29.88,1018.7,2.0,28.0,BKN,OVC,,,2600.0,3500.0,,,-SN,,,,29.0,10.0,2022-01-01 22:18,-12.6
PAED,2022-01-01 22:56,10.0,-4.9,50.13,330.0,16.0,0.0,29.26,990.8,10.0,26.0,FEW,FEW,SCT,,3000.0,6000.0,13000.0,,BLSN,,,,36.0,350.0,2022-01-01 22:19,-8.26
NJM,2022-01-01 22:57,64.0,62.1,93.54,230.0,17.0,0.0,29.88,1012.2,1.0,26.0,OVC,,,,200.0,,,,BR,,,,26.0,220.0,2022-01-01 22:53,64.0
BIF,2022-01-01 22:58,48.9,35.4,59.45,270.0,22.0,0.01,29.86,1008.7,10.0,31.0,BKN,BKN,BKN,,3800.0,4900.0,7000.0,,,,,,44.0,290.0,2022-01-01 22:36,41.21
SBN,2022-01-01 22:59,30.9,27.0,85.26,40.0,12.0,0.0001,29.77,,3.0,21.0,BKN,BKN,OVC,,900.0,1600.0,2900.0,,-SN BR,,,,,,,20.6
CYQG,2022-01-01 23:00,30.2,28.4,92.92,360.0,13.0,0.0,29.79,1009.6,2.5,18.0,BKN,BKN,BKN,OVC,900.0,1400.0,2100.0,3300.0,-SN,,,,,,,19.26
BEH,2022-01-01 23:01,28.9,25.0,85.14,40.0,8.0,0.01,29.81,,1.25,17.0,SCT,BKN,OVC,,800.0,1300.0,4000.0,,-SN BR,,,,,,,20.29
BGD,2022-01-01 23:02,12.0,3.0,66.56,360.0,17.0,0.0,30.0,,4.0,26.0,FEW,OVC,,,2000.0,2700.0,,,HZ,,,,26.0,10.0,2022-01-01 22:59,-6.13
PAVC,2022-01-01 23:03,23.0,15.8,73.51,300.0,26.0,0.0001,30.39,,2.5,36.0,BKN,OVC,,,2900.0,3600.0,,,-SN,,,,36.0,300.0,2022-01-01 23:03,5.35
RJSN,2022-01-01 23:04,32.0,28.4,86.39,200.0,15.0,0.0,30.21,,0.93,,FEW,SCT,BKN,,2000.0,3000.0,4000.0,,-SHSN,,,,,,,20.78
DDC,2022-01-01 23:05,6.1,1.9,82.43,360.0,18.0,0.0001,30.01,,2.0,25.0,BKN,OVC,,,2100.0,7000.0,,,-SN BR,,,,26.0,10.0,2022-01-01 22:55,-14.35
LWD,2022-01-01 23:06,3.9,-0.9,79.97,360.0,19.0,0.01,29.97,,3.0,27.0,OVC,,,,5500.0,,,,-SN,,,,28.0,10.0,2022-01-01 22:55,-17.72
PACZ,2022-01-01 23:07,-0.4,-4.0,84.3,20.0,39.0,0.0,30.52,1035.6,8.0,44.0,FEW,,,,700.0,,,,-SN,,,,44.0,20.0,2022-01-01 23:07,-30.59
AMA,2022-01-01 23:08,10.0,3.9,75.83,340.0,19.0,0.0001,29.95,,7.0,28.0,SCT,OVC,,,1600.0,4400.0,,,UP,,,,28.0,340.0,2022-01-01 22:58,-9.66
CYQG,2022-01-01 23:09,30.2,28.4,92.92,10.0,13.0,0.0,29.79,1009.9,1.75,21.0,BKN,BKN,BKN,OVC,900.0,1400.0,1900.0,3300.0,-SN,,,,,,,19.26
PADQ,2022-01-01 23:10,15.8,1.4,52.31,290.0,20.0,0.0,29.21,,10.0,35.0,SCT,BKN,OVC,,3000.0,3700.0,12000.0,,,,,,37.0,270.0,2022-01-01 22:55,-2.38
PAVD,2022-01-01 23:11,21.2,1.4,41.49,40.0,13.0,0.0,29.16,,10.0,48.0,FEW,BKN,BKN,,6000.0,10000.0,20000.0,,SQ,,,,48.0,70.0,2022-01-01 23:08,7.73
MSL,2022-01-01 23:12,64.9,62.1,90.64,270.0,19.0,0.05,29.67,,5.0,36.0,FEW,SCT,OVC,,700.0,2500.0,3500.0,,VCTS -RA BR,,,,36.0,270.0,2022-01-01 23:09,64.9
SPI,2022-01-01 23:13,30.0,27.0,88.44,360.0,17.0,0.0001,29.79,,7.0,27.0,FEW,BKN,OVC,,600.0,900.0,1800.0,,-FZRA,0.0001,,,27.0,360.0,2022-01-01 23:13,17.46
PIA,2022-01-01 23:14,24.1,19.0,80.59,10.0,11.0,0.01,29.83,,1.25,32.0,FEW,OVC,,,800.0,1700.0,,,-SN,,,,32.0,10.0,2022-01-01 23:05,12.48
MSL,2022-01-01 23:15,64.0,61.0,89.97,330.0,15.0,0.07,29.67,,3.0,36.0,FEW,BKN,OVC,,700.0,2100.0,3300.0,,+RA BR,,,,36.0,270.0,2022-01-01 23:09,64.0
PAVC,2022-01-01 23:16,23.0,14.0,67.96,290.0,22.0,0.0001,30.4,,7.0,34.0,SCT,OVC,,,2600.0,3400.0,,,-SN,,,,36.0,300.0,2022-01-01 23:03,6.53
CYQG,2022-01-01 23:17,30.2,28.4,92.92,10.0,16.0,0.0,29.8,1010.2,1.5,24.0,SCT,BKN,BKN,OVC,900.0,1400.0,1900.0,3300.0,-SN,,,,,,,18.07
VPZ,2022-01-01 23:18,30.0,28.0,92.15,20.0,13.0,0.0001,29.77,,1.5,21.0,FEW,BKN,OVC,,1000.0,1800.0,2800.0,,-SN BR,,,,,,,19.01
GBD,2022-01-01 23:19,6.8,1.4,78.01,360.0,20.0,0.0001,30.08,,9.0,,FEW,SCT,OVC,,1100.0,2300.0,3400.0,,-SN,,,,,,,-14.33
SPI,2022-01-01 23:20,30.0,26.1,85.21,10.0,13.0,0.0001,29.79,,9.0,27.0,SCT,OVC,,,900.0,1800.0,,,-FZRA,0.0001,,,27.0,360.0,2022-01-01 23:13,19.01
LBB,2022-01-01 23:21,21.9,16.0,77.67,30.0,16.0,0.02,29.85,,3.0,25.0,FEW,BKN,OVC,,1200.0,2900.0,7000.0,,-SN BR,,,,27.0,10.0,2022-01-01 22:59,7.25
CYPR,2022-01-01 23:22,37.4,33.8,86.69,130.0,5.0,0.0,29.3,992.6,9.0,,FEW,SCT,BKN,OVC,2100.0,3800.0,5500.0,7000.0,-RA,,,,,,,32.81
BNA,2022-01-01 23:23,57.9,54.0,86.82,350.0,5.0,0.21,29.72,,2.5,,FEW,BKN,OVC,,1700.0,3800.0,5500.0,,+RA BR,,,,,,,57.9
PASD,2022-01-01 23:24,21.2,12.2,67.73,330.0,31.0,0.0,30.26,,9.0,40.0,FEW,SCT,BKN,,2100.0,3800.0,6000.0,,-SN,,,,40.0,330.0,2022-01-01 23:17,1.59
MSL,2022-01-01 23:25,61.0,59.0,93.12,350.0,11.0,0.16,29.65,,2.5,25.0,FEW,BKN,OVC,,800.0,2400.0,3500.0,,+RA BR,,,,36.0,270.0,2022-01-01 23:09,61.0
IAB,2022-01-01 23:26,8.6,3.2,78.18,10.0,15.0,0.0,30.03,1019.5,5.0,22.0,SCT,BKN,OVC,,800.0,1600.0,2200.0,,BLSN,,,,,,,-9.56
CYQB,2022-01-01 23:27,33.8,33.8,100.0,240.0,8.0,0.0,29.7,1006.3,4.0,,FEW,FEW,OVC,,200.0,1100.0,5100.0,,BR,,,,,,,26.33
DDC,2022-01-01 23:28,6.1,1.9,82.43,350.0,18.0,0.0001,30.03,,3.0,,SCT,OVC,,,1700.0,7000.0,,,-SN BR,,,,26.0,360.0,2022-01-01 23:17,-14.35
MSL,2022-01-01 23:29,62.1,59.0,89.57,10.0,11.0,0.16,29.65,,3.0,19.0,FEW,BKN,OVC,,800.0,2600.0,4500.0,,VCTS -RA BR,,,,36.0,270.0,2022-01-01 23:09,62.1
VTSS,2022-01-01 23:30,75.2,75.2,100.0,110.0,4.0,0.0,29.85,,3.73,,FEW,FEW,SCT,BKN,1000.0,1800.0,2000.0,2500.0,-RA,,,,,,,75.2
ROW,2022-01-01 23:31,39.9,30.9,69.96,10.0,20.0,0.0,29.8,,10.0,31.0,FEW,SCT,OVC,,6500.0,9000.0,11000.0,,,,,,33.0,270.0,2022-01-01 22:53,29.63
BEH,2022-01-01 23:32,28.0,24.1,85.08,50.0,9.0,0.01,29.83,,1.25,22.0,SCT,BKN,OVC,,1000.0,1900.0,3800.0,,-SN BR,,,,,,,18.54
SPI,2022-01-01 23:33,30.0,27.0,88.44,10.0,21.0,0.0001,29.79,,5.0,34.0,BKN,BKN,OVC,,700.0,1200.0,1900.0,,-FZRA BR,0.0001,,,34.0,10.0,2022-01-01 23:31,16.19
CYBC,2022-01-01 23:34,32.0,32.0,100.0,240.0,7.0,0.0,29.7,1006.0,3.0,,SCT,BKN,OVC,,400.0,700.0,2500.0,,-SN -UP,,,,,,,24.78
PAWD,2022-01-01 23:35,12.9,-2.0,50.62,330.0,28.0,0.0,29.11,,10.0,45.0,BKN,BKN,OVC,,2800.0,8500.0,10000.0,,,,,,48.0,340.0,2022-01-01 23:19,-8.99
JXN,2022-01-01 23:36,26.1,23.0,87.87,10.0,11.0,0.01,29.79,,1.5,18.0,SCT,BKN,OVC,,800.0,1400.0,3300.0,,-SN BR,,,,,,,15.01
CYCK,2022-01-01 23:37,32.0,30.2,92.97,20.0,14.0,0.0,29.76,1008.8,5.0,19.0,BKN,BKN,BKN,,1100.0,2900.0,3400.0,,-SN,,,,,,,21.16
SPI,2022-01-01 23:38,30.0,26.1,85.21,20.0,18.0,0.0001,29.79,,7.0,34.0,SCT,BKN,OVC,,700.0,1200.0,1900.0,,UP,0.0001,,,34.0,10.0,2022-01-01 23:31,17.12
MSL,2022-01-01 23:39,61.0,59.0,93.12,10.0,8.0,0.17,29.65,,10.0,17.0,FEW,BKN,OVC,,800.0,3200.0,6000.0,,VCTS -RA,,,,36.0,270.0,2022-01-01 23:09,61.0
LVS,2022-01-01 23:40,12.9,9.0,84.07,50.0,13.0,0.0001,29.79,,1.0,28.0,FEW,OVC,,,800.0,1200.0,,,-SN BR,,,,28.0,50.0,2022-01-01 23:32,-2.9
CDS,2022-01-01 23:41,21.9,10.9,62.07,350.0,21.0,0.0001,30.0,,2.5,31.0,BKN,BKN,OVC,,2400.0,3300.0,4300.0,,-SN,,,,31.0,350.0,2022-01-01 23:39,5.38
LBB,2022-01-01 23:42,21.0,15.1,77.59,10.0,20.0,0.02,29.9,,1.0,29.0,SCT,BKN,OVC,,1200.0,3300.0,7000.0,,-SN BLSN,,,,29.0,360.0,2022-01-01 23:42,4.53
GTR,2022-01-01 23:43,71.6,71.6,100.0,200.0,24.0,0.0,29.66,,2.5,41.0,FEW,BKN,OVC,,1100.0,2500.0,4200.0,,+TSRA BR,,,,41.0,200.0,2022-01-01 23:41,71.6
FDR,2022-01-01 23:44,23.0,12.9,64.75,350.0,21.0,0.0,29.98,,10.0,26.0,BKN,OVC,,,2700.0,3400.0,,,,,,,30.0,10.0,2022-01-01 22:55,6.85
SPI,2022-01-01 23:45,28.9,25.0,85.14,20.0,18.0,0.0001,29.78,,10.0,26.0,BKN,OVC,,,900.0,2100.0,,,UP,0.0001,,,34.0,10.0,2022-01-01 23:31,15.67
PIA,2022-01-01 23:46,23.0,19.0,84.39,360.0,11.0,0.01,29.84,,2.0,23.0,FEW,SCT,OVC,,1000.0,1400.0,2600.0,,-SN BR,,,,32.0,10.0,2022-01-01 23:05,11.09
TOL,2022-01-01 23:47,33.8,28.4,80.36,40.0,13.0,0.02,29.77,,7.0,,BKN,BKN,OVC,,1000.0,1400.0,2000.0,,-FZRA,0.01,,,,,,23.87
GTR,2022-01-01 23:48,71.6,71.6,100.0,180.0,15.0,0.0,29.66,,3.0,41.0,SCT,BKN,OVC,,500.0,2600.0,4100.0,,-TSRA BR,,,,41.0,200.0,2022-01-01 23:41,71.6
PAWD,2022-01-01 23:49,12.2,-2.2,51.71,330.0,30.0,0.0,29.11,,10.0,50.0,SCT,BKN,BKN,,3000.0,8500.0,11000.0,,,,,,50.0,330.0,2022-01-01 23:49,-10.54
CYQG,2022-01-01 23:50,28.4,26.6,92.86,10.0,13.0,0.0,29.8,1010.0,1.75,22.0,BKN,BKN,BKN,OVC,900.0,1200.0,2300.0,3400.0,-SN,,,,,,,16.96
ROW,2022-01-01 23:51,36.0,30.0,78.6,10.0,23.0,0.0001,29.84,1008.9,10.0,30.0,SCT,BKN,OVC,,700.0,3600.0,11000.0,,UP,,,,33.0,270.0,2022-01-01 22:53,23.69
SPI,2022-01-01 23:52,28.9,26.1,89.12,10.0,11.0,0.0001,29.79,1009.2,9.0,25.0,BKN,BKN,OVC,,700.0,1200.0,2100.0,,BR,0.0001,,0.0001,34.0,10.0,2022-01-01 23:31,18.55
TYS,2022-01-01 23:53,68.0,64.0,87.03,200.0,11.0,0.05,29.64,1002.9,10.0,21.0,SCT,BKN,OVC,,4500.0,9000.0,11000.0,,-RA,,,,37.0,210.0,2022-01-01 23:21,68.0
PIA,2022-01-01 23:54,23.0,19.0,84.39,10.0,11.0,0.02,29.85,1011.5,2.5,20.0,FEW,BKN,OVC,,1400.0,3000.0,4500.0,,-SN BR,,,,32.0,10.0,2022-01-01 23:05,11.09
CNK,2022-01-01 23:55,5.0,-2.0,72.18,350.0,17.0,0.0001,30.12,1023.1,7.0,24.0,OVC,,,,3700.0,,,,-SN,,,,27.0,340.0,2022-01-01 23:21,-15.3
GTR,2022-01-01 23:56,73.9,72.0,93.79,210.0,12.0,0.0,29.67,1005.2,10.0,25.0,FEW,BKN,OVC,,500.0,3200.0,8500.0,,-TSRA,,,,41.0,200.0,2022-01-01 23:41,73.9
CYQG,2022-01-01 23:57,28.4,26.6,92.86,360.0,12.0,0.0,29.81,1010.4,2.0,21.0,SCT,BKN,OVC,,700.0,1200.0,3400.0,,-SN,,,,,,,17.42
BIF,2022-01-01 23:58,47.7,28.0,46.13,290.0,20.0,0.0001,29.91,1010.4,10.0,30.0,FEW,BKN,BKN,,4200.0,5500.0,7000.0,,,,,,49.0,320.0,2022-01-01 23:29,39.99
CYQG,2022-01-01 23:59,28.4,26.6,92.86,10.0,14.0,0.0,29.81,1010.5,1.75,21.0,BKN,BKN,OVC,,1000.0,1500.0,3400.0,,-SN,,,,,,,16.52
